{"type": "FeatureCollection", "features": [{"type": "Feature", "geometry": {"type": "Point", "coordinates": [0.4405642, 47.683395]}, "properties": {"building": "yes", "man_made": "watermill", "name": "Moulin Pousset", "source": "cadastre-dgi-fr source : Direction Générale des Impôts - Cadastre. Mise à jour : 2012"}}, {"type": "Feature", "geometry": {"type": "Point", "coordinates": [0.4412277, 47.6831144]}, "properties": {"building": "yes", "man_made": "watermill", "name": "Moulin Martinet", "source": "cadastre-dgi-fr source : Direction Générale des Impôts - Cadastre. Mise à jour : 2012"}}, {"type": "Feature", "geometry": {"type": "Point", "coordinates": [0.4417531, 47.6823655]}, "properties": {"building": "yes", "man_made": "watermill", "name": "Moulin Saint-Jacques", "source": "cadastre-dgi-fr source : Direction Générale des Finances Publiques - Cadastre. Mise à jour : 2015"}}, {"type": "Feature", "geometry": {"type": "Point", "coordinates": [0.4185161, 47.6953742]}, "properties": {"amenity": "fountain", "natural": "water"}}, {"type": "Feature", "geometry": {"type": "Point", "coordinates": [0.4184457, 47.6954274]}, "properties": {"amenity": "fountain", "natural": "water"}}, {"type": "Feature", "geometry": {"type": "Point", "coordinates": [0.3977051, 47.7132592]}, "properties": {"historic": "wayside_cross", "name": "Calvaire", "source": "cadastre-dgi-fr source : Direction Générale des Impôts - Cadastre ; mise à jour : mars 2010"}}, {"type": "Feature", "geometry": {"type": "Point", "coordinates": [0.4372887, 47.7409831]}, "properties": {"historic": "wayside_cross", "source": "cadastre-dgi-fr source : Direction Générale des Impôts - Cadastre ; mise à jour : mars 2011"}}, {"type": "Feature", "geometry": {"type": "Point", "coordinates": [0.4157498, 47.6958001]}, "properties": {"amenity": "fountain", "natural": "water"}}, {"type": "Feature", "geometry": {"type": "Point", "coordinates": [0.6078159, 47.6860499]}, "properties": {"amenity": "fountain"}}, {"type": "Feature", "geometry": {"type": "Point", "coordinates": [0.5642461, 47.8109662]}, "properties": {"historic": "wayside_cross", "source": "cadastre-dgi-fr source : Direction Générale des Impôts - Cadastre. Mise à jour : 2012"}}, {"type": "Feature", "geometry": {"type": "Point", "coordinates": [0.5612798, 47.8162849]}, "properties": {"historic": "wayside_cross", "source": "cadastre-dgi-fr source : Direction Générale des Impôts - Cadastre. Mise à jour : 2012"}}, {"type": "Feature", "geometry": {"type": "Point", "coordinates": [0.6211978, 47.749289]}, "properties": {"historic": "wayside_cross", "source": "cadastre-dgi-fr source : Direction Générale des Impôts - Cadastre. Mise à jour : 2012"}}, {"type": "Feature", "geometry": {"type": "Point", "coordinates": [0.61871, 47.7536053]}, "properties": {"historic": "wayside_cross", "source": "cadastre-dgi-fr source : Direction Générale des Impôts - Cadastre. Mise à jour : 2012"}}, {"type": "Feature", "geometry": {"type": "Point", "coordinates": [0.5838049, 47.8395423]}, "properties": {"historic": "wayside_cross", "source": "cadastre-dgi-fr source : Direction Générale des Impôts - Cadastre. Mise à jour : 2012"}}, {"type": "Feature", "geometry": {"type": "Point", "coordinates": [0.5108218, 47.740987]}, "properties": {"amenity": "fountain", "source": "cadastre-dgi-fr source : Direction Générale des Impôts - Cadastre. Mise à jour : 2014"}}, {"type": "Feature", "geometry": {"type": "Point", "coordinates": [0.4007819, 47.7570838]}, "properties": {"amenity": "fountain", "source": "cadastre-dgi-fr source : Direction Générale des Impôts - Cadastre. Mise à jour : 2014"}}, {"type": "Feature", "geometry": {"type": "Point", "coordinates": [0.3987147, 47.7597919]}, "properties": {"amenity": "fountain", "source": "cadastre-dgi-fr source : Direction Générale des Impôts - Cadastre. Mise à jour : 2014"}}, {"type": "Feature", "geometry": {"type": "Point", "coordinates": [0.4968474, 47.8242801]}, "properties": {"historic": "wayside_cross", "source": "cadastre-dgi-fr source : Direction Générale des Impôts - Cadastre. Mise à jour : 2014"}}, {"type": "Feature", "geometry": {"type": "Point", "coordinates": [0.4593466, 47.8624122]}, "properties": {"historic": "wayside_cross"}}, {"type": "Feature", "geometry": {"type": "Point", "coordinates": [0.67119, 47.8264737]}, "properties": {"historic": "wayside_cross"}}, {"type": "Feature", "geometry": {"type": "Point", "coordinates": [0.5343012, 47.7350417]}, "properties": {"amenity": "fountain"}}, {"type": "Feature", "geometry": {"type": "Point", "coordinates": [0.5681572, 47.686445]}, "properties": {"denomination": "catholic", "historic": "wayside_cross", "religion": "christian"}}, {"type": "Feature", "geometry": {"type": "Point", "coordinates": [0.6798086, 47.7985012]}, "properties": {"historic": "wayside_cross"}}, {"type": "Feature", "geometry": {"type": "Point", "coordinates": [0.4820735, 47.6812972]}, "properties": {"historic": "wayside_cross"}}, {"type": "Feature", "geometry": {"type": "Point", "coordinates": [0.3798994, 47.6532779]}, "properties": {"historic": "wayside_cross"}}, {"type": "Feature", "geometry": {"type": "Point", "coordinates": [0.4747188, 47.6696777]}, "properties": {"historic": "wayside_cross", "material": "wood"}}, {"type": "Feature", "geometry": {"type": "Point", "coordinates": [0.6330929, 47.7540102]}, "properties": {"historic": "wayside_cross"}}, {"type": "Feature", "geometry": {"type": "Point", "coordinates": [0.5780467, 47.7371794]}, "properties": {"historic": "wayside_cross"}}, {"type": "Feature", "geometry": {"type": "Point", "coordinates": [0.4626371, 47.6966762]}, "properties": {"amenity": "fountain", "name": "fontaine de Pissot"}}, {"type": "Feature", "geometry": {"type": "Point", "coordinates": [0.4731034, 47.7131611]}, "properties": {"historic": "wayside_cross"}}, {"type": "Feature", "geometry": {"type": "Point", "coordinates": [0.4573479, 47.650226]}, "properties": {"historic": "wayside_cross", "source": "IGN - 2022-06"}}, {"type": "Feature", "geometry": {"type": "Point", "coordinates": [0.4390453, 47.6478332]}, "properties": {"historic": "wayside_cross", "source": "IGN - 2022-06"}}, {"type": "Feature", "geometry": {"type": "Point", "coordinates": [0.4657146, 47.8639795]}, "properties": {"amenity": "fountain"}}, {"type": "Feature", "geometry": {"type": "Point", "coordinates": [0.4313757, 47.8219704]}, "properties": {"historic": "wayside_cross"}}, {"type": "Feature", "geometry": {"type": "Point", "coordinates": [0.4184392, 47.6962423]}, "properties": {"amenity": "fountain"}}]}