{
"type": "FeatureCollection",
"name": "airesJeu",
"crs": { "type": "name", "properties": { "name": "urn:ogc:def:crs:OGC:1.3:CRS84" } },
"features": [
{ "type": "Feature", "properties": { "X": 0.4916678, "Y": 47.714413500004802, "osm_id": "node/10970505623", "name": null, "surface": null, "wheelchair": null, "min_age": null, "max_age": null, "operator": null, "opening_hours": null, "access": null, "indoor": null, "fee": null, "supervised": null, "com_insee": 72183, "com_nom": "Marçon" }, "geometry": { "type": "Point", "coordinates": [ 0.4916678, 47.714413500004802 ] } },
{ "type": "Feature", "properties": { "X": 0.4106695, "Y": 47.7919057999868, "osm_id": "node/11088992643", "name": null, "surface": null, "wheelchair": null, "min_age": null, "max_age": null, "operator": null, "opening_hours": null, "access": null, "indoor": null, "fee": null, "supervised": null, "com_insee": 72153, "com_nom": "Jupilles" }, "geometry": { "type": "Point", "coordinates": [ 0.4106695, 47.7919057999868 ] } },
{ "type": "Feature", "properties": { "X": 0.3947756, "Y": 47.657023200018003, "osm_id": "node/11740840715", "name": null, "surface": null, "wheelchair": null, "min_age": null, "max_age": null, "operator": null, "opening_hours": null, "access": null, "indoor": null, "fee": null, "supervised": null, "com_insee": 72221, "com_nom": "Nogent-sur-Loir" }, "geometry": { "type": "Point", "coordinates": [ 0.3947756, 47.657023200018003 ] } },
{ "type": "Feature", "properties": { "X": 0.4693752, "Y": 47.6515215000193, "osm_id": "node/3869564574", "name": null, "surface": null, "wheelchair": null, "min_age": null, "max_age": null, "operator": null, "opening_hours": null, "access": true, "indoor": null, "fee": null, "supervised": null, "com_insee": 72115, "com_nom": "Dissay-sous-Courcillon" }, "geometry": { "type": "Point", "coordinates": [ 0.4693752, 47.6515215000193 ] } },
{ "type": "Feature", "properties": { "X": 0.5715649, "Y": 47.696621600008903, "osm_id": "node/5028544915", "name": null, "surface": null, "wheelchair": null, "min_age": null, "max_age": null, "operator": null, "opening_hours": null, "access": null, "indoor": null, "fee": null, "supervised": null, "com_insee": 72027, "com_nom": "Beaumont-sur-Dême" }, "geometry": { "type": "Point", "coordinates": [ 0.5715649, 47.696621600008903 ] } },
{ "type": "Feature", "properties": { "X": 0.4244745, "Y": 47.697204700008797, "osm_id": "node/9181009829", "name": null, "surface": null, "wheelchair": null, "min_age": null, "max_age": null, "operator": null, "opening_hours": null, "access": null, "indoor": null, "fee": null, "supervised": null, "com_insee": 72071, "com_nom": "Montval-sur-Loir" }, "geometry": { "type": "Point", "coordinates": [ 0.4244745, 47.697204700008797 ] } },
{ "type": "Feature", "properties": { "X": 0.43203694196532999, "Y": 47.834861374148502, "osm_id": "way/1016394405", "name": null, "surface": null, "wheelchair": null, "min_age": null, "max_age": null, "operator": null, "opening_hours": null, "access": null, "indoor": null, "fee": null, "supervised": null, "com_insee": 72248, "com_nom": "Pruillé-l'Éguillé" }, "geometry": { "type": "Point", "coordinates": [ 0.43203694196533, 47.834861374148502 ] } },
{ "type": "Feature", "properties": { "X": 0.446028554832825, "Y": 47.752954220168398, "osm_id": "way/1019558982", "name": null, "surface": null, "wheelchair": null, "min_age": null, "max_age": null, "operator": null, "opening_hours": null, "access": null, "indoor": null, "fee": null, "supervised": null, "com_insee": 72356, "com_nom": "Thoiré-sur-Dinan" }, "geometry": { "type": "Point", "coordinates": [ 0.446028554832825, 47.752954220168398 ] } },
{ "type": "Feature", "properties": { "X": 0.49193675066949, "Y": 47.821667785126003, "osm_id": "way/1033330464", "name": null, "surface": null, "wheelchair": null, "min_age": null, "max_age": null, "operator": null, "opening_hours": null, "access": null, "indoor": null, "fee": null, "supervised": null, "com_insee": 72325, "com_nom": "Saint-Vincent-du-Lorouër" }, "geometry": { "type": "Point", "coordinates": [ 0.49193675066949, 47.821667785126003 ] } },
{ "type": "Feature", "properties": { "X": 0.41629604829877398, "Y": 47.693991165639602, "osm_id": "way/1208184449", "name": null, "surface": null, "wheelchair": null, "min_age": null, "max_age": null, "operator": null, "opening_hours": null, "access": null, "indoor": null, "fee": null, "supervised": null, "com_insee": 72071, "com_nom": "Montval-sur-Loir" }, "geometry": { "type": "Point", "coordinates": [ 0.416296048298774, 47.693991165639602 ] } },
{ "type": "Feature", "properties": { "X": 0.45420304942344503, "Y": 47.733420166769399, "osm_id": "way/1329503303", "name": null, "surface": null, "wheelchair": null, "min_age": null, "max_age": null, "operator": null, "opening_hours": null, "access": null, "indoor": null, "fee": null, "supervised": null, "com_insee": 72134, "com_nom": "Flée" }, "geometry": { "type": "Point", "coordinates": [ 0.454203049423445, 47.733420166769399 ] } },
{ "type": "Feature", "properties": { "X": 0.47062090448211003, "Y": 47.868229581110697, "osm_id": "way/362315509", "name": null, "surface": null, "wheelchair": null, "min_age": null, "max_age": null, "operator": null, "opening_hours": null, "access": null, "indoor": null, "fee": null, "supervised": null, "com_insee": 72143, "com_nom": "Le Grand-Lucé" }, "geometry": { "type": "Point", "coordinates": [ 0.47062090448211, 47.868229581110697 ] } },
{ "type": "Feature", "properties": { "X": 0.473878950021909, "Y": 47.6642812000539, "osm_id": "way/908790772", "name": null, "surface": null, "wheelchair": null, "min_age": 3, "max_age": 8, "operator": null, "opening_hours": null, "access": null, "indoor": null, "fee": null, "supervised": null, "com_insee": 72115, "com_nom": "Dissay-sous-Courcillon" }, "geometry": { "type": "Point", "coordinates": [ 0.473878950021909, 47.6642812000539 ] } },
{ "type": "Feature", "properties": { "X": 0.42468003116020298, "Y": 47.697252946952297, "osm_id": "way/993731695", "name": null, "surface": null, "wheelchair": null, "min_age": null, "max_age": null, "operator": null, "opening_hours": null, "access": null, "indoor": null, "fee": null, "supervised": null, "com_insee": 72071, "com_nom": "Montval-sur-Loir" }, "geometry": { "type": "Point", "coordinates": [ 0.491407127152453, 47.827302903559996 ] } }
]
}
