{"type": "FeatureCollection", "features": [{"type": "Feature", "geometry": {"type": "Point", "coordinates": [0.4067084, 47.7017251]}, "properties": {"height": "36", "man_made": "mast", "ref:FR:ANFR": "887298", "source": "data.gouv.fr:ANFR - 08/2019", "tower:type": "communication"}}, {"type": "Feature", "geometry": {"type": "Point", "coordinates": [0.4452093, 47.871257]}, "properties": {"height": "42", "man_made": "mast", "operator": "Orange Services Fixes", "ref:FR:ANFR": "103023", "source": "data.gouv.fr:ANFR - 08/2019", "tower:type": "communication"}}, {"type": "Feature", "geometry": {"type": "Point", "coordinates": [0.4680255, 47.8738789]}, "properties": {"height": "34", "man_made": "mast", "operator": "TDF", "ref:FR:ANFR": "1392501", "source": "cadastre-dgi-fr source : Direction Générale des Impôts - Cadastre. Mise à jour : 2013", "tower:type": "communication"}}, {"type": "Feature", "geometry": {"type": "Point", "coordinates": [0.4609064, 47.733465]}, "properties": {"height": "43", "man_made": "mast", "operator": "TDF", "ref:FR:ANFR": "812769", "source": "cadastre-dgi-fr source : Direction Générale des Impôts - Cadastre. Mise à jour : 2014", "tower:type": "communication"}}, {"type": "Feature", "geometry": {"type": "Point", "coordinates": [0.5680922, 47.7200233]}, "properties": {"height": "40", "man_made": "mast", "operator": "SFR", "ref:FR:ANFR": "813041", "source": "cadastre-dgi-fr source : Direction Générale des Impôts - Cadastre. Mise à jour : 2014", "tower:type": "communication"}}, {"type": "Feature", "geometry": {"type": "Point", "coordinates": [0.3490375, 47.7060633]}, "properties": {"height": "55", "man_made": "mast", "ref:FR:ANFR": "720406", "source": "ANFR 08/2019;cadastre-dgi-fr source : Direction Générale des Impôts - Cadastre. Mise à jour : 2014", "tower:type": "communication"}}, {"type": "Feature", "geometry": {"type": "Point", "coordinates": [0.4183753, 47.7670033]}, "properties": {"height": "41", "man_made": "mast", "operator": "SFR", "ref:FR:ANFR": "812775", "source": "data.gouv.fr:ANFR - 08/2019", "tower:type": "communication"}}, {"type": "Feature", "geometry": {"type": "Point", "coordinates": [0.5451754, 47.7672435]}, "properties": {"height": "33", "man_made": "mast", "operator": "Orange", "ref:FR:ANFR": "757196", "source": "data.gouv.fr:ANFR - 08/2019", "tower:type": "communication"}}, {"type": "Feature", "geometry": {"type": "Point", "coordinates": [0.4846364, 47.6735651]}, "properties": {"height": "46", "man_made": "mast", "operator": "TDF", "ref:FR:ANFR": "437441", "source": "cadastre-dgi-fr source : Direction Générale des Impôts - Cadastre. Mise à jour : 2014", "tower:type": "communication"}}, {"type": "Feature", "geometry": {"type": "Point", "coordinates": [0.4852182, 47.6747836]}, "properties": {"height": "36", "man_made": "mast", "operator": "Itas Tim", "ref:FR:ANFR": "661212", "source": "cadastre-dgi-fr source : Direction Générale des Impôts - Cadastre. Mise à jour : 2014", "tower:type": "communication"}}, {"type": "Feature", "geometry": {"type": "Point", "coordinates": [0.6825313, 47.7919449]}, "properties": {"height": "39", "man_made": "mast", "ref:FR:ANFR": "760341", "source": "ANFR 08/2019", "tower:type": "communication"}}, {"type": "Feature", "geometry": {"type": "Point", "coordinates": [0.5076713, 47.8247205]}, "properties": {"height": "34", "man_made": "mast", "ref:FR:ANFR": "2286421", "source": "data.gouv.fr:ANFR - 2023-01", "tower:type": "communication"}}, {"type": "Feature", "geometry": {"type": "Point", "coordinates": [0.6859946, 47.7808899]}, "properties": {"height": "14", "man_made": "mast", "operator": "Bouygues", "ref:FR:ANFR": "1345087", "source": "data.gouv.fr:ANFR - 08/2019", "tower:type": "communication"}}, {"type": "Feature", "geometry": {"type": "Point", "coordinates": [0.6590438, 47.7837542]}, "properties": {"height": "26.5", "man_made": "mast", "ref:FR:ANFR": "501301", "source": "data.gouv.fr:ANFR - 08/2019", "tower:type": "communication"}}, {"type": "Feature", "geometry": {"type": "Point", "coordinates": [0.5558487, 47.8187309]}, "properties": {"height": "24", "man_made": "mast", "ref:FR:ANFR": "337308", "source": "data.gouv.fr:ANFR - 08/2019", "tower:type": "communication"}}, {"type": "Feature", "geometry": {"type": "Point", "coordinates": [0.4602778, 47.8702121]}, "properties": {"height": "47.8", "man_made": "mast", "operator": "SFR", "ref:FR:ANFR": "1886451", "source": "data.gouv.fr:ANFR - 08/2019", "tower:type": "communication"}}, {"type": "Feature", "geometry": {"type": "Point", "coordinates": [0.4295076, 47.6865925]}, "properties": {"height": "47", "man_made": "mast", "operator": "SFR", "ref:FR:ANFR": "590278", "source": "data.gouv.fr:ANFR - 08/2019", "tower:type": "communication"}}, {"type": "Feature", "geometry": {"type": "Point", "coordinates": [0.5841432, 47.7445738]}, "properties": {"height": "35", "man_made": "mast", "operator": "TDF", "ref:FR:ANFR": "1522478", "source": "data.gouv.fr:ANFR - 08/2019", "tower:type": "communication"}}, {"type": "Feature", "geometry": {"type": "Point", "coordinates": [0.5777282, 47.7294453]}, "properties": {"height": "30", "man_made": "mast", "ref:FR:ANFR": "418428", "source": "data.gouv.fr:ANFR - 08/2019", "tower:type": "communication"}}, {"type": "Feature", "geometry": {"type": "Point", "coordinates": [0.3183172, 47.7411778]}, "properties": {"height": "30", "man_made": "mast", "operator": "Orange", "ref:FR:ANFR": "2068880", "source": "data.gouv.fr:ANFR - 08/2019", "tower:type": "communication"}}, {"type": "Feature", "geometry": {"type": "Point", "coordinates": [0.5246263, 47.7134551]}, "properties": {"height": "36.9", "man_made": "mast", "operator": "Free Mobile", "owner": "IFW-Free", "ref:FR:ANFR": "1875058", "source": "data.gouv.fr:ANFR - 08/2019", "tower:type": "communication"}}, {"type": "Feature", "geometry": {"type": "Point", "coordinates": [0.5067069, 47.712221]}, "properties": {"height": "18", "man_made": "mast", "operator": "ATC France", "ref:FR:ANFR": "144735", "source": "data.gouv.fr:ANFR - 08/2019", "tower:type": "communication"}}, {"type": "Feature", "geometry": {"type": "Point", "coordinates": [0.4439573, 47.6556734]}, "properties": {"height": "12", "man_made": "mast", "ref:FR:ANFR": "283650", "source": "data.gouv.fr:ANFR - 08/2019", "tower:type": "communication"}}, {"type": "Feature", "geometry": {"type": "Point", "coordinates": [0.4083534, 47.6613903]}, "properties": {"height": "36.9", "man_made": "mast", "operator": "Free Mobile", "owner": "IFW-Free", "ref:FR:ANFR": "2060435", "source": "data.gouv.fr:ANFR - 08/2019", "tower:type": "communication"}}, {"type": "Feature", "geometry": {"type": "Point", "coordinates": [0.4118613, 47.6992579]}, "properties": {"height": "38", "man_made": "mast", "operator": "Orange Services Fixes", "ref:FR:ANFR": "1815677", "source": "data.gouv.fr:ANFR - 08/2019", "tower:construction": "lattice", "tower:type": "communication"}}, {"type": "Feature", "geometry": {"type": "Point", "coordinates": [0.4276013, 47.8348374]}, "properties": {"height": "30", "man_made": "mast", "operator": "Orange", "ref:FR:ANFR": "2145455", "source": "data.gouv.fr:ANFR - 08/2019", "tower:type": "communication"}}, {"type": "Feature", "geometry": {"type": "Point", "coordinates": [0.3496598, 47.7090792]}, "properties": {"height": "41", "man_made": "mast", "operator": "SFR", "ref:FR:ANFR": "1793511", "source": "data.gouv.fr:ANFR - 08/2019", "tower:type": "communication"}}, {"type": "Feature", "geometry": {"type": "Point", "coordinates": [0.4575, 47.6502778]}, "properties": {"height": "32.6", "man_made": "mast", "operator": "TDF", "ref:FR:ANFR": "2595530", "source": "data.gouv.fr:ANFR - 2023-01", "tower:type": "communication"}}, {"type": "Feature", "geometry": {"type": "Point", "coordinates": [0.6644708, 47.7892967]}, "properties": {"height": "46.4", "man_made": "mast", "ref:FR:ANFR": "2710776", "source": "data.gouv.fr:ANFR - 2023-01", "tower:type": "communication"}}, {"type": "Feature", "geometry": {"type": "Point", "coordinates": [0.3560373, 47.6918722]}, "properties": {"height": "38.6", "man_made": "mast", "operator": "TDF", "ref:FR:ANFR": "2471207", "source": "data.gouv.fr:ANFR - 2023-01", "tower:type": "communication"}}, {"type": "Feature", "geometry": {"type": "Point", "coordinates": [0.518799, 47.7096076]}, "properties": {"height": "36", "man_made": "mast", "ref:FR:ANFR": "2528910", "source": "data.gouv.fr:ANFR - 2023-01", "tower:type": "communication"}}, {"type": "Feature", "geometry": {"type": "Point", "coordinates": [0.5586487, 47.7410561]}, "properties": {"height": "36", "man_made": "mast", "operator": "IFW-Free", "ref:FR:ANFR": "2624062", "source": "data.gouv.fr:ANFR - 2023-01", "tower:type": "communication"}}, {"type": "Feature", "geometry": {"type": "Point", "coordinates": [0.3424852, 47.7202471]}, "properties": {"communication:mobile_phone": "yes", "height": "30", "man_made": "mast", "panoramax": "a10d6fa6-754e-4530-a754-d0c5cc1f8b7a", "ref:FR:ANFR": "2938466", "tower:type": "communication"}}]}