{"type": "FeatureCollection", "features": [{"type": "Feature", "geometry": {"type": "Point", "coordinates": [0.5097482, 47.7100597]}, "properties": {"amenity": "library", "building": "yes", "contact:phone": "+33 2 43 44 40 73", "opening_hours": "Mo 15:30-17:30; We 16:00-18:00; Sa 10:30-12:00", "source": "cadastre-dgi-fr source : Direction Générale des Finances Publiques - Cadastre. Mise à jour : 2014"}}, {"type": "Feature", "geometry": {"type": "Point", "coordinates": [0.5573286, 47.7427678]}, "properties": {"amenity": "library", "building": "yes", "opening_hours": "We 16:00-18:00; Sa 10:00-12:00", "source": "cadastre-dgi-fr source : Direction Générale des Finances Publiques - Cadastre. Mise à jour : 2014"}}, {"type": "Feature", "geometry": {"type": "Point", "coordinates": [0.620157, 47.751043]}, "properties": {"amenity": "library", "building": "yes", "source": "cadastre-dgi-fr source : Direction Générale des Finances Publiques - Cadastre. Mise à jour : 2015"}}, {"type": "Feature", "geometry": {"type": "Point", "coordinates": [0.4159617, 47.6965942]}, "properties": {"amenity": "library", "contact:facebook": "Bibliothèque-Ludothèque-Montval-sur-Loir-102519494872619", "email": "bibliotheque.ludotheque@montvalsurloir.fr", "name": "Bibliothèque-Ludothèque Juliette Drouet", "opening_hours": "Tu,Th,Fr 15:00-18:30; We 09:30-12:30,13:30-18:30; Sa 10:00-12:30,13:30-17:30", "phone": "+33 2 43 38 03 31", "website": "https://montvalsurloir.bibli.fr"}}, {"type": "Feature", "geometry": {"type": "Point", "coordinates": [0.4705319, 47.8656665]}, "properties": {"amenity": "library", "name": "Bibliothèque municipale Christian Pineau", "opening_hours": "Mo,Tu 15:00-18:30; We 10:00-12:30,14:00-18:30; Fr 10:00-12:30,15:00-18:30; Sa 10:00-12:30", "website": "https://bm-legrandluce.opac3d.fr/"}}, {"type": "Feature", "geometry": {"type": "Point", "coordinates": [0.5140547, 47.7419731]}, "properties": {"amenity": "library", "opening_hours": "Sa 10:30-12:00"}}, {"type": "Feature", "geometry": {"type": "Point", "coordinates": [0.569846, 47.6929289]}, "properties": {"amenity": "library", "opening_hours": "Sa 10:00-12:00"}}, {"type": "Feature", "geometry": {"type": "Point", "coordinates": [0.4747885, 47.6649033]}, "properties": {"amenity": "library"}}]}