{
"type": "FeatureCollection",
"name": "dechets",
"crs": { "type": "name", "properties": { "name": "urn:ogc:def:crs:OGC:1.3:CRS84" } },
"features": [
{ "type": "Feature", "properties": { "type": "container", "name": "La Chartre-sur-le-Loir - La Pléiade", "operator": "SYVALORM", "opening_hours": null, "glass": "yes", "paper": "yes", "waste": null, "plastic_packaging": null, "com_insee": "72068", "com_nom": "La Chartre-sur-le-Loir" }, "geometry": { "type": "Point", "coordinates": [ 0.581638, 47.729279100001357 ] } },
{ "type": "Feature", "properties": { "type": "container", "name": "Flée - Parking rue du Lavoir", "operator": "Syndicat Mixte du Val de Loir", "opening_hours": null, "glass": "yes", "paper": "", "waste": "yes", "plastic_packaging": "yes", "com_insee": "72134", "com_nom": "Flée" }, "geometry": { "type": "Point", "coordinates": [ 0.4543635, 47.733771000000317 ] } },
{ "type": "Feature", "properties": { "type": "container", "name": "Château-du-Loir - Place Clémenceau", "operator": "Syndicat Mixte du Val de Loir", "opening_hours": null, "glass": "yes", "paper": null, "waste": "yes", "plastic_packaging": "yes", "com_insee": "72071", "com_nom": "Montval-sur-Loir" }, "geometry": { "type": "Point", "coordinates": [ 0.4148189, 47.6965800000089 ] } },
{ "type": "Feature", "properties": { "type": "container", "name": "Château-du-Loir - Rue du Coupe Pied", "operator": "Syndicat Mixte du Val de Loir", "opening_hours": null, "glass": "yes", "paper": null, "waste": null, "plastic_packaging": null, "com_insee": "72071", "com_nom": "Montval-sur-Loir" }, "geometry": { "type": "Point", "coordinates": [ 0.4093622, 47.693592000009609 ] } },
{ "type": "Feature", "properties": { "type": "container", "name": "Château-du-Loir - Rue Pitoulière", "operator": "Syndicat Mixte du Val de Loir", "opening_hours": null, "glass": "yes", "paper": null, "waste": "yes", "plastic_packaging": "yes", "com_insee": "72071", "com_nom": "Montval-sur-Loir" }, "geometry": { "type": "Point", "coordinates": [ 0.4172805, 47.688783800010704 ] } },
{ "type": "Feature", "properties": { "type": "container", "name": "Château-du-Loir - Place de la Liberté", "operator": "Syndicat Mixte du Val de Loir", "opening_hours": null, "glass": "yes", "paper": "", "waste": "yes", "plastic_packaging": "yes", "com_insee": "72071", "com_nom": "Montval-sur-Loir" }, "geometry": { "type": "Point", "coordinates": [ 0.4181942, 47.692579600009836 ] } },
{ "type": "Feature", "properties": { "type": "container", "name": "Saint-Pierre-de-Chevillé - Rue du Soleil Levant", "operator": "Syndicat Mixte du Val de Loir", "opening_hours": null, "glass": "yes", "paper": "", "waste": "yes", "plastic_packaging": "yes", "com_insee": "72311", "com_nom": "Saint-Pierre-de-Chevillé" }, "geometry": { "type": "Point", "coordinates": [ 0.4409624, 47.646034800020544 ] } },
{ "type": "Feature", "properties": { "type": "container", "name": "Villaines-sous-Lucé - La Garenne", "operator": "SYVALORM", "opening_hours": null, "glass": "yes", "paper": "yes", "waste": null, "plastic_packaging": null, "com_insee": "72376", "com_nom": "Villaines-sous-Lucé" }, "geometry": { "type": "Point", "coordinates": [ 0.4851213, 47.865834099969483 ] } },
{ "type": "Feature", "properties": { "type": "container", "name": "Nogent-sur-Loir - Rue Pierre de Ronsard", "operator": "Syndicat Mixte du Val de Loir", "opening_hours": null, "glass": "yes", "paper": "", "waste": "yes", "plastic_packaging": "yes", "com_insee": "72221", "com_nom": "Nogent-sur-Loir" }, "geometry": { "type": "Point", "coordinates": [ 0.3957101, 47.66874620001532 ] } },
{ "type": "Feature", "properties": { "type": "container", "name": "Château-du-Loir - Place de l'Hôtel de Ville", "operator": "Syndicat Mixte du Val de Loir", "opening_hours": null, "glass": "yes", "paper": null, "waste": "ye", "plastic_packaging": "yes", "com_insee": "72071", "com_nom": "Montval-sur-Loir" }, "geometry": { "type": "Point", "coordinates": [ 0.4176614, 47.69463210000935 ] } },
{ "type": "Feature", "properties": { "type": "centre", "name": "Déchèterie du Grand-Lucé", "operator": "SYVALORM", "opening_hours": "Jun 15-Sep 14: Mo-Sa 7:30-12:20,13:00-14:20; Sept 15-Jun 14: Mo-Sa 09:00-12:00,14:00-17:00", "glass": "yes", "paper": "yes", "waste": null, "plastic_packaging": null, "com_insee": "72143", "com_nom": "Le Grand-Lucé" }, "geometry": { "type": "Point", "coordinates": [ 0.461509086862525, 47.869246893958639 ] } },
{ "type": "Feature", "properties": { "type": "centre", "name": "Déchèterie de Chateau du Loir", "operator": "Syndicat Mixte du Val de Loir", "opening_hours": "Sep-May: Mo,Fr,Sa:9:30-12:30,14:00-17:00;Sep-May:Tu,Th:9:30-12:30;Sep-May:We:14:00-17:00 Jun-Aug: Mo,Tu,We,Th,Sa: 7:30-12:30;Jun-Aug : Fr:7:30-12:30,17:00-19:00", "glass": null, "paper": null, "waste": null, "plastic_packaging": null, "com_insee": "72071", "com_nom": "Montval-sur-Loir" }, "geometry": { "type": "Point", "coordinates": [ 0.418690519804979, 47.682256889154822 ] } },
{ "type": "Feature", "properties": { "type": "centre", "name": "Déchèterie de la Chartre-sur-le-loir", "operator": "SYVALORM", "opening_hours": "Jun 15-Sep 14:Tu-Sa 7:30-12:20,13:00-14:20; Sept 15-Jun 14: Tu-Sa 09:00-12:00,14:00-17:00", "glass": null, "paper": null, "waste": null, "plastic_packaging": null, "com_insee": "72068", "com_nom": "La Chartre-sur-le-Loir" }, "geometry": { "type": "Point", "coordinates": [ 0.583372068288308, 47.74484161582987 ] } },
{ "type": "Feature", "properties": { "type": "container", "name": "Dissay-sous-Courcillon - Rue du Stade", "operator": "Syndicat Mixte du Val de Loir", "opening_hours": null, "glass": "yes", "paper": null, "waste": null, "plastic_packaging": null, "com_insee": null, "com_nom": "Dissay-sous-Courcillon" }, "geometry": { "type": "Point", "coordinates": [ 0.46072683735386, 47.666685370494768 ] } },
{ "type": "Feature", "properties": { "type": "container", "name": "Jupilles - Parking du Musée du bois", "operator": "Syndicat Mixte du Val de Loir", "opening_hours": null, "glass": "yes", "paper": "", "waste": "yes", "plastic_packaging": "yes", "com_insee": null, "com_nom": null }, "geometry": { "type": "Point", "coordinates": [ 0.4140966511476, 47.789983492595823 ] } },
{ "type": "Feature", "properties": { "type": "container", "name": "Lavernat - 6 rue Roger Georges", "operator": "Syndicat Mixte du Val de Loir", "opening_hours": null, "glass": "yes", "paper": "", "waste": "yes", "plastic_packaging": "yes", "com_insee": null, "com_nom": null }, "geometry": { "type": "Point", "coordinates": [ 0.332326536841151, 47.717092750944339 ] } },
{ "type": "Feature", "properties": { "type": "container", "name": "Luceau - 4 rue Pierre Cuillier", "operator": "Syndicat Mixte du Val de Loir", "opening_hours": null, "glass": "yes", "paper": null, "waste": null, "plastic_packaging": null, "com_insee": null, "com_nom": null }, "geometry": { "type": "Point", "coordinates": [ 0.397498490457175, 47.712161370792494 ] } },
{ "type": "Feature", "properties": { "type": "container", "name": "Montabon - Rue du Port", "operator": "Syndicat Mixte du Val de Loir", "opening_hours": null, "glass": "yes", "paper": "", "waste": "yes", "plastic_packaging": "yes", "com_insee": null, "com_nom": null }, "geometry": { "type": "Point", "coordinates": [ 0.383836678052088, 47.678953477798004 ] } },
{ "type": "Feature", "properties": { "type": "container", "name": "Nogent-sur-Loir - Rue Jean de la Fontaine", "operator": "Syndicat Mixte du Val de Loir", "opening_hours": null, "glass": "yes", "paper": "", "waste": "yes", "plastic_packaging": "yes", "com_insee": null, "com_nom": null }, "geometry": { "type": "Point", "coordinates": [ 0.394188917493591, 47.655120400456369 ] } },
{ "type": "Feature", "properties": { "type": "container", "name": "Thoiré-sur-Dinan - Cimetière", "operator": "Syndicat Mixte du Val de Loir", "opening_hours": null, "glass": "yes", "paper": "", "waste": "yes", "plastic_packaging": "yes", "com_insee": null, "com_nom": null }, "geometry": { "type": "Point", "coordinates": [ 0.445609551784008, 47.752630217000316 ] } },
{ "type": "Feature", "properties": { "type": "container", "name": "Vouvray-sur-Loir - Leclerc", "operator": "Syndicat Mixte du Val de Loir", "opening_hours": null, "glass": "yes", "paper": null, "waste": null, "plastic_packaging": null, "com_insee": null, "com_nom": null }, "geometry": { "type": "Point", "coordinates": [ 0.433768441128017, 47.687535189260231 ] } },
{ "type": "Feature", "properties": { "type": "container", "name": "Vouvray-sur-Loir - Salle des fêtes", "operator": "Syndicat Mixte du Val de Loir", "opening_hours": null, "glass": "yes", "paper": "", "waste": "yes", "plastic_packaging": "yes", "com_insee": null, "com_nom": null }, "geometry": { "type": "Point", "coordinates": [ 0.460878122567195, 47.691306051454653 ] } },
{ "type": "Feature", "properties": { "type": "container", "name": "Vouvray-sur-Loir - Rue Nationale", "operator": "Syndicat Mixte du Val de Loir", "opening_hours": null, "glass": "yes", "paper": null, "waste": null, "plastic_packaging": null, "com_insee": null, "com_nom": null }, "geometry": { "type": "Point", "coordinates": [ 0.438579983879824, 47.686509397036374 ] } },
{ "type": "Feature", "properties": { "type": "container", "name": "Beaumont-Pied-de-Boeuf - Ecole", "operator": "Syndicat Mixte du Val de Loir", "opening_hours": null, "glass": "yes", "paper": "", "waste": "yes", "plastic_packaging": "yes", "com_insee": null, "com_nom": null }, "geometry": { "type": "Point", "coordinates": [ 0.402799046628405, 47.756569554111621 ] } },
{ "type": "Feature", "properties": { "type": "container", "name": "Château-du-Loir - Avenue du Mans", "operator": "Syndicat Mixte du Val de Loir", "opening_hours": null, "glass": "yes", "paper": null, "waste": "yes", "plastic_packaging": "yes", "com_insee": "72071", "com_nom": "Montval-sur-Loir" }, "geometry": { "type": "Point", "coordinates": [ 0.410945578860176, 47.700821209814798 ] } },
{ "type": "Feature", "properties": { "type": "container", "name": "Château-du-Loir - Rue Frédéric Chopin", "operator": "Syndicat Mixte du Val de Loir", "opening_hours": null, "glass": "yes", "paper": null, "waste": null, "plastic_packaging": null, "com_insee": null, "com_nom": null }, "geometry": { "type": "Point", "coordinates": [ 0.420801101793862, 47.686972975988951 ] } },
{ "type": "Feature", "properties": { "type": "container", "name": "Château-du-Loir - Rue des Déportés", "operator": "Syndicat Mixte du Val de Loir", "opening_hours": null, "glass": "yes", "paper": null, "waste": null, "plastic_packaging": null, "com_insee": null, "com_nom": null }, "geometry": { "type": "Point", "coordinates": [ 0.42402261459197, 47.689392245410943 ] } },
{ "type": "Feature", "properties": { "type": "container", "name": "Château-du-Loir - Rue des Platanes", "operator": "Syndicat Mixte du Val de Loir", "opening_hours": null, "glass": "yes", "paper": null, "waste": null, "plastic_packaging": null, "com_insee": null, "com_nom": null }, "geometry": { "type": "Point", "coordinates": [ 0.408133661835307, 47.68824892819179 ] } },
{ "type": "Feature", "properties": { "type": "container", "name": "Pruillé-l'Eguillé - Cimetière", "operator": "SYVALORM", "opening_hours": null, "glass": "yes", "paper": "yes", "waste": null, "plastic_packaging": null, "com_insee": null, "com_nom": null }, "geometry": { "type": "Point", "coordinates": [ 0.429755754258402, 47.835271949051481 ] } },
{ "type": "Feature", "properties": { "type": "container", "name": "Pruillé-l'Eguillé - Salle des fêtes", "operator": "SYVALORM", "opening_hours": null, "glass": "yes", "paper": "yes", "waste": null, "plastic_packaging": null, "com_insee": null, "com_nom": null }, "geometry": { "type": "Point", "coordinates": [ 0.428463305425156, 47.837748026164832 ] } },
{ "type": "Feature", "properties": { "type": "container", "name": "Le Grand-Lucé - Rue des Bleuets", "operator": "SYVALORM", "opening_hours": null, "glass": "yes", "paper": "yes", "waste": null, "plastic_packaging": null, "com_insee": null, "com_nom": null }, "geometry": { "type": "Point", "coordinates": [ 0.465644031432848, 47.868368723218609 ] } },
{ "type": "Feature", "properties": { "type": "container", "name": "Le Grand-Lucé - Plac Christian Pineau", "operator": "SYVALORM", "opening_hours": null, "glass": "yes", "paper": "yes", "waste": null, "plastic_packaging": null, "com_insee": null, "com_nom": null }, "geometry": { "type": "Point", "coordinates": [ 0.47022525805924, 47.865419477348702 ] } },
{ "type": "Feature", "properties": { "type": "container", "name": "Montreuil-le-Henri - Route de Tresson", "operator": "SYVALORM", "opening_hours": null, "glass": "yes", "paper": "yes", "waste": null, "plastic_packaging": null, "com_insee": null, "com_nom": null }, "geometry": { "type": "Point", "coordinates": [ 0.563043744249017, 47.869098756529958 ] } },
{ "type": "Feature", "properties": { "type": "container", "name": "Saint-Georges-du-Bois - St Fraimbault", "operator": "SYVALORM", "opening_hours": null, "glass": "yes", "paper": "yes", "waste": null, "plastic_packaging": null, "com_insee": null, "com_nom": null }, "geometry": { "type": "Point", "coordinates": [ 0.583413026139514, 47.840373135497309 ] } },
{ "type": "Feature", "properties": { "type": "container", "name": "Saint-Vincent-du-Lorouër - Foyer Le Héron", "operator": "SYVALORM", "opening_hours": null, "glass": "yes", "paper": "yes", "waste": null, "plastic_packaging": null, "com_insee": null, "com_nom": null }, "geometry": { "type": "Point", "coordinates": [ 0.489285274867732, 47.821275175400352 ] } },
{ "type": "Feature", "properties": { "type": "container", "name": "Saint-Vincent-du-Lorouër - Square Jean Moulin", "operator": "SYVALORM", "opening_hours": null, "glass": "yes", "paper": "yes", "waste": null, "plastic_packaging": null, "com_insee": null, "com_nom": null }, "geometry": { "type": "Point", "coordinates": [ 0.491070199557511, 47.827175295455753 ] } },
{ "type": "Feature", "properties": { "type": "container", "name": "Saint-Pierre-du-Lorouër - Salle des fêtes", "operator": "SYVALORM", "opening_hours": null, "glass": "yes", "paper": "yes", "waste": null, "plastic_packaging": null, "com_insee": null, "com_nom": null }, "geometry": { "type": "Point", "coordinates": [ 0.519722685122784, 47.807241550992806 ] } },
{ "type": "Feature", "properties": { "type": "compost", "name": "Jupilles - Parking du Musée du Bois", "operator": "Syndicat Mixte du Val de Loir", "opening_hours": "Privé - Réservé aux habitants inscrits", "glass": null, "paper": null, "waste": null, "plastic_packaging": null, "com_insee": null, "com_nom": null }, "geometry": { "type": "Point", "coordinates": [ 0.414114919187892, 47.789994573117035 ] } },
{ "type": "Feature", "properties": { "type": "compost", "name": "Château-du-Loir - Les Vertolines", "operator": "Syndicat Mixte du Val de Loir", "opening_hours": "Public", "glass": null, "paper": null, "waste": null, "plastic_packaging": null, "com_insee": null, "com_nom": null }, "geometry": { "type": "Point", "coordinates": [ 0.447780900356324, 47.754122493228095 ] } },
{ "type": "Feature", "properties": { "type": "compost", "name": "Luceau - Béguinage", "operator": "Syndicat Mixte du Val de Loir", "opening_hours": "Privé", "glass": null, "paper": null, "waste": null, "plastic_packaging": null, "com_insee": null, "com_nom": null }, "geometry": { "type": "Point", "coordinates": [ 0.403191749550285, 47.70878124856614 ] } },
{ "type": "Feature", "properties": { "type": "compost", "name": "Château-du-Loir - Sarthe Habitat Avenue du Mans", "operator": "Syndicat Mixte du Val de Loir", "opening_hours": "Public", "glass": null, "paper": null, "waste": null, "plastic_packaging": null, "com_insee": null, "com_nom": null }, "geometry": { "type": "Point", "coordinates": [ 0.411642724544532, 47.700859701598773 ] } },
{ "type": "Feature", "properties": { "type": "compost", "name": "Montval-sur-Loir - Les Vertolines", "operator": "Syndicat Mixte du Val de Loir", "opening_hours": "Public", "glass": null, "paper": null, "waste": null, "plastic_packaging": null, "com_insee": null, "com_nom": null }, "geometry": { "type": "Point", "coordinates": [ 0.421407376190271, 47.695072081221639 ] } },
{ "type": "Feature", "properties": { "type": "compost", "name": "Château-du-Loir - Parc Henri Goude", "operator": "Syndicat Mxte du Val de Loir", "opening_hours": "Privé", "glass": null, "paper": null, "waste": null, "plastic_packaging": null, "com_insee": null, "com_nom": null }, "geometry": { "type": "Point", "coordinates": [ 0.416656073235529, 47.693818863088715 ] } },
{ "type": "Feature", "properties": { "type": "compost", "name": "Château-du-Loir - Place de la Liberté", "operator": "Syndicat Mixte du Val de Loir", "opening_hours": "Public", "glass": null, "paper": null, "waste": null, "plastic_packaging": null, "com_insee": null, "com_nom": null }, "geometry": { "type": "Point", "coordinates": [ 0.418149044338144, 47.692558652262477 ] } },
{ "type": "Feature", "properties": { "type": "compost", "name": "Château-du-Loir - Beauregard", "operator": "Syndicat Mixte du Val de Loir", "opening_hours": "Public", "glass": null, "paper": null, "waste": null, "plastic_packaging": null, "com_insee": null, "com_nom": null }, "geometry": { "type": "Point", "coordinates": [ 0.412859858030035, 47.693107532360365 ] } },
{ "type": "Feature", "properties": { "type": "compost", "name": "Château-du-Loir - Clos Joli", "operator": "Syndicat Mixte du Val de Loir", "opening_hours": "Public", "glass": null, "paper": null, "waste": null, "plastic_packaging": null, "com_insee": null, "com_nom": null }, "geometry": { "type": "Point", "coordinates": [ 0.41175650756159, 47.689208385703942 ] } },
{ "type": "Feature", "properties": { "type": "container", "name": "Château-du-Loir - Clos Joli", "operator": "Syndicat Mixte du Val de Loir", "opening_hours": "", "glass": "yes", "paper": null, "waste": "yes", "plastic_packaging": "yes", "com_insee": null, "com_nom": null }, "geometry": { "type": "Point", "coordinates": [ 0.41188063448929, 47.689203743688935 ] } }
]
}
