{"type": "FeatureCollection", "features": [{"type": "Feature", "geometry": {"type": "Point", "coordinates": [0.5121777, 47.7770656]}, "properties": {"amenity": "drinking_water", "fee": "no", "wheelchair": "no"}}, {"type": "Feature", "geometry": {"type": "Point", "coordinates": [0.6217708, 47.7509051]}, "properties": {"amenity": "drinking_water", "drinking_water": "yes"}}, {"type": "Feature", "geometry": {"type": "Point", "coordinates": [0.3958324, 47.6552157]}, "properties": {"amenity": "drinking_water"}}, {"type": "Feature", "geometry": {"type": "Point", "coordinates": [0.4747637, 47.6984527]}, "properties": {"amenity": "drinking_water"}}, {"type": "Feature", "geometry": {"type": "Point", "coordinates": [0.4282334, 47.8343121]}, "properties": {"amenity": "drinking_water"}}, {"type": "Feature", "geometry": {"type": "Point", "coordinates": [0.4460339, 47.752998]}, "properties": {"amenity": "drinking_water"}}, {"type": "Feature", "geometry": {"type": "Point", "coordinates": [0.5138361, 47.7331423]}, "properties": {"amenity": "drinking_water"}}, {"type": "Feature", "geometry": {"type": "Point", "coordinates": [0.5572262, 47.7416376]}, "properties": {"amenity": "drinking_water"}}]}