{
"type": "FeatureCollection",
"name": "lockers_osm",
"features": [
{ "type": "Feature", "properties": { "addr:postcode": "72310", "amenity": "post_office", "brand": "La Poste", "name": "Relais Poste", "opening_hours": "Tu,Fr 08:30-12:30,16:00-19:00; We-Th,Sa-Su 08:30-12:30; PH off; 2024 May 19 08:30-12:30", "post_office": "post_partner", "ref:FR:LaPoste": "13638A", "source": "LaPoste - 2021-01", "wheelchair": "no" }, "geometry": { "type": "Point", "coordinates": [ 0.679425, 47.798864 ] } },
{ "type": "Feature", "properties": { "addr:postcode": "72340", "amenity": "post_office", "brand": "La Poste", "name": "Relais Poste", "opening_hours": "Tu-Sa 07:30-12:30,15:00-19:00; Su 08:30-12:00; PH off; 2024 May 19 08:30-12:00", "post_office": "post_partner", "ref:FR:LaPoste": "13692A", "source": "LaPoste - 2021-01", "wheelchair": "no" }, "geometry": { "type": "Point", "coordinates": [ 0.5574662, 47.743881 ] } },
{ "type": "Feature", "properties": { "addr:postcode": "72340", "amenity": "post_office", "brand": "La Poste", "name": "Relais Poste", "opening_hours": "Mo,Th-Sa 08:30-12:30,15:00-19:00; Tu 08:30-12:30; PH off; 2024 May 20 off", "post_office": "post_partner", "ref:FR:LaPoste": "13632A", "source": "LaPoste - 2021-01", "tobacco": "yes", "wheelchair": "no" }, "geometry": { "type": "Point", "coordinates": [ 0.5139771, 47.7418897 ] } },
{ "type": "Feature", "properties": { "amenity": "parcel_locker", "brand": "Mondial Relay", "name": "FR-15846", "opening_hours": "24/7" }, "geometry": { "type": "Point", "coordinates": [ 0.4669394, 47.8694613 ] } },
{ "type": "Feature", "properties": { "addr:postcode": "72500", "amenity": "parcel_locker", "brand": "Mondial Relay", "name": "FR-33726", "opening_hours": "24/7", "post_office": null, "ref:FR:LaPoste": null, "source": null, "tobacco": null, "wheelchair": null }, "geometry": { "type": "Point", "coordinates": [ 0.425239489649927, 47.693001733122294 ] } },
{ "type": "Feature", "properties": { "addr:postcode": "72500", "amenity": "parcel_locker", "brand": "Mondial Relay", "name": "FR-23281", "opening_hours": "24/7", "post_office": null, "ref:FR:LaPoste": null, "source": null, "tobacco": null, "wheelchair": null }, "geometry": { "type": "Point", "coordinates": [ 0.426420238271004, 47.690773550944989 ] } },
{ "type": "Feature", "properties": { "addr:postcode": null, "amenity": "parcel_locker", "brand": "Mondial Relay", "name": "FR-28262", "opening_hours": "24/7", "post_office": null, "ref:FR:LaPoste": null, "source": null, "tobacco": null, "wheelchair": null }, "geometry": { "type": "Point", "coordinates": [ 0.430867350923373, 47.687296251523883 ] } },
{ "type": "Feature", "properties": { "addr:postcode": null, "amenity": "parcel_locker", "brand": "Mondial Relay", "name": "FR-35680", "opening_hours": "24/7", "post_office": null, "ref:FR:LaPoste": null, "source": null, "tobacco": null, "wheelchair": null }, "geometry": { "type": "Point", "coordinates": [ 0.429381154659694, 47.686210851774732 ] } },
{ "type": "Feature", "properties": { "addr:postcode": "", "amenity": "parcel_locker", "brand": "Mondial Relay", "name": "FR-35197", "opening_hours": "24/7", "post_office": null, "ref:FR:LaPoste": null, "source": null, "tobacco": null, "wheelchair": null }, "geometry": { "type": "Point", "coordinates": [ 0.418499846766175, 47.684196650232835 ] } },
{ "type": "Feature", "properties": { "addr:postcode": null, "amenity": "parcel_locker", "brand": "Mondial Relay", "name": "FR-47728", "opening_hours": "24/7", "post_office": null, "ref:FR:LaPoste": null, "source": null, "tobacco": null, "wheelchair": null }, "geometry": { "type": "Point", "coordinates": [ 0.580362385845794, 47.739165426105266 ] } },
{ "type": "Feature", "properties": { "addr:postcode": null, "amenity": "parcel_locker", "brand": "Mondial Relay", "name": "FR-35433", "opening_hours": "24/7", "post_office": null, "ref:FR:LaPoste": null, "source": null, "tobacco": null, "wheelchair": null }, "geometry": { "type": "Point", "coordinates": [ 0.576326357766, 47.734300714203023 ] } },
{ "type": "Feature", "properties": { "addr:postcode": null, "amenity": "parcel_locker", "brand": "Amazon", "name": null, "opening_hours": "24/7", "post_office": null, "ref:FR:LaPoste": null, "source": null, "tobacco": null, "wheelchair": null }, "geometry": { "type": "Point", "coordinates": [ 0.430955536116975, 47.687318043611967 ] } }
]
}
