{"type": "FeatureCollection", "features": [{"type": "Feature", "geometry": {"type": "Point", "coordinates": [0.4316325, 47.6865096]}, "properties": {"access": "yes", "amenity": "parking", "fee": "no", "parking": "surface", "source": "cadastre-dgi-fr source : Direction Générale des Impôts - Cadastre ; mise à jour : décembre 2010"}}, {"type": "Feature", "geometry": {"type": "Point", "coordinates": [0.4330875, 47.6867377]}, "properties": {"access": "yes", "amenity": "parking", "building": "yes", "fee": "no", "parking": "multi-storey", "source": "cadastre-dgi-fr source : Direction Générale des Impôts - Cadastre ; mise à jour : décembre 2010", "wall": "no"}}, {"type": "Feature", "geometry": {"type": "Point", "coordinates": [0.4181441, 47.6925749]}, "properties": {"amenity": "parking", "name": "Place de la Liberté", "source": "cadastre-dgi-fr source : Direction Générale des Impôts - Cadastre;mise à jour : mars 2010"}}, {"type": "Feature", "geometry": {"type": "Point", "coordinates": [0.4183545, 47.6941942]}, "properties": {"access": "yes", "amenity": "parking", "fee": "no", "name": "Place Lemonnier", "parking": "surface"}}, {"type": "Feature", "geometry": {"type": "Point", "coordinates": [0.3975039, 47.7114562]}, "properties": {"amenity": "parking", "name": "Place de la Mairie", "source": "cadastre-dgi-fr source : Direction Générale des Impôts - Cadastre ; mise à jour : mars 2010"}}, {"type": "Feature", "geometry": {"type": "Point", "coordinates": [0.4004041, 47.7088305]}, "properties": {"amenity": "parking", "source": "cadastre-dgi-fr source : Direction Générale des Impôts - Cadastre ; mise à jour : mars 2010"}}, {"type": "Feature", "geometry": {"type": "Point", "coordinates": [0.3998693, 47.7078005]}, "properties": {"amenity": "parking", "source": "cadastre-dgi-fr source : Direction Générale des Impôts - Cadastre ; mise à jour : mars 2010"}}, {"type": "Feature", "geometry": {"type": "Point", "coordinates": [0.4933528, 47.7138758]}, "properties": {"amenity": "parking"}}, {"type": "Feature", "geometry": {"type": "Point", "coordinates": [0.4952971, 47.7876146]}, "properties": {"access": "yes", "amenity": "parking", "capacity": "20", "fee": "no", "parking": "surface"}}, {"type": "Feature", "geometry": {"type": "Point", "coordinates": [0.4124665, 47.7907988]}, "properties": {"amenity": "parking", "capacity": "20", "name": "Place André Ricordeau", "parking": "surface"}}, {"type": "Feature", "geometry": {"type": "Point", "coordinates": [0.4668581, 47.8695946]}, "properties": {"access": "customers", "amenity": "parking", "fee": "no", "parking": "surface"}}, {"type": "Feature", "geometry": {"type": "Point", "coordinates": [0.575515, 47.7278269]}, "properties": {"amenity": "parking", "name": "Place de la République", "source": "cadastre-dgi-fr source : Direction Générale des Impôts - Cadastre. Mise à jour : 2011"}}, {"type": "Feature", "geometry": {"type": "Point", "coordinates": [0.3716142, 47.7943442]}, "properties": {"access": "yes", "amenity": "parking", "capacity": "6", "fee": "no", "parking": "surface", "source": "GPS", "surface": "gravel"}}, {"type": "Feature", "geometry": {"type": "Point", "coordinates": [0.3720422, 47.7942324]}, "properties": {"amenity": "parking", "capacity": "10", "parking": "street_side", "source": "GPS"}}, {"type": "Feature", "geometry": {"type": "Point", "coordinates": [0.4898778, 47.8245306]}, "properties": {"amenity": "parking", "capacity": "20", "fee": "no", "source": "GPS"}}, {"type": "Feature", "geometry": {"type": "Point", "coordinates": [0.4895633, 47.8236358]}, "properties": {"amenity": "parking", "fee": "no", "source": "GPS"}}, {"type": "Feature", "geometry": {"type": "Point", "coordinates": [0.4661887, 47.8649193]}, "properties": {"amenity": "parking", "name": "Place du Docteur Salmon", "parking": "surface", "source": "cadastre-dgi-fr source : Direction Générale des Impôts - Cadastre. Mise à jour : 2012"}}, {"type": "Feature", "geometry": {"type": "Point", "coordinates": [0.4138785, 47.7900306]}, "properties": {"access": "yes", "amenity": "parking", "parking": "surface"}}, {"type": "Feature", "geometry": {"type": "Point", "coordinates": [0.561159, 47.8155386]}, "properties": {"amenity": "parking", "parking": "surface", "source": "cadastre-dgi-fr source : Direction Générale des Impôts - Cadastre. Mise à jour : 2012"}}, {"type": "Feature", "geometry": {"type": "Point", "coordinates": [0.4197327, 47.6922748]}, "properties": {"amenity": "parking", "name": "Place Saint-Martin", "parking": "surface", "source": "cadastre-dgi-fr source : Direction Générale des Impôts - Cadastre. Mise à jour : 2012"}}, {"type": "Feature", "geometry": {"type": "Point", "coordinates": [0.5856906, 47.8434281]}, "properties": {"amenity": "parking", "parking": "surface"}}, {"type": "Feature", "geometry": {"type": "Point", "coordinates": [0.5836115, 47.8409454]}, "properties": {"amenity": "parking", "fee": "no", "parking": "surface"}}, {"type": "Feature", "geometry": {"type": "Point", "coordinates": [0.6798049, 47.798608]}, "properties": {"amenity": "parking", "fee": "no", "parking": "surface", "source": "Bing Sat 2012"}}, {"type": "Feature", "geometry": {"type": "Point", "coordinates": [0.4673717, 47.8653975]}, "properties": {"amenity": "parking", "name": "Square Cherry Willingham", "source": "cadastre-dgi-fr source : Direction Générale des Impôts - Cadastre. Mise à jour : 2013"}}, {"type": "Feature", "geometry": {"type": "Point", "coordinates": [0.4323027, 47.8372449]}, "properties": {"amenity": "parking", "source": "cadastre-dgi-fr source : Direction Générale des Impôts - Cadastre. Mise à jour : 2013"}}, {"type": "Feature", "geometry": {"type": "Point", "coordinates": [0.4275398, 47.6916734]}, "properties": {"access": "private", "amenity": "parking"}}, {"type": "Feature", "geometry": {"type": "Point", "coordinates": [0.4208852, 47.6907408]}, "properties": {"amenity": "parking", "source": "cadastre-dgi-fr source : Direction Générale des Impôts - Cadastre. Mise à jour : 2013"}}, {"type": "Feature", "geometry": {"type": "Point", "coordinates": [0.405103, 47.7053289]}, "properties": {"amenity": "parking", "source": "cadastre-dgi-fr source : Direction Générale des Impôts - Cadastre. Mise à jour : 2014"}}, {"type": "Feature", "geometry": {"type": "Point", "coordinates": [0.4080998, 47.700854]}, "properties": {"amenity": "parking", "source": "cadastre-dgi-fr source : Direction Générale des Impôts - Cadastre. Mise à jour : 2014"}}, {"type": "Feature", "geometry": {"type": "Point", "coordinates": [0.4812177, 47.8669162]}, "properties": {"access": "yes", "amenity": "parking", "fee": "no", "parking": "surface"}}, {"type": "Feature", "geometry": {"type": "Point", "coordinates": [0.5148599, 47.7411377]}, "properties": {"amenity": "parking", "source": "cadastre-dgi-fr source : Direction Générale des Impôts - Cadastre. Mise à jour : 2014"}}, {"type": "Feature", "geometry": {"type": "Point", "coordinates": [0.5732782, 47.7268592]}, "properties": {"amenity": "parking", "name": "Place Carnot", "source": "cadastre-dgi-fr source : Direction Générale des Impôts - Cadastre. Mise à jour : 2014"}}, {"type": "Feature", "geometry": {"type": "Point", "coordinates": [0.5752716, 47.7285276]}, "properties": {"amenity": "parking", "name": "Place Jeanne Bourin", "source": "cadastre-dgi-fr source : Direction Générale des Impôts - Cadastre. Mise à jour : 2014"}}, {"type": "Feature", "geometry": {"type": "Point", "coordinates": [0.5702007, 47.7302603]}, "properties": {"amenity": "parking", "name": "Place Saint-Nicolas", "source": "cadastre-dgi-fr source : Direction Générale des Impôts - Cadastre. Mise à jour : 2014"}}, {"type": "Feature", "geometry": {"type": "Point", "coordinates": [0.5735445, 47.729459]}, "properties": {"amenity": "parking", "name": "Place de l'Hôtel de Ville", "parking": "surface", "source": "cadastre-dgi-fr source : Direction Générale des Impôts - Cadastre. Mise à jour : 2014"}}, {"type": "Feature", "geometry": {"type": "Point", "coordinates": [0.5737345, 47.728629]}, "properties": {"amenity": "parking", "name": "Place de la Liberté", "source": "cadastre-dgi-fr source : Direction Générale des Impôts - Cadastre. Mise à jour : 2014"}}, {"type": "Feature", "geometry": {"type": "Point", "coordinates": [0.5782956, 47.7295444]}, "properties": {"amenity": "parking", "source": "cadastre-dgi-fr source : Direction Générale des Impôts - Cadastre. Mise à jour : 2014"}}, {"type": "Feature", "geometry": {"type": "Point", "coordinates": [0.5815476, 47.7293291]}, "properties": {"amenity": "parking", "source": "cadastre-dgi-fr source : Direction Générale des Impôts - Cadastre. Mise à jour : 2014"}}, {"type": "Feature", "geometry": {"type": "Point", "coordinates": [0.5778382, 47.7287388]}, "properties": {"amenity": "parking", "source": "cadastre-dgi-fr source : Direction Générale des Impôts - Cadastre. Mise à jour : 2014"}}, {"type": "Feature", "geometry": {"type": "Point", "coordinates": [0.3328204, 47.7201707]}, "properties": {"amenity": "parking", "source": "cadastre-dgi-fr source : Direction Générale des Impôts - Cadastre. Mise à jour : 2014"}}, {"type": "Feature", "geometry": {"type": "Point", "coordinates": [0.395843, 47.6554266]}, "properties": {"amenity": "parking", "name": "Place du Bocage", "parking": "surface", "source": "cadastre-dgi-fr source : Direction Générale des Impôts - Cadastre. Mise à jour : 2014"}}, {"type": "Feature", "geometry": {"type": "Point", "coordinates": [0.4745504, 47.6647291]}, "properties": {"amenity": "parking", "name": "Place de la Mairie", "source": "cadastre-dgi-fr source : Direction Générale des Impôts - Cadastre. Mise à jour : 2014"}}, {"type": "Feature", "geometry": {"type": "Point", "coordinates": [0.5699238, 47.6929008]}, "properties": {"amenity": "parking", "source": "cadastre-dgi-fr source : Direction Générale des Impôts - Cadastre. Mise à jour : 2014"}}, {"type": "Feature", "geometry": {"type": "Point", "coordinates": [0.56934, 47.6933798]}, "properties": {"amenity": "parking", "name": "Place de l'Église", "source": "cadastre-dgi-fr source : Direction Générale des Impôts - Cadastre. Mise à jour : 2014"}}, {"type": "Feature", "geometry": {"type": "Point", "coordinates": [0.4721565, 47.6647502]}, "properties": {"amenity": "parking", "name": "Place Marcel Morand", "parking": "surface"}}, {"type": "Feature", "geometry": {"type": "Point", "coordinates": [0.4696881, 47.6509537]}, "properties": {"access": "yes", "amenity": "parking", "capacity": "61", "fee": "no", "parking": "street_side"}}, {"type": "Feature", "geometry": {"type": "Point", "coordinates": [0.4696109, 47.6505681]}, "properties": {"access": "yes", "amenity": "parking", "capacity": "16", "capacity:disabled": "2", "fee": "no", "parking": "street_side"}}, {"type": "Feature", "geometry": {"type": "Point", "coordinates": [0.4683527, 47.6508558]}, "properties": {"access": "yes", "amenity": "parking", "capacity:hgv": "16", "hgv": "yes", "toilets": "yes"}}, {"type": "Feature", "geometry": {"type": "Point", "coordinates": [0.4703749, 47.6514548]}, "properties": {"amenity": "parking", "capacity:hgv": "47", "hgv": "yes", "parking": "surface", "toilets": "yes"}}, {"type": "Feature", "geometry": {"type": "Point", "coordinates": [0.5774689, 47.7260207]}, "properties": {"amenity": "parking"}}, {"type": "Feature", "geometry": {"type": "Point", "coordinates": [0.5714368, 47.7279714]}, "properties": {"amenity": "parking"}}, {"type": "Feature", "geometry": {"type": "Point", "coordinates": [0.5725635, 47.7297621]}, "properties": {"amenity": "parking", "fee": "no", "parking": "surface"}}, {"type": "Feature", "geometry": {"type": "Point", "coordinates": [0.5720293, 47.7293216]}, "properties": {"amenity": "parking"}}, {"type": "Feature", "geometry": {"type": "Point", "coordinates": [0.5765623, 47.7274195]}, "properties": {"amenity": "parking"}}, {"type": "Feature", "geometry": {"type": "Point", "coordinates": [0.4718969, 47.6640722]}, "properties": {"amenity": "parking"}}, {"type": "Feature", "geometry": {"type": "Point", "coordinates": [0.3861972, 47.6802442]}, "properties": {"amenity": "parking"}}, {"type": "Feature", "geometry": {"type": "Point", "coordinates": [0.3864551, 47.6808946]}, "properties": {"amenity": "parking"}}, {"type": "Feature", "geometry": {"type": "Point", "coordinates": [0.4175158, 47.6942915]}, "properties": {"amenity": "parking", "parking": "street_side"}}, {"type": "Feature", "geometry": {"type": "Point", "coordinates": [0.4154141, 47.6935064]}, "properties": {"amenity": "parking"}}, {"type": "Feature", "geometry": {"type": "Point", "coordinates": [0.429146, 47.6863637]}, "properties": {"amenity": "parking"}}, {"type": "Feature", "geometry": {"type": "Point", "coordinates": [0.4064097, 47.704627]}, "properties": {"amenity": "parking"}}, {"type": "Feature", "geometry": {"type": "Point", "coordinates": [0.4410143, 47.6461245]}, "properties": {"amenity": "parking", "parking": "surface"}}, {"type": "Feature", "geometry": {"type": "Point", "coordinates": [0.6798689, 47.7983543]}, "properties": {"amenity": "parking"}}, {"type": "Feature", "geometry": {"type": "Point", "coordinates": [0.4827023, 47.8658392]}, "properties": {"amenity": "parking", "parking": "street_side"}}, {"type": "Feature", "geometry": {"type": "Point", "coordinates": [0.4817569, 47.8661055]}, "properties": {"access": "yes", "amenity": "parking", "fee": "no", "parking": "surface"}}, {"type": "Feature", "geometry": {"type": "Point", "coordinates": [0.4817582, 47.8664558]}, "properties": {"access": "yes", "amenity": "parking", "fee": "no", "parking": "street_side"}}, {"type": "Feature", "geometry": {"type": "Point", "coordinates": [0.4798103, 47.8646871]}, "properties": {"access": "yes", "amenity": "parking", "fee": "no", "parking": "surface"}}, {"type": "Feature", "geometry": {"type": "Point", "coordinates": [0.4789902, 47.8638364]}, "properties": {"amenity": "parking"}}, {"type": "Feature", "geometry": {"type": "Point", "coordinates": [0.4807469, 47.8649889]}, "properties": {"access": "yes", "amenity": "parking", "fee": "no", "parking": "surface"}}, {"type": "Feature", "geometry": {"type": "Point", "coordinates": [0.4567252, 47.8612247]}, "properties": {"amenity": "parking"}}, {"type": "Feature", "geometry": {"type": "Point", "coordinates": [0.4088489, 47.7020907]}, "properties": {"amenity": "parking"}}, {"type": "Feature", "geometry": {"type": "Point", "coordinates": [0.3955517, 47.6691896]}, "properties": {"amenity": "parking", "parking": "surface"}}, {"type": "Feature", "geometry": {"type": "Point", "coordinates": [0.3964319, 47.6677771]}, "properties": {"amenity": "parking", "parking": "surface"}}, {"type": "Feature", "geometry": {"type": "Point", "coordinates": [0.4734059, 47.8590685]}, "properties": {"access": "yes", "amenity": "parking", "capacity:disabled": "yes", "fee": "no", "park_ride": "no", "parking": "surface", "surface": "asphalt"}}, {"type": "Feature", "geometry": {"type": "Point", "coordinates": [0.4733096, 47.8597231]}, "properties": {"access": "yes", "amenity": "parking", "fee": "no", "park_ride": "no", "parking": "surface", "surface": "asphalt"}}, {"type": "Feature", "geometry": {"type": "Point", "coordinates": [0.4699044, 47.8649901]}, "properties": {"amenity": "parking", "capacity": "5", "parking": "street_side"}}, {"type": "Feature", "geometry": {"type": "Point", "coordinates": [0.4700284, 47.864944]}, "properties": {"amenity": "parking", "capacity": "6", "parking": "street_side"}}, {"type": "Feature", "geometry": {"type": "Point", "coordinates": [0.4697976, 47.8646957]}, "properties": {"amenity": "parking", "capacity": "6", "parking": "street_side"}}, {"type": "Feature", "geometry": {"type": "Point", "coordinates": [0.4696717, 47.8647498]}, "properties": {"amenity": "parking", "capacity": "6", "parking": "street_side"}}, {"type": "Feature", "geometry": {"type": "Point", "coordinates": [0.4699707, 47.8647247]}, "properties": {"amenity": "parking", "capacity": "6", "parking": "street_side"}}, {"type": "Feature", "geometry": {"type": "Point", "coordinates": [0.469019, 47.8656693]}, "properties": {"access": "customers", "amenity": "parking"}}, {"type": "Feature", "geometry": {"type": "Point", "coordinates": [0.418025, 47.6839535]}, "properties": {"amenity": "parking"}}, {"type": "Feature", "geometry": {"type": "Point", "coordinates": [0.558784, 47.74624]}, "properties": {"amenity": "parking"}}, {"type": "Feature", "geometry": {"type": "Point", "coordinates": [0.4151744, 47.6837219]}, "properties": {"amenity": "parking"}}, {"type": "Feature", "geometry": {"type": "Point", "coordinates": [0.6221292, 47.7507835]}, "properties": {"amenity": "parking", "capacity": "25", "fee": "no", "name": "Place Solange Alexandre", "parking": "surface", "surface": "asphalt"}}, {"type": "Feature", "geometry": {"type": "Point", "coordinates": [0.4808628, 47.8652931]}, "properties": {"amenity": "parking", "parking": "lane"}}, {"type": "Feature", "geometry": {"type": "Point", "coordinates": [0.4705434, 47.8664523]}, "properties": {"access": "private", "amenity": "parking"}}, {"type": "Feature", "geometry": {"type": "Point", "coordinates": [0.4711165, 47.8664239]}, "properties": {"amenity": "parking"}}, {"type": "Feature", "geometry": {"type": "Point", "coordinates": [0.4721256, 47.8667298]}, "properties": {"amenity": "parking", "parking": "street_side"}}, {"type": "Feature", "geometry": {"type": "Point", "coordinates": [0.4699245, 47.8680266]}, "properties": {"amenity": "parking", "parking": "street_side"}}, {"type": "Feature", "geometry": {"type": "Point", "coordinates": [0.4703928, 47.8639851]}, "properties": {"amenity": "parking", "parking": "lane"}}, {"type": "Feature", "geometry": {"type": "Point", "coordinates": [0.4702657, 47.8644062]}, "properties": {"amenity": "parking", "parking": "lane"}}, {"type": "Feature", "geometry": {"type": "Point", "coordinates": [0.4743677, 47.8610355]}, "properties": {"amenity": "parking", "parking": "lane"}}, {"type": "Feature", "geometry": {"type": "Point", "coordinates": [0.4733495, 47.8612327]}, "properties": {"amenity": "parking", "parking": "lane"}}, {"type": "Feature", "geometry": {"type": "Point", "coordinates": [0.4712896, 47.8618482]}, "properties": {"amenity": "parking", "parking": "lane"}}, {"type": "Feature", "geometry": {"type": "Point", "coordinates": [0.4719407, 47.8615992]}, "properties": {"amenity": "parking", "parking": "lane"}}, {"type": "Feature", "geometry": {"type": "Point", "coordinates": [0.4705248, 47.8635765]}, "properties": {"amenity": "parking", "parking": "lane"}}, {"type": "Feature", "geometry": {"type": "Point", "coordinates": [0.4706465, 47.8631801]}, "properties": {"amenity": "parking", "parking": "lane"}}, {"type": "Feature", "geometry": {"type": "Point", "coordinates": [0.4707362, 47.8626883]}, "properties": {"amenity": "parking", "parking": "lane"}}, {"type": "Feature", "geometry": {"type": "Point", "coordinates": [0.4626941, 47.8669888]}, "properties": {"amenity": "parking", "parking": "street_side"}}, {"type": "Feature", "geometry": {"type": "Point", "coordinates": [0.4610802, 47.8673136]}, "properties": {"amenity": "parking", "parking": "street_side"}}, {"type": "Feature", "geometry": {"type": "Point", "coordinates": [0.4611418, 47.8667667]}, "properties": {"amenity": "parking", "parking": "street_side"}}, {"type": "Feature", "geometry": {"type": "Point", "coordinates": [0.4606476, 47.8662388]}, "properties": {"amenity": "parking", "parking": "street_side"}}, {"type": "Feature", "geometry": {"type": "Point", "coordinates": [0.4601652, 47.8655861]}, "properties": {"amenity": "parking", "parking": "street_side"}}, {"type": "Feature", "geometry": {"type": "Point", "coordinates": [0.4598649, 47.8650686]}, "properties": {"amenity": "parking", "parking": "street_side"}}, {"type": "Feature", "geometry": {"type": "Point", "coordinates": [0.4597801, 47.8647904]}, "properties": {"amenity": "parking", "parking": "street_side"}}, {"type": "Feature", "geometry": {"type": "Point", "coordinates": [0.4618417, 47.8645218]}, "properties": {"amenity": "parking", "parking": "street_side"}}, {"type": "Feature", "geometry": {"type": "Point", "coordinates": [0.475513, 47.8643613]}, "properties": {"amenity": "parking", "parking": "lane"}}, {"type": "Feature", "geometry": {"type": "Point", "coordinates": [0.4759498, 47.864266]}, "properties": {"amenity": "parking", "parking": "street_side"}}, {"type": "Feature", "geometry": {"type": "Point", "coordinates": [0.4755577, 47.8635665]}, "properties": {"amenity": "parking"}}, {"type": "Feature", "geometry": {"type": "Point", "coordinates": [0.4689881, 47.865369]}, "properties": {"amenity": "parking", "parking": "street_side"}}, {"type": "Feature", "geometry": {"type": "Point", "coordinates": [0.4689511, 47.8652358]}, "properties": {"amenity": "parking", "parking": "street_side"}}, {"type": "Feature", "geometry": {"type": "Point", "coordinates": [0.4177504, 47.6950648]}, "properties": {"access": "yes", "amenity": "parking", "fee": "no", "name": "Place de l'Hôtel de Ville", "parking": "surface", "source": "cadastre-dgi-fr source : Direction Générale des Impôts - Cadastre ; mise à jour : juin 2010"}}, {"type": "Feature", "geometry": {"type": "Point", "coordinates": [0.470258, 47.8654053]}, "properties": {"amenity": "parking", "name": "Place Pineau"}}, {"type": "Feature", "geometry": {"type": "Point", "coordinates": [0.6790208, 47.7980706]}, "properties": {"amenity": "parking"}}, {"type": "Feature", "geometry": {"type": "Point", "coordinates": [0.5696823, 47.7301877]}, "properties": {"amenity": "parking", "capacity": "7", "capacity:disabled": "1", "fee": "no", "parking": "street_side", "surface": "asphalt"}}, {"type": "Feature", "geometry": {"type": "Point", "coordinates": [0.5694092, 47.7303111]}, "properties": {"amenity": "parking", "capacity": "7", "fee": "no", "parking": "street_side", "surface": "asphalt"}}, {"type": "Feature", "geometry": {"type": "Point", "coordinates": [0.5637127, 47.816693]}, "properties": {"amenity": "parking"}}, {"type": "Feature", "geometry": {"type": "Point", "coordinates": [0.431924, 47.8352158]}, "properties": {"amenity": "parking", "name": "Place de l'Avenir"}}, {"type": "Feature", "geometry": {"type": "Point", "coordinates": [0.4903635, 47.8274477]}, "properties": {"amenity": "parking"}}, {"type": "Feature", "geometry": {"type": "Point", "coordinates": [0.432285, 47.8368341]}, "properties": {"amenity": "parking"}}, {"type": "Feature", "geometry": {"type": "Point", "coordinates": [0.3721123, 47.6856096]}, "properties": {"access": "yes", "amenity": "parking", "fee": "no", "parking": "surface", "surface": "asphalt"}}, {"type": "Feature", "geometry": {"type": "Point", "coordinates": [0.4899123, 47.8252187]}, "properties": {"amenity": "parking"}}, {"type": "Feature", "geometry": {"type": "Point", "coordinates": [0.4289167, 47.6867138]}, "properties": {"amenity": "parking"}}, {"type": "Feature", "geometry": {"type": "Point", "coordinates": [0.4288753, 47.687106]}, "properties": {"amenity": "parking"}}, {"type": "Feature", "geometry": {"type": "Point", "coordinates": [0.4283937, 47.6844442]}, "properties": {"amenity": "parking"}}, {"type": "Feature", "geometry": {"type": "Point", "coordinates": [0.4278358, 47.6840938]}, "properties": {"amenity": "parking"}}, {"type": "Feature", "geometry": {"type": "Point", "coordinates": [0.4276019, 47.6843774]}, "properties": {"amenity": "parking"}}, {"type": "Feature", "geometry": {"type": "Point", "coordinates": [0.4265522, 47.6860654]}, "properties": {"amenity": "parking"}}, {"type": "Feature", "geometry": {"type": "Point", "coordinates": [0.4269992, 47.6852912]}, "properties": {"amenity": "parking"}}, {"type": "Feature", "geometry": {"type": "Point", "coordinates": [0.4001024, 47.7167458]}, "properties": {"amenity": "parking"}}, {"type": "Feature", "geometry": {"type": "Point", "coordinates": [0.4039209, 47.7088864]}, "properties": {"amenity": "parking"}}, {"type": "Feature", "geometry": {"type": "Point", "coordinates": [0.4037262, 47.7083393]}, "properties": {"amenity": "parking"}}, {"type": "Feature", "geometry": {"type": "Point", "coordinates": [0.421637, 47.6871728]}, "properties": {"amenity": "parking"}}, {"type": "Feature", "geometry": {"type": "Point", "coordinates": [0.4217429, 47.685474]}, "properties": {"amenity": "parking"}}, {"type": "Feature", "geometry": {"type": "Point", "coordinates": [0.4224211, 47.6858548]}, "properties": {"amenity": "parking"}}, {"type": "Feature", "geometry": {"type": "Point", "coordinates": [0.4231178, 47.6861028]}, "properties": {"amenity": "parking"}}, {"type": "Feature", "geometry": {"type": "Point", "coordinates": [0.4229294, 47.6863822]}, "properties": {"amenity": "parking"}}, {"type": "Feature", "geometry": {"type": "Point", "coordinates": [0.4224472, 47.6863339]}, "properties": {"amenity": "parking"}}, {"type": "Feature", "geometry": {"type": "Point", "coordinates": [0.4222381, 47.6861961]}, "properties": {"amenity": "parking"}}, {"type": "Feature", "geometry": {"type": "Point", "coordinates": [0.4219055, 47.6863168]}, "properties": {"amenity": "parking"}}, {"type": "Feature", "geometry": {"type": "Point", "coordinates": [0.4228285, 47.6866495]}, "properties": {"amenity": "parking"}}, {"type": "Feature", "geometry": {"type": "Point", "coordinates": [0.425101, 47.6888421]}, "properties": {"amenity": "parking"}}, {"type": "Feature", "geometry": {"type": "Point", "coordinates": [0.4267488, 47.6904318]}, "properties": {"amenity": "parking"}}, {"type": "Feature", "geometry": {"type": "Point", "coordinates": [0.5881946, 47.8400814]}, "properties": {"amenity": "parking"}}, {"type": "Feature", "geometry": {"type": "Point", "coordinates": [0.4893481, 47.8251427]}, "properties": {"amenity": "parking"}}, {"type": "Feature", "geometry": {"type": "Point", "coordinates": [0.4642154, 47.8694442]}, "properties": {"amenity": "parking"}}, {"type": "Feature", "geometry": {"type": "Point", "coordinates": [0.4600955, 47.8661343]}, "properties": {"amenity": "parking"}}, {"type": "Feature", "geometry": {"type": "Point", "coordinates": [0.4596005, 47.864926]}, "properties": {"amenity": "parking"}}, {"type": "Feature", "geometry": {"type": "Point", "coordinates": [0.5823702, 47.8098879]}, "properties": {"amenity": "parking"}}, {"type": "Feature", "geometry": {"type": "Point", "coordinates": [0.4105917, 47.6809653]}, "properties": {"amenity": "parking", "parking": "surface"}}, {"type": "Feature", "geometry": {"type": "Point", "coordinates": [0.4014948, 47.7598424]}, "properties": {"amenity": "parking", "capacity": "10", "name": "Place du 8 Mai"}}, {"type": "Feature", "geometry": {"type": "Point", "coordinates": [0.4570272, 47.7978275]}, "properties": {"amenity": "parking"}}, {"type": "Feature", "geometry": {"type": "Point", "coordinates": [0.4474153, 47.7538852]}, "properties": {"amenity": "parking"}}, {"type": "Feature", "geometry": {"type": "Point", "coordinates": [0.4535991, 47.7331161]}, "properties": {"amenity": "parking"}}, {"type": "Feature", "geometry": {"type": "Point", "coordinates": [0.4530787, 47.7320292]}, "properties": {"amenity": "parking"}}, {"type": "Feature", "geometry": {"type": "Point", "coordinates": [0.4542207, 47.7336816]}, "properties": {"amenity": "parking"}}, {"type": "Feature", "geometry": {"type": "Point", "coordinates": [0.4548956, 47.7395269]}, "properties": {"amenity": "parking", "surface": "gravel"}}, {"type": "Feature", "geometry": {"type": "Point", "coordinates": [0.4048593, 47.7598088]}, "properties": {"amenity": "parking", "surface": "gravel"}}, {"type": "Feature", "geometry": {"type": "Point", "coordinates": [0.5078333, 47.7112225]}, "properties": {"amenity": "parking"}}, {"type": "Feature", "geometry": {"type": "Point", "coordinates": [0.4111352, 47.79263]}, "properties": {"amenity": "parking", "capacity": "30", "parking": "surface", "source": "survey"}}, {"type": "Feature", "geometry": {"type": "Point", "coordinates": [0.410988, 47.7928527]}, "properties": {"amenity": "parking"}}, {"type": "Feature", "geometry": {"type": "Point", "coordinates": [0.4144809, 47.7911137]}, "properties": {"amenity": "parking"}}, {"type": "Feature", "geometry": {"type": "Point", "coordinates": [0.3993553, 47.7086038]}, "properties": {"amenity": "parking", "orientation": "perpendicular", "parking": "street_side", "surface": "asphalt"}}, {"type": "Feature", "geometry": {"type": "Point", "coordinates": [0.3955714, 47.7120438]}, "properties": {"amenity": "parking", "parking": "surface", "surface": "asphalt"}}, {"type": "Feature", "geometry": {"type": "Point", "coordinates": [0.3330712, 47.7179248]}, "properties": {"access": "yes", "amenity": "parking", "capacity": "4", "orientation": "parallel", "parking": "street_side", "surface": "asphalt"}}, {"type": "Feature", "geometry": {"type": "Point", "coordinates": [0.333355, 47.717813]}, "properties": {"amenity": "parking", "capacity": "3", "capacity:disabled": "1", "parking": "street_side"}}, {"type": "Feature", "geometry": {"type": "Point", "coordinates": [0.3328383, 47.7186844]}, "properties": {"access": "yes", "amenity": "parking", "capacity": "2", "orientation": "parallel", "parking": "street_side", "surface": "asphalt"}}, {"type": "Feature", "geometry": {"type": "Point", "coordinates": [0.3326984, 47.7192634]}, "properties": {"access": "yes", "amenity": "parking", "capacity": "2", "orientation": "parallel", "parking": "street_side", "surface": "asphalt"}}, {"type": "Feature", "geometry": {"type": "Point", "coordinates": [0.3327349, 47.7190994]}, "properties": {"access": "yes", "amenity": "parking", "capacity": "2", "orientation": "parallel", "parking": "street_side", "surface": "asphalt"}}, {"type": "Feature", "geometry": {"type": "Point", "coordinates": [0.5132899, 47.7412163]}, "properties": {"amenity": "parking", "orientation": "perpendicular", "parking": "street_side", "surface": "asphalt"}}, {"type": "Feature", "geometry": {"type": "Point", "coordinates": [0.513392, 47.7410118]}, "properties": {"amenity": "parking", "parking": "surface"}}, {"type": "Feature", "geometry": {"type": "Point", "coordinates": [0.4890256, 47.8329295]}, "properties": {"access": "yes", "amenity": "parking", "fee": "no", "operator": "Enedis", "operator:wikidata": "Q3587594", "parking": "layby", "power": "substation"}}, {"type": "Feature", "geometry": {"type": "Point", "coordinates": [0.4696377, 47.8648628]}, "properties": {"amenity": "parking", "capacity": "6", "parking": "street_side"}}, {"type": "Feature", "geometry": {"type": "Point", "coordinates": [0.5885598, 47.7408097]}, "properties": {"amenity": "parking"}}, {"type": "Feature", "geometry": {"type": "Point", "coordinates": [0.5184565, 47.7402347]}, "properties": {"amenity": "parking"}}, {"type": "Feature", "geometry": {"type": "Point", "coordinates": [0.4155646, 47.6959273]}, "properties": {"amenity": "parking", "parking": "surface"}}, {"type": "Feature", "geometry": {"type": "Point", "coordinates": [0.4149546, 47.6964508]}, "properties": {"amenity": "parking", "parking": "surface"}}, {"type": "Feature", "geometry": {"type": "Point", "coordinates": [0.4094136, 47.6975888]}, "properties": {"amenity": "parking", "parking": "surface"}}, {"type": "Feature", "geometry": {"type": "Point", "coordinates": [0.4607347, 47.6911726]}, "properties": {"amenity": "parking", "parking": "surface"}}, {"type": "Feature", "geometry": {"type": "Point", "coordinates": [0.4088329, 47.6946772]}, "properties": {"amenity": "parking"}}, {"type": "Feature", "geometry": {"type": "Point", "coordinates": [0.4145897, 47.6944171]}, "properties": {"amenity": "parking", "capacity": "11", "capacity:disabled": "1"}}, {"type": "Feature", "geometry": {"type": "Point", "coordinates": [0.4626279, 47.6944851]}, "properties": {"access": "yes", "amenity": "parking", "capacity": "33", "capacity:disabled": "1", "fee": "no", "parking": "surface"}}, {"type": "Feature", "geometry": {"type": "Point", "coordinates": [0.4137715, 47.6882735]}, "properties": {"amenity": "parking"}}, {"type": "Feature", "geometry": {"type": "Point", "coordinates": [0.4157218, 47.6896259]}, "properties": {"amenity": "parking"}}, {"type": "Feature", "geometry": {"type": "Point", "coordinates": [0.4194172, 47.6866778]}, "properties": {"amenity": "parking"}}, {"type": "Feature", "geometry": {"type": "Point", "coordinates": [0.4215117, 47.6912165]}, "properties": {"amenity": "parking"}}, {"type": "Feature", "geometry": {"type": "Point", "coordinates": [0.4212913, 47.6911185]}, "properties": {"amenity": "parking"}}, {"type": "Feature", "geometry": {"type": "Point", "coordinates": [0.4112946, 47.6990508]}, "properties": {"amenity": "parking"}}, {"type": "Feature", "geometry": {"type": "Point", "coordinates": [0.4099516, 47.6911472]}, "properties": {"amenity": "parking"}}, {"type": "Feature", "geometry": {"type": "Point", "coordinates": [0.4251526, 47.6927048]}, "properties": {"amenity": "parking"}}, {"type": "Feature", "geometry": {"type": "Point", "coordinates": [0.4251356, 47.693169]}, "properties": {"amenity": "parking"}}, {"type": "Feature", "geometry": {"type": "Point", "coordinates": [0.4250347, 47.6934067]}, "properties": {"amenity": "parking"}}, {"type": "Feature", "geometry": {"type": "Point", "coordinates": [0.4250928, 47.6938314]}, "properties": {"amenity": "parking"}}, {"type": "Feature", "geometry": {"type": "Point", "coordinates": [0.4256462, 47.6938238]}, "properties": {"amenity": "parking"}}, {"type": "Feature", "geometry": {"type": "Point", "coordinates": [0.4244946, 47.6941205]}, "properties": {"amenity": "parking"}}, {"type": "Feature", "geometry": {"type": "Point", "coordinates": [0.4181878, 47.6956512]}, "properties": {"amenity": "parking", "parking": "street_side"}}, {"type": "Feature", "geometry": {"type": "Point", "coordinates": [0.4184062, 47.6956689]}, "properties": {"amenity": "parking", "parking": "street_side"}}, {"type": "Feature", "geometry": {"type": "Point", "coordinates": [0.4182483, 47.6950071]}, "properties": {"amenity": "parking", "parking": "street_side"}}, {"type": "Feature", "geometry": {"type": "Point", "coordinates": [0.4174298, 47.6951828]}, "properties": {"amenity": "parking", "parking": "street_side"}}, {"type": "Feature", "geometry": {"type": "Point", "coordinates": [0.4176751, 47.6944982]}, "properties": {"amenity": "parking", "parking": "street_side"}}, {"type": "Feature", "geometry": {"type": "Point", "coordinates": [0.4181938, 47.6947431]}, "properties": {"amenity": "parking", "parking": "street_side"}}, {"type": "Feature", "geometry": {"type": "Point", "coordinates": [0.4182385, 47.6946976]}, "properties": {"amenity": "parking", "parking": "street_side"}}, {"type": "Feature", "geometry": {"type": "Point", "coordinates": [0.4180958, 47.6948055]}, "properties": {"amenity": "parking", "parking": "street_side"}}, {"type": "Feature", "geometry": {"type": "Point", "coordinates": [0.418271, 47.6964407]}, "properties": {"amenity": "parking", "parking": "street_side"}}, {"type": "Feature", "geometry": {"type": "Point", "coordinates": [0.4182398, 47.6962618]}, "properties": {"amenity": "parking", "parking": "street_side"}}, {"type": "Feature", "geometry": {"type": "Point", "coordinates": [0.4187641, 47.6949835]}, "properties": {"amenity": "parking", "parking": "street_side"}}, {"type": "Feature", "geometry": {"type": "Point", "coordinates": [0.4183904, 47.6947178]}, "properties": {"amenity": "parking", "parking": "street_side"}}, {"type": "Feature", "geometry": {"type": "Point", "coordinates": [0.4303707, 47.6881267]}, "properties": {"amenity": "parking"}}, {"type": "Feature", "geometry": {"type": "Point", "coordinates": [0.4205511, 47.687813]}, "properties": {"amenity": "parking"}}, {"type": "Feature", "geometry": {"type": "Point", "coordinates": [0.4206059, 47.6885159]}, "properties": {"amenity": "parking"}}, {"type": "Feature", "geometry": {"type": "Point", "coordinates": [0.4200569, 47.6883266]}, "properties": {"amenity": "parking"}}, {"type": "Feature", "geometry": {"type": "Point", "coordinates": [0.4213225, 47.6881113]}, "properties": {"amenity": "parking"}}, {"type": "Feature", "geometry": {"type": "Point", "coordinates": [0.4206943, 47.6872832]}, "properties": {"amenity": "parking"}}, {"type": "Feature", "geometry": {"type": "Point", "coordinates": [0.4211512, 47.6874144]}, "properties": {"amenity": "parking"}}, {"type": "Feature", "geometry": {"type": "Point", "coordinates": [0.4231747, 47.6937876]}, "properties": {"access": "private", "amenity": "parking"}}, {"type": "Feature", "geometry": {"type": "Point", "coordinates": [0.4151234, 47.6833132]}, "properties": {"amenity": "parking"}}, {"type": "Feature", "geometry": {"type": "Point", "coordinates": [0.4148548, 47.6833092]}, "properties": {"amenity": "parking"}}, {"type": "Feature", "geometry": {"type": "Point", "coordinates": [0.4141725, 47.6832829]}, "properties": {"amenity": "parking"}}, {"type": "Feature", "geometry": {"type": "Point", "coordinates": [0.424131, 47.6954027]}, "properties": {"amenity": "parking"}}, {"type": "Feature", "geometry": {"type": "Point", "coordinates": [0.424569, 47.6956991]}, "properties": {"amenity": "parking"}}, {"type": "Feature", "geometry": {"type": "Point", "coordinates": [0.4158152, 47.6939226]}, "properties": {"amenity": "parking"}}, {"type": "Feature", "geometry": {"type": "Point", "coordinates": [0.6195439, 47.7520782]}, "properties": {"amenity": "parking"}}, {"type": "Feature", "geometry": {"type": "Point", "coordinates": [0.6193576, 47.7522352]}, "properties": {"amenity": "parking"}}, {"type": "Feature", "geometry": {"type": "Point", "coordinates": [0.4948992, 47.64837]}, "properties": {"access": "yes", "amenity": "parking", "fee": "no", "parking": "layby", "surface": "asphalt"}}, {"type": "Feature", "geometry": {"type": "Point", "coordinates": [0.4908607, 47.6528828]}, "properties": {"access": "yes", "amenity": "parking", "fee": "no", "parking": "layby"}}, {"type": "Feature", "geometry": {"type": "Point", "coordinates": [0.4595263, 47.6717335]}, "properties": {"access": "yes", "amenity": "parking", "fee": "no", "parking": "layby", "surface": "asphalt"}}, {"type": "Feature", "geometry": {"type": "Point", "coordinates": [0.4593979, 47.6718057]}, "properties": {"access": "yes", "amenity": "parking", "fee": "no", "parking": "layby", "surface": "asphalt"}}, {"type": "Feature", "geometry": {"type": "Point", "coordinates": [0.4233343, 47.7036075]}, "properties": {"access": "yes", "amenity": "parking", "fee": "no", "parking": "layby"}}, {"type": "Feature", "geometry": {"type": "Point", "coordinates": [0.4225336, 47.7039588]}, "properties": {"access": "yes", "amenity": "parking", "fee": "no", "parking": "layby"}}, {"type": "Feature", "geometry": {"type": "Point", "coordinates": [0.397684, 47.7248277]}, "properties": {"access": "yes", "amenity": "parking", "fee": "no", "parking": "layby", "surface": "asphalt"}}, {"type": "Feature", "geometry": {"type": "Point", "coordinates": [0.3976135, 47.7248976]}, "properties": {"access": "yes", "amenity": "parking", "fee": "no", "parking": "layby", "surface": "asphalt"}}, {"type": "Feature", "geometry": {"type": "Point", "coordinates": [0.3899598, 47.7399376]}, "properties": {"access": "yes", "amenity": "parking", "fee": "no", "parking": "layby"}}, {"type": "Feature", "geometry": {"type": "Point", "coordinates": [0.3584437, 47.7588805]}, "properties": {"access": "yes", "amenity": "parking", "fee": "no", "parking": "layby", "surface": "asphalt"}}, {"type": "Feature", "geometry": {"type": "Point", "coordinates": [0.358371, 47.7589488]}, "properties": {"access": "yes", "amenity": "parking", "fee": "no", "parking": "layby", "surface": "asphalt"}}, {"type": "Feature", "geometry": {"type": "Point", "coordinates": [0.3518084, 47.7667253]}, "properties": {"access": "yes", "amenity": "parking", "fee": "no", "parking": "layby", "surface": "asphalt"}}, {"type": "Feature", "geometry": {"type": "Point", "coordinates": [0.351751, 47.7667716]}, "properties": {"access": "yes", "amenity": "parking", "fee": "no", "parking": "layby", "surface": "asphalt"}}, {"type": "Feature", "geometry": {"type": "Point", "coordinates": [0.4486189, 47.753503]}, "properties": {"amenity": "parking"}}, {"type": "Feature", "geometry": {"type": "Point", "coordinates": [0.3884729, 47.7405763]}, "properties": {"amenity": "parking"}}, {"type": "Feature", "geometry": {"type": "Point", "coordinates": [0.3952575, 47.6534833]}, "properties": {"amenity": "parking", "source": "cadastre-dgi-fr source : Direction Générale des Impôts - Cadastre. Mise à jour : 2014"}}, {"type": "Feature", "geometry": {"type": "Point", "coordinates": [0.6870361, 47.770603]}, "properties": {"amenity": "parking"}}, {"type": "Feature", "geometry": {"type": "Point", "coordinates": [0.5580079, 47.7431699]}, "properties": {"amenity": "parking"}}, {"type": "Feature", "geometry": {"type": "Point", "coordinates": [0.6564498, 47.7620295]}, "properties": {"amenity": "parking", "fee": "no", "parking": "surface", "surface": "asphalt"}}, {"type": "Feature", "geometry": {"type": "Point", "coordinates": [0.42833, 47.8788887]}, "properties": {"amenity": "parking"}}, {"type": "Feature", "geometry": {"type": "Point", "coordinates": [0.4284091, 47.8789467]}, "properties": {"amenity": "parking"}}, {"type": "Feature", "geometry": {"type": "Point", "coordinates": [0.3640871, 47.7860613]}, "properties": {"amenity": "parking"}}, {"type": "Feature", "geometry": {"type": "Point", "coordinates": [0.456648, 47.7974211]}, "properties": {"amenity": "parking"}}]}