{"type": "FeatureCollection", "features": [{"type": "Feature", "geometry": {"type": "Point", "coordinates": [0.492755, 47.714439]}, "properties": {"amenity": "toilets", "building": "yes", "female": "yes", "male": "yes", "source": "cadastre-dgi-fr source : Direction Générale des Finances Publiques - Cadastre. Mise à jour : 2014", "wheelchair": "yes"}}, {"type": "Feature", "geometry": {"type": "Point", "coordinates": [0.4785443, 47.8640785]}, "properties": {"amenity": "toilets", "building": "yes", "source": "cadastre-dgi-fr source : Direction Générale des Finances Publiques - Cadastre. Mise à jour : 2014"}}, {"type": "Feature", "geometry": {"type": "Point", "coordinates": [0.4798895, 47.86505]}, "properties": {"amenity": "toilets", "building": "yes", "fee": "no", "source": "cadastre-dgi-fr source : Direction Générale des Finances Publiques - Cadastre. Mise à jour : 2014", "wall": "no"}}, {"type": "Feature", "geometry": {"type": "Point", "coordinates": [0.4011672, 47.7597034]}, "properties": {"amenity": "toilets", "building": "yes", "source": "cadastre-dgi-fr source : Direction Générale des Finances Publiques - Cadastre. Mise à jour : 2015"}}, {"type": "Feature", "geometry": {"type": "Point", "coordinates": [0.562963, 47.814979]}, "properties": {"amenity": "toilets", "building": "yes", "source": "cadastre-dgi-fr source : Direction Générale des Finances Publiques - Cadastre. Mise à jour : 2015"}}, {"type": "Feature", "geometry": {"type": "Point", "coordinates": [0.5708745, 47.696642]}, "properties": {"access": "yes", "amenity": "toilets", "building": "yes", "source": "cadastre-dgi-fr source : Direction Générale des Finances Publiques - Cadastre. Mise à jour : 2015", "toilets:disposal": "flush", "unisex": "yes"}}, {"type": "Feature", "geometry": {"type": "Point", "coordinates": [0.4718545, 47.6638523]}, "properties": {"amenity": "toilets", "building": "yes"}}, {"type": "Feature", "geometry": {"type": "Point", "coordinates": [0.4168843, 47.6938638]}, "properties": {"amenity": "toilets", "building": "yes", "opening_hours": "08:00-19:00", "source": "cadastre-dgi-fr source : Direction Générale des Impôts - Cadastre. Mise à jour : 2020"}}, {"type": "Feature", "geometry": {"type": "Point", "coordinates": [0.4132698, 47.7907517]}, "properties": {"amenity": "toilets"}}, {"type": "Feature", "geometry": {"type": "Point", "coordinates": [0.5225175, 47.8061837]}, "properties": {"amenity": "toilets", "source": "GPS"}}, {"type": "Feature", "geometry": {"type": "Point", "coordinates": [0.5747709, 47.7283522]}, "properties": {"amenity": "toilets"}}, {"type": "Feature", "geometry": {"type": "Point", "coordinates": [0.4182674, 47.6955353]}, "properties": {"amenity": "toilets", "opening_hours": "08:15-17:15"}}, {"type": "Feature", "geometry": {"type": "Point", "coordinates": [0.4631154, 47.6966628]}, "properties": {"amenity": "toilets"}}, {"type": "Feature", "geometry": {"type": "Point", "coordinates": [0.4699907, 47.8656003]}, "properties": {"amenity": "toilets"}}, {"type": "Feature", "geometry": {"type": "Point", "coordinates": [0.4908013, 47.8273878]}, "properties": {"amenity": "toilets"}}, {"type": "Feature", "geometry": {"type": "Point", "coordinates": [0.5838757, 47.8412453]}, "properties": {"amenity": "toilets"}}, {"type": "Feature", "geometry": {"type": "Point", "coordinates": [0.4311731, 47.836257]}, "properties": {"amenity": "toilets"}}, {"type": "Feature", "geometry": {"type": "Point", "coordinates": [0.431837, 47.837173]}, "properties": {"amenity": "toilets"}}, {"type": "Feature", "geometry": {"type": "Point", "coordinates": [0.4529728, 47.7322051]}, "properties": {"amenity": "toilets"}}, {"type": "Feature", "geometry": {"type": "Point", "coordinates": [0.4476345, 47.7539862]}, "properties": {"access": "yes", "amenity": "toilets", "check_date": "2026-04-10"}}, {"type": "Feature", "geometry": {"type": "Point", "coordinates": [0.5581637, 47.7459717]}, "properties": {"amenity": "toilets"}}, {"type": "Feature", "geometry": {"type": "Point", "coordinates": [0.5578297, 47.7433565]}, "properties": {"amenity": "toilets"}}, {"type": "Feature", "geometry": {"type": "Point", "coordinates": [0.5094769, 47.7100548]}, "properties": {"amenity": "toilets", "female": "yes", "male": "yes", "wheelchair": "yes"}}, {"type": "Feature", "geometry": {"type": "Point", "coordinates": [0.6563251, 47.7619011]}, "properties": {"amenity": "toilets"}}, {"type": "Feature", "geometry": {"type": "Point", "coordinates": [0.371384, 47.6858539]}, "properties": {"access": "yes", "amenity": "toilets"}}, {"type": "Feature", "geometry": {"type": "Point", "coordinates": [0.5146006, 47.7413138]}, "properties": {"amenity": "toilets"}}, {"type": "Feature", "geometry": {"type": "Point", "coordinates": [0.3865308, 47.6794475]}, "properties": {"amenity": "toilets"}}, {"type": "Feature", "geometry": {"type": "Point", "coordinates": [0.5811341, 47.7393648]}, "properties": {"access": "customers", "amenity": "toilets", "description": "Demander la clé à la réception - Ask to key from reception"}}, {"type": "Feature", "geometry": {"type": "Point", "coordinates": [0.5136859, 47.7330918]}, "properties": {"amenity": "toilets"}}]}