{"type": "FeatureCollection", "features": [{"type": "Feature", "geometry": {"type": "Point", "coordinates": [0.4219884, 47.6940183]}, "properties": {"amenity": "social_facility", "building": "yes", "ref:FR:RNB": "69PAVWX4PSTJ", "social_facility": "nursing_home", "social_facility:for": "senior", "source": "cadastre-dgi-fr source : Direction Générale des Finances Publiques - Cadastre. Mise à jour : 2013"}}, {"type": "Feature", "geometry": {"type": "Point", "coordinates": [0.4227584, 47.6938813]}, "properties": {"amenity": "social_facility", "building": "yes", "diff:ref:FR:RNB": "splitted", "name": "EHPAD La Pléiade", "ref:FR:RNB": "GWYAQ81NB55W", "social_facility": "nursing_home", "social_facility:for": "senior", "source": "cadastre-dgi-fr source : Direction Générale des Finances Publiques - Cadastre. Mise à jour : 2018"}}, {"type": "Feature", "geometry": {"type": "Point", "coordinates": [0.4644745, 47.8640769]}, "properties": {"amenity": "social_facility", "fax": "+33243615128", "name": "Ehpad Eugène Aujaleu", "phone": "+33243615151", "ref:FR:FINESS": "720014067", "ref:FR:SIRET": "78457899900038", "social_facility": "nursing_home", "social_facility:for": "senior", "source": "Le ministère des solidarités et de la santé - 03/2019", "type:FR:FINESS": "500", "wikidata": "Q112995802"}}, {"type": "Feature", "geometry": {"type": "Point", "coordinates": [0.4199478, 47.6906575]}, "properties": {"amenity": "social_facility", "brand": "Ehpad du CH", "fax": "+33243447799", "fixme": "vérifier sur place la localisation exacte", "name": "Ehpad du CH", "phone": "+33243447900", "ref:FR:FINESS": "720012178", "ref:FR:SIRET": "26720105100062", "social_facility": "nursing_home", "social_facility:for": "senior", "source": "Le ministère des solidarités et de la santé - 03/2019", "type:FR:FINESS": "500", "wikidata": "Q112995787"}}, {"type": "Feature", "geometry": {"type": "Point", "coordinates": [0.5144837, 47.7411507]}, "properties": {"amenity": "social_facility", "fax": "+33243381146", "name": "Résidence du Parc", "phone": "+33243798632", "ref:FR:FINESS": "720013390", "ref:FR:SIRET": "26720139000023", "social_facility": "nursing_home", "social_facility:for": "senior", "source": "Le ministère des solidarités et de la santé - 03/2019", "type:FR:FINESS": "500", "wikidata": "Q112970393"}}, {"type": "Feature", "geometry": {"type": "Point", "coordinates": [0.5773887, 47.7382079]}, "properties": {"amenity": "social_facility", "fax": "+33243381239", "name": "Ehpad Catherine de Courtoux", "phone": "+33243381238", "ref:FR:FINESS": "720000496", "ref:FR:SIRET": "26720029300012", "social_facility": "nursing_home", "social_facility:for": "senior", "source": "Le ministère des solidarités et de la santé - 03/2019", "type:FR:FINESS": "500", "wikidata": "Q112995718"}}, {"type": "Feature", "geometry": {"type": "Point", "coordinates": [0.6781175, 47.7986938]}, "properties": {"amenity": "social_facility", "fax": "+33243358629", "name": "EHPAD ANAIS de Loir en Vallée", "old_name": "Résidence du Tusson", "phone": "+33243353504", "ref:FR:FINESS": "720000017", "ref:FR:SIRET": "77562927200409", "social_facility": "nursing_home", "social_facility:for": "senior", "source": "Le ministère des solidarités et de la santé - 03/2019", "type:FR:FINESS": "500", "wikidata": "Q112974830"}}, {"type": "Feature", "geometry": {"type": "Point", "coordinates": [0.6202094, 47.7522265]}, "properties": {"amenity": "social_facility", "fax": "+33243381702", "name": "Ehpad Dujarié", "phone": "+33243381108", "ref:FR:FINESS": "720016682", "ref:FR:SIRET": "45214058500012", "social_facility": "nursing_home", "social_facility:for": "senior", "source": "Le ministère des solidarités et de la santé - 03/2019", "type:FR:FINESS": "500", "wikidata": "Q112995815"}}, {"type": "Feature", "geometry": {"type": "Point", "coordinates": [0.6142888, 47.7538272]}, "properties": {"amenity": "social_facility", "fax": "+33243444998", "name": "Ehpad de Fontenay", "phone": "+33243444428", "ref:FR:FINESS": "720002187", "ref:FR:SIRET": "26720028500018", "social_facility": "nursing_home", "social_facility:for": "senior", "source": "Le ministère des solidarités et de la santé - 03/2019", "type:FR:FINESS": "500", "wikidata": "Q112995728"}}, {"type": "Feature", "geometry": {"type": "Point", "coordinates": [0.4663074, 47.8640074]}, "properties": {"amenity": "social_facility", "name": "Foyer médicalisé Georges Coulon", "social_facility": "nursing_home"}}]}