{"type": "FeatureCollection", "features": [{"type": "Feature", "geometry": {"type": "Point", "coordinates": [0.5750319, 47.7396281]}, "properties": {"amenity": "police", "building": "yes", "name": "Gendarmerie nationale", "official_name": "Brigade de gendarmerie de la Chartre-sur-le-Loir", "opening_hours": "Mo 14:00-18:00; Fr 14:00-18:00", "operator": "Gendarmerie nationale", "operator:wikidata": "Q1422336", "phone": "+33 2 43 44 40 18", "police:FR": "gendarmerie", "ref:FR:GendarmerieNationale": "1007657", "source": "cadastre-dgi-fr source : Direction Générale des Impôts - Cadastre. Mise à jour : 2014", "wikidata": "Q77864296"}}, {"type": "Feature", "geometry": {"type": "Point", "coordinates": [0.4163847, 47.6956294]}, "properties": {"amenity": "police", "building": "yes", "name": "Police Municipale", "ref:FR:RNB": "7Y1EPNGT6NBD", "source": "cadastre-dgi-fr source : Direction Générale des Finances Publiques - Cadastre. Mise à jour : 2013"}}, {"type": "Feature", "geometry": {"type": "Point", "coordinates": [0.4570414, 47.8611016]}, "properties": {"amenity": "police", "name": "Gendarmerie nationale", "official_name": "Brigade de gendarmerie du Grand-Lucé", "opening_hours": "Mo 14:00-18:00; Fr 14:00-18:00", "operator": "Gendarmerie nationale", "operator:wikidata": "Q1422336", "phone": "+33 2 43 40 90 06", "police:FR": "gendarmerie", "ref:FR:GendarmerieNationale": "1007658", "source": "data.gouv.fr:Ministère de l'Intérieur - 10/2018"}}, {"type": "Feature", "geometry": {"type": "Point", "coordinates": [0.4083764, 47.7018382]}, "properties": {"amenity": "police", "name": "Gendarmerie nationale", "official_name": "Brigade de gendarmerie de Luceau", "opening_hours": "Mo-Sa 08:00-12:00,14:00-18:00; Su 09:00-12:00,15:00-18:00; PH 09:00-12:00,15:00-18:00", "operator": "Gendarmerie nationale", "operator:wikidata": "Q1422336", "phone": "+33 2 43 44 00 02", "police:FR": "gendarmerie", "ref:FR:GendarmerieNationale": "1007656", "source": "data.gouv.fr:Ministère de l'Intérieur - 10/2018"}}]}