{"type": "FeatureCollection", "features": [{"type": "Feature", "geometry": {"type": "Point", "coordinates": [0.4650992, 47.8698024]}, "properties": {"amenity": "fire_station", "building": "yes", "email": "ci.legrandluce@sdis72.fr", "name": "Centre d'incendie et de secours du Grand-Lucé", "operator": "SDIS 72", "operator:wikidata": "Q88766528", "ref": "GRAND", "ref:FR:SDIS:CIE": "Montval-sur-Loir", "ref:FR:SDIS:GRPT": "EST", "source": "cadastre-dgi-fr source : Direction Générale des Impôts - Cadastre. Mise à jour : 2012", "wikidata": "Q104404248"}}, {"type": "Feature", "geometry": {"type": "Point", "coordinates": [0.5118869, 47.7136237]}, "properties": {"amenity": "fire_station", "building": "yes", "email": "ci.marcon@sdis72.fr", "name": "Centre d'incendie et de secours de Marçon", "operator": "SDIS 72", "operator:wikidata": "Q88766528", "ref": "MARCO", "ref:FR:SDIS:CIE": "Montval-sur-Loir", "ref:FR:SDIS:GRPT": "EST", "source": "cadastre-dgi-fr source : Direction Générale des Finances Publiques - Cadastre. Mise à jour : 2014", "wikidata": "Q104404261"}}, {"type": "Feature", "geometry": {"type": "Point", "coordinates": [0.4459431, 47.7527311]}, "properties": {"amenity": "fire_station", "building": "yes", "email": "ci.thoire.flee@sdis72.fr", "name": "Centre d'incendie et de secours de Thoiré-Flée", "operator": "SDIS 72", "operator:wikidata": "Q88766528", "ref": "THOIR", "ref:FR:SDIS:CIE": "Montval-sur-Loir", "ref:FR:SDIS:GRPT": "EST", "source": "cadastre-dgi-fr source : Direction Générale des Finances Publiques - Cadastre. Mise à jour : 2015", "wikidata": "Q104404299"}}, {"type": "Feature", "geometry": {"type": "Point", "coordinates": [0.5605295, 47.8150265]}, "properties": {"amenity": "fire_station", "building": "yes", "email": "ci.courdemanche@sdis72.fr", "name": "Centre d'incendie et de secours de Courdemanche", "operator": "SDIS 72", "operator:wikidata": "Q88766528", "ref": "COURD", "ref:FR:SDIS:CIE": "Montval-sur-Loir", "ref:FR:SDIS:GRPT": "EST", "source": "cadastre-dgi-fr source : Direction Générale des Finances Publiques - Cadastre. Mise à jour : 2015", "wikidata": "Q104404234"}}, {"type": "Feature", "geometry": {"type": "Point", "coordinates": [0.4752943, 47.6644036]}, "properties": {"amenity": "fire_station", "building": "yes", "email": "ci.dissaysouscourcillon@sdis72.fr", "name": "Centre d'incendie et de secours de Dissay-sous-Courcillon", "operator": "SDIS 72", "operator:wikidata": "Q88766528", "ref": "DISSA", "ref:FR:SDIS:CIE": "Montval-sur-Loir", "ref:FR:SDIS:GRPT": "EST", "source": "cadastre-dgi-fr source : Direction Générale des Finances Publiques - Cadastre. Mise à jour : 2015", "wikidata": "Q104404235"}}, {"type": "Feature", "geometry": {"type": "Point", "coordinates": [0.4348866, 47.8358594]}, "properties": {"amenity": "fire_station", "email": "ci.pruilleleguille@sdis72.fr", "name": "Centre d'incendie et de secours de Pruillé-l'Éguillé", "operator": "SDIS 72", "operator:wikidata": "Q88766528", "ref": "PRUIL", "ref:FR:SDIS:CIE": "Montval-sur-Loir", "ref:FR:SDIS:GRPT": "EST", "wikidata": "Q104404278"}}, {"type": "Feature", "geometry": {"type": "Point", "coordinates": [0.4073393, 47.7015056]}, "properties": {"amenity": "fire_station", "email": "ci.chateauduloir@sdis72.fr", "fire_station:type:FR": "CS", "name": "Centre d'incendie et de secours de Montval-sur-Loir", "operator": "SDIS 72", "operator:wikidata": "Q88766528", "ref": "CHATE", "ref:FR:SDIS:CIE": "Montval-sur-Loir", "ref:FR:SDIS:GRPT": "EST", "ref:FR:SDIS:PC_CIE": "yes", "wikidata": "Q104404268"}}, {"type": "Feature", "geometry": {"type": "Point", "coordinates": [0.5185073, 47.7402855]}, "properties": {"amenity": "fire_station", "email": "ci.chahaignes@sdis72.fr", "name": "Centre d'incendie et de secours de Chahaignes", "operator": "SDIS 72", "operator:wikidata": "Q88766528", "ref": "CHAHA", "ref:FR:SDIS:CIE": "Montval-sur-Loir", "ref:FR:SDIS:GRPT": "EST", "wikidata": "Q104404224"}}, {"type": "Feature", "geometry": {"type": "Point", "coordinates": [0.5762175, 47.7383036]}, "properties": {"addr:street": "Route du Mans", "amenity": "fire_station", "email": "ci.lachartresurleloir@sdis72.fr", "name": "Centre d'incendie et de secours de la Chartre Ruillé", "operator": "SDIS 72", "operator:wikidata": "Q88766528", "ref": "CHART", "ref:FR:SDIS:CIE": "Montval-sur-Loir", "ref:FR:SDIS:GRPT": "EST", "source": "IGN - 2023-09-15", "wikidata": "Q124321849"}}]}