{
"type": "FeatureCollection",
"name": "banques",
"crs": { "type": "name", "properties": { "name": "urn:ogc:def:crs:OGC:1.3:CRS84" } },
"features": [
{ "type": "Feature", "properties": { "X": 0.4700723, "Y": 47.864624399969699, "osm_id": "node/11949533055", "type": "bank", "name": "Crédit Mutuel", "brand": "Crédit Mutuel", "operator": null, "network": null, "wheelchair": null, "opening_hours": null, "bank_id_code": null, "has_atm": null, "brand_wikidata": "Q642627", "com_insee": 72143, "com_nom": "Le Grand-Lucé" }, "geometry": { "type": "Point", "coordinates": [ 0.4700723, 47.864624399969699 ] } },
{ "type": "Feature", "properties": { "X": 0.4183785, "Y": 47.694625800009298, "osm_id": "node/12995490302", "type": "atm", "name": null, "brand": null, "operator": "Crédit Agricole", "network": null, "wheelchair": null, "opening_hours": null, "bank_id_code": null, "has_atm": true, "brand_wikidata": null, "com_insee": 72071, "com_nom": "Montval-sur-Loir" }, "geometry": { "type": "Point", "coordinates": [ 0.4183785, 47.694625800009298 ] } },
{ "type": "Feature", "properties": { "X": 0.4690171, "Y": 47.865065499969603, "osm_id": "node/13443754837", "type": "bank", "name": "Caisse d'Épargne", "brand": "Caisse d'Épargne", "operator": null, "network": null, "wheelchair": null, "opening_hours": null, "bank_id_code": null, "has_atm": null, "brand_wikidata": "Q1547738", "com_insee": 72143, "com_nom": "Le Grand-Lucé" }, "geometry": { "type": "Point", "coordinates": [ 0.4690171, 47.865065499969603 ] } },
{ "type": "Feature", "properties": { "X": 0.4686114, "Y": 47.865102799969598, "osm_id": "node/13443754838", "type": "bank", "name": "Crédit Agricole", "brand": "Crédit Agricole", "operator": null, "network": null, "wheelchair": null, "opening_hours": null, "bank_id_code": null, "has_atm": null, "brand_wikidata": "Q590952", "com_insee": 72143, "com_nom": "Le Grand-Lucé" }, "geometry": { "type": "Point", "coordinates": [ 0.4686114, 47.865102799969598 ] } },
{ "type": "Feature", "properties": { "X": 0.4318766, "Y": 47.686171900011303, "osm_id": "node/6332719679", "type": "atm", "name": null, "brand": null, "operator": null, "network": null, "wheelchair": null, "opening_hours": null, "bank_id_code": null, "has_atm": true, "brand_wikidata": null, "com_insee": 72071, "com_nom": "Montval-sur-Loir" }, "geometry": { "type": "Point", "coordinates": [ 0.4318766, 47.686171900011303 ] } },
{ "type": "Feature", "properties": { "X": 0.5808939, "Y": 47.739322599998999, "osm_id": "node/6332759605", "type": "atm", "name": null, "brand": null, "operator": null, "network": null, "wheelchair": null, "opening_hours": null, "bank_id_code": null, "has_atm": true, "brand_wikidata": null, "com_insee": 72068, "com_nom": "La Chartre-sur-le-Loir" }, "geometry": { "type": "Point", "coordinates": [ 0.5808939, 47.739322599998999 ] } },
{ "type": "Feature", "properties": { "X": 0.4178774, "Y": 47.695675700009097, "osm_id": "node/7840370513", "type": "bank", "name": "Banque Populaire", "brand": "Banque Populaire", "operator": null, "network": null, "wheelchair": null, "opening_hours": null, "bank_id_code": null, "has_atm": null, "brand_wikidata": "Q846647", "com_insee": 72071, "com_nom": "Montval-sur-Loir" }, "geometry": { "type": "Point", "coordinates": [ 0.4178774, 47.695675700009097 ] } },
{ "type": "Feature", "properties": { "X": 0.4188665, "Y": 47.695013200009299, "osm_id": "node/7840370515", "type": "bank", "name": "CIC", "brand": "CIC", "operator": null, "network": null, "wheelchair": null, "opening_hours": "Tu-We 08:30-12:30,13:45-18:00; Th 08:30-12:30,15:00-18:00; Fr 08:30-12:30,13:45-18:00; Sa 08:30-12:30", "bank_id_code": null, "has_atm": null, "brand_wikidata": "Q746525", "com_insee": 72071, "com_nom": "Montval-sur-Loir" }, "geometry": { "type": "Point", "coordinates": [ 0.4188665, 47.695013200009299 ] } },
{ "type": "Feature", "properties": { "X": 0.4185902, "Y": 47.694755400009299, "osm_id": "node/7840370516", "type": "bank", "name": "Crédit Mutuel", "brand": "Crédit Mutuel", "operator": null, "network": null, "wheelchair": null, "opening_hours": null, "bank_id_code": null, "has_atm": null, "brand_wikidata": "Q642627", "com_insee": 72071, "com_nom": "Montval-sur-Loir" }, "geometry": { "type": "Point", "coordinates": [ 0.4185902, 47.694755400009299 ] } },
{ "type": "Feature", "properties": { "X": 0.41716202404522701, "Y": 47.694010672770801, "osm_id": "way/240185216", "type": "bank", "name": "Caisse d'Épargne", "brand": "Caisse d'Épargne", "operator": null, "network": null, "wheelchair": null, "opening_hours": null, "bank_id_code": null, "has_atm": null, "brand_wikidata": "Q1547738", "com_insee": 72071, "com_nom": "Montval-sur-Loir" }, "geometry": { "type": "Point", "coordinates": [ 0.417162024045227, 47.694010672770801 ] } },
{ "type": "Feature", "properties": { "X": 0.41848053109378502, "Y": 47.694524973675499, "osm_id": "way/240489001", "type": "bank", "name": "Crédit Agricole", "brand": "Crédit Agricole", "operator": null, "network": null, "wheelchair": null, "opening_hours": "Tu-Fr 09:30-12:30,15:00-18:00; Sa 09:00-13:00", "bank_id_code": null, "has_atm": null, "brand_wikidata": "Q590952", "com_insee": 72071, "com_nom": "Montval-sur-Loir" }, "geometry": { "type": "Point", "coordinates": [ 0.418480531093785, 47.694524973675499 ] } },
{ "type": "Feature", "properties": { "X": 0.417623851535248, "Y": 47.693962718277803, "osm_id": "way/240490452", "type": "bank", "name": "LCL", "brand": "LCL", "operator": null, "network": null, "wheelchair": null, "opening_hours": null, "bank_id_code": null, "has_atm": null, "brand_wikidata": "Q779722", "com_insee": 72071, "com_nom": "Montval-sur-Loir" }, "geometry": { "type": "Point", "coordinates": [ 0.417623851535248, 47.693962718277803 ] } },
{ "type": "Feature", "properties": { "X": 0.57348345093574604, "Y": 47.728782532822102, "osm_id": "way/74528501", "type": "bank", "name": "Caisse d'Épargne", "brand": "Caisse d'Épargne", "operator": null, "network": null, "wheelchair": null, "opening_hours": null, "bank_id_code": null, "has_atm": null, "brand_wikidata": "Q1547738", "com_insee": 72068, "com_nom": "La Chartre-sur-le-Loir" }, "geometry": { "type": "Point", "coordinates": [ 0.573483450935746, 47.728782532822102 ] } },
{ "type": "Feature", "properties": { "X": 0.57573991543349601, "Y": 47.7285879194743, "osm_id": "way/74529255", "type": "bank", "name": "Crédit Agricole", "brand": "Crédit Agricole", "operator": null, "network": null, "wheelchair": null, "opening_hours": null, "bank_id_code": null, "has_atm": null, "brand_wikidata": "Q590952", "com_insee": 72068, "com_nom": "La Chartre-sur-le-Loir" }, "geometry": { "type": "Point", "coordinates": [ 0.575739915433496, 47.7285879194743 ] } },
{ "type": "Feature", "properties": { "X": 0.57473670699127499, "Y": 47.727791266404402, "osm_id": "way/74529466", "type": "bank", "name": "BNP Paribas", "brand": "BNP Paribas", "operator": null, "network": null, "wheelchair": null, "opening_hours": null, "bank_id_code": null, "has_atm": null, "brand_wikidata": "Q499707", "com_insee": 72068, "com_nom": "La Chartre-sur-le-Loir" }, "geometry": { "type": "Point", "coordinates": [ 0.574736706991275, 47.727791266404402 ] } },
{ "type": "Feature", "properties": { "X": 0.57362783349140201, "Y": 47.729185898544799, "osm_id": "way/74530560", "type": "bank", "name": "Crédit Mutuel", "brand": "Crédit Mutuel", "operator": null, "network": null, "wheelchair": null, "opening_hours": null, "bank_id_code": null, "has_atm": null, "brand_wikidata": "Q642627", "com_insee": 72068, "com_nom": "La Chartre-sur-le-Loir" }, "geometry": { "type": "Point", "coordinates": [ 0.573627833491402, 47.729185898544799 ] } }
]
}
