{"type": "FeatureCollection", "features": [{"type": "Feature", "geometry": {"type": "Point", "coordinates": [0.5758208, 47.7275942]}, "properties": {"building": "yes", "information": "office", "source": "extraction vectorielle v1 cadastre-dgi-fr source : Direction Générale des Impôts - Cadas. Mise à jour : 2010", "tourism": "information"}}, {"type": "Feature", "geometry": {"type": "Point", "coordinates": [0.4170285, 47.6945114]}, "properties": {"building": "yes", "information": "office", "ref:FR:RNB": "W52TDZXYX8FP", "source": "cadastre-dgi-fr source : Direction Générale des Finances Publiques - Cadastre. Mise à jour : 2013", "tourism": "information"}}, {"type": "Feature", "geometry": {"type": "Point", "coordinates": [0.4171593, 47.6941462]}, "properties": {"building": "yes", "information": "office", "tourism": "information"}}, {"type": "Feature", "geometry": {"type": "Point", "coordinates": [0.4684462, 47.8654547]}, "properties": {"information": "office", "name": "Office de tourisme de Bercé", "tourism": "information"}}]}