{"type": "FeatureCollection", "features": [{"type": "Feature", "geometry": {"type": "Point", "coordinates": [0.4943073, 47.7879863]}, "properties": {"name": "Futaie des Clos", "tourism": "attraction"}}, {"type": "Feature", "geometry": {"type": "Point", "coordinates": [0.370767, 47.7941801]}, "properties": {"denotation": "natural_monument", "height": "48", "leaf_type": "broadleaved", "name": "Chêne Émery", "natural": "tree", "species": "Quercus petraea"}}, {"type": "Feature", "geometry": {"type": "Point", "coordinates": [0.4567423, 47.7973311]}, "properties": {"name": "Sources de l'Hermitière", "natural": "spring", "tourism": "attraction"}}, {"type": "Feature", "geometry": {"type": "Point", "coordinates": [0.3718387, 47.7945305]}, "properties": {"amenity": "fountain", "natural": "spring"}}, {"type": "Feature", "geometry": {"type": "Point", "coordinates": [0.3992728, 47.8051192]}, "properties": {"description": "natural_monument", "name": "Chêne Lorne", "natural": "tree"}}, {"type": "Feature", "geometry": {"type": "Point", "coordinates": [0.3723552, 47.7948323]}, "properties": {"name": "Fontaine de la Coudre", "tourism": "attraction"}}, {"type": "Feature", "geometry": {"type": "Point", "coordinates": [0.3973224, 47.8238007]}, "properties": {"natural": "spring", "source": "cadastre-dgi-fr source : Direction Générale des Impôts - Cadastre. Mise à jour : 2013"}}, {"type": "Feature", "geometry": {"type": "Point", "coordinates": [0.3979804, 47.8337284]}, "properties": {"natural": "spring", "source": "cadastre-dgi-fr source : Direction Générale des Impôts - Cadastre. Mise à jour : 2013"}}, {"type": "Feature", "geometry": {"type": "Point", "coordinates": [0.5373073, 47.8630673]}, "properties": {"natural": "spring", "source": "cadastre-dgi-fr source : Direction Générale des Impôts - Cadastre. Mise à jour : 2014"}}, {"type": "Feature", "geometry": {"type": "Point", "coordinates": [0.4576268, 47.7419731]}, "properties": {"natural": "spring", "source": "cadastre-dgi-fr source : Direction Générale des Impôts - Cadastre. Mise à jour : 2014"}}, {"type": "Feature", "geometry": {"type": "Point", "coordinates": [0.4565008, 47.7481972]}, "properties": {"natural": "spring", "source": "cadastre-dgi-fr source : Direction Générale des Impôts - Cadastre. Mise à jour : 2014"}}, {"type": "Feature", "geometry": {"type": "Point", "coordinates": [0.349464, 47.7484467]}, "properties": {"natural": "spring", "source": "cadastre-dgi-fr source : Direction Générale des Impôts - Cadastre. Mise à jour : 2014"}}, {"type": "Feature", "geometry": {"type": "Point", "coordinates": [0.3912894, 47.748009]}, "properties": {"natural": "spring", "source": "cadastre-dgi-fr source : Direction Générale des Impôts - Cadastre. Mise à jour : 2014"}}, {"type": "Feature", "geometry": {"type": "Point", "coordinates": [0.5919045, 47.8100073]}, "properties": {"natural": "spring"}}, {"type": "Feature", "geometry": {"type": "Point", "coordinates": [0.4395671, 47.8171401]}, "properties": {"genus": "Quercus", "genus:fr": "Chêne", "leaf_type": "broadleaved", "name": "Le Chêne Sermaise", "natural": "tree", "tourism": "attraction"}}, {"type": "Feature", "geometry": {"type": "Point", "coordinates": [0.4933963, 47.7875305]}, "properties": {"name": "Chêne Boppe", "natural": "tree_stump", "tourism": "attraction", "wikimedia_commons": "File:Forêt_de_Bercé_souche-du-chene-Boppe.JPG"}}]}