{"type": "FeatureCollection", "features": [{"type": "Feature", "geometry": {"type": "MultiLineString", "coordinates": [[[0.3968769, 47.7970493], [0.3957267, 47.7999316], [0.3956851, 47.8000689], [0.3951142, 47.8014864], [0.3948383, 47.8021716], [0.3947023, 47.8026058], [0.39441, 47.8035282], [0.395089, 47.8036548], [0.395472, 47.8037261], [0.3965407, 47.8039253], [0.3975023, 47.8041046], [0.3979224, 47.8041829], [0.3983469, 47.804262], [0.3999092, 47.8045532], [0.400368, 47.8046387], [0.4010329, 47.8047527], [0.4011819, 47.8047808], [0.4013022, 47.8046076], [0.4016045, 47.8041366], [0.4018658, 47.803814], [0.4021975, 47.8032794], [0.4027661, 47.8025047], [0.4031194, 47.8019716], [0.4031953, 47.8018057], [0.403206, 47.8016039], [0.4033669, 47.8014706], [0.4034884, 47.8013574], [0.4035279, 47.8012363], [0.4035869, 47.8010634], [0.4036995, 47.8009229], [0.4038122, 47.800685], [0.4039678, 47.8004076], [0.4042023, 47.8002268], [0.4045761, 47.8001398], [0.4048324, 47.8000758], [0.4052257, 47.7999228], [0.4053946, 47.7998774], [0.4053722, 47.7997482], [0.4052552, 47.7995788], [0.4049924, 47.7994455], [0.4048144, 47.7993881], [0.4044532, 47.7993067], [0.4040375, 47.7991103], [0.4037371, 47.7989122], [0.4034206, 47.7987032], [0.4031953, 47.7985626], [0.4028895, 47.7984437], [0.4026749, 47.798368], [0.4022672, 47.798123], [0.4018756, 47.7978708], [0.4016396, 47.797687], [0.4015162, 47.797514], [0.4014143, 47.7973554], [0.4012802, 47.7972762], [0.4010549, 47.7971897], [0.4008296, 47.79715], [0.4006096, 47.7971428], [0.4004433, 47.7971861], [0.4002556, 47.7972654], [0.4000786, 47.797341], [0.3998228, 47.7974387], [0.399609, 47.7975978], [0.3994606, 47.7977022], [0.3989418, 47.7979515], [0.3987988, 47.7980409], [0.3986885, 47.7980623], [0.398598, 47.7980437], [0.3984209, 47.7979356], [0.3981389, 47.7977328], [0.3978173, 47.797587], [0.3975734, 47.7974852], [0.39723, 47.7973122], [0.3970155, 47.7971428], [0.3968769, 47.7970493], [0.3967741, 47.7969086], [0.3967097, 47.796678], [0.3966614, 47.7965086], [0.3965166, 47.796332], [0.3964307, 47.796141], [0.3962966, 47.7959969], [0.3960177, 47.7957266], [0.395669, 47.7953698], [0.3955724, 47.7951832], [0.3956298, 47.7950369], [0.395719, 47.7947108], [0.3958897, 47.7944195], [0.3959882, 47.7942833], [0.3963224, 47.7938018], [0.3965919, 47.7933308], [0.3967805, 47.7933535], [0.3968952, 47.7933968], [0.3969913, 47.793319], [0.3971995, 47.7932269], [0.3973099, 47.7931567], [0.3980686, 47.7925015], [0.398177, 47.792406], [0.3982953, 47.792343], [0.3983842, 47.7923231], [0.3984734, 47.7923224], [0.3985958, 47.7923452], [0.3987198, 47.7923837], [0.3989545, 47.7924951], [0.3992522, 47.7926665], [0.3994368, 47.7927805], [0.3996926, 47.7928491], [0.4001641, 47.7929187], [0.4002818, 47.7929048], [0.4004002, 47.7928755], [0.4009844, 47.7926199], [0.401239, 47.792512], [0.4013209, 47.7924975], [0.4014129, 47.7924961], [0.4015515, 47.7925174], [0.401763, 47.7925648], [0.401986, 47.7926443], [0.4021759, 47.7927126], [0.4023014, 47.7927329], [0.4024834, 47.7927056], [0.4030055, 47.7925265], [0.4031863, 47.7924349], [0.4033306, 47.7923341], [0.4038053, 47.7919458], [0.4040578, 47.7917498], [0.4042096, 47.7916667], [0.4044565, 47.7916116], [0.4050725, 47.7915698], [0.4060436, 47.79147], [0.4066889, 47.7914264], [0.4071154, 47.7914414], [0.4072949, 47.7914214], [0.4074113, 47.7913915], [0.4076421, 47.7912465], [0.407846, 47.7910879], [0.4081142, 47.7908717], [0.4083503, 47.7908357], [0.4089348, 47.7909733], [0.40904, 47.7909871], [0.4093003, 47.7910211], [0.4097092, 47.7910272], [0.4100228, 47.7910296], [0.4103021, 47.7910397], [0.4109043, 47.7910537], [0.4110437, 47.7910593], [0.4110905, 47.7909791], [0.4112594, 47.7907468], [0.4113042, 47.7907001], [0.4113585, 47.7906814], [0.4116325, 47.7907273], [0.4116901, 47.7907136], [0.4117144, 47.7906775], [0.4117503, 47.7906319], [0.4117861, 47.7906061], [0.4118404, 47.7906209], [0.4120897, 47.7906153], [0.4121917, 47.7906179], [0.4125405, 47.7906221], [0.4127633, 47.7906183], [0.4128483, 47.7906165], [0.4129529, 47.790615], [0.413013, 47.7906263], [0.4131375, 47.7906628]], [[0.412643, 47.7903982], [0.4126878, 47.7904272], [0.4127747, 47.7904941], [0.4128209, 47.79054], [0.41284, 47.79058], [0.4128483, 47.7906165]], [[0.3999092, 47.8045532], [0.3995432, 47.8046865], [0.3992948, 47.8048523], [0.3992288, 47.8049676]]]}, "properties": {"name": "Circuit de Carnuta à Bercé", "network": "lwn", "route": "hiking", "source": "GPS", "type": "route", "id": "relation/2216933", "distance": 4.77, "dureeEstim": 1.19, "denivelePo": null, "deniveleNe": null, "altiMax": null, "altiMin": null}}, {"type": "Feature", "geometry": {"type": "MultiLineString", "coordinates": [[[0.3725858, 47.7943239], [0.3725432, 47.794412], [0.3725419, 47.7945013], [0.3725446, 47.7945743], [0.3725794, 47.7946968], [0.3725888, 47.7947851], [0.372613, 47.7948698], [0.3726137, 47.7951583], [0.3725326, 47.7952987], [0.3724708, 47.7954953], [0.3724708, 47.7955459], [0.3724872, 47.7955894], [0.3725321, 47.7958393], [0.3725113, 47.7960476], [0.3724742, 47.7961907], [0.3723912, 47.7963118], [0.3723207, 47.7964846], [0.3723169, 47.7967331], [0.3722878, 47.7968473], [0.372279, 47.7969387], [0.3722805, 47.7970506], [0.3722951, 47.7971662], [0.3723179, 47.7972266], [0.3723287, 47.7972977], [0.3723367, 47.7973869], [0.372326, 47.7974948], [0.3723193, 47.7975244], [0.3724905, 47.797525], [0.3725982, 47.7975338], [0.372798, 47.7975554], [0.3729791, 47.7975455], [0.3731611, 47.7975553], [0.3733199, 47.7976001], [0.373462, 47.7977335], [0.3735491, 47.7977806], [0.3738359, 47.7978273], [0.3740631, 47.7978442], [0.3741855, 47.7978537], [0.3743174, 47.7978587], [0.3745442, 47.797859], [0.37487, 47.7979698], [0.3750216, 47.7979617], [0.3751678, 47.7979284], [0.3754211, 47.7978987], [0.3755419, 47.7978716], [0.3757485, 47.7978545], [0.3760381, 47.7976608], [0.3762772, 47.797472], [0.3763212, 47.7973776], [0.3763238, 47.7972437], [0.3763949, 47.7971743], [0.3764002, 47.7971094], [0.3764727, 47.7969842], [0.3764955, 47.7968941], [0.3764633, 47.7967707], [0.3765303, 47.7967139], [0.3765572, 47.7966059], [0.3766524, 47.7963819], [0.3766624, 47.796364], [0.3767, 47.796313], [0.3767986, 47.7961594], [0.3768039, 47.7960842], [0.3768971, 47.7958878], [0.3769196, 47.7957988], [0.376935, 47.7957314], [0.3768341, 47.7956459], [0.3768944, 47.7956013], [0.3769977, 47.7955932], [0.3770279, 47.7955193], [0.3770869, 47.795431], [0.3770976, 47.7953455], [0.3771533, 47.7952819], [0.3771633, 47.7952527], [0.3771881, 47.7951837], [0.377215, 47.795109], [0.3772733, 47.7949945], [0.3773316, 47.7948792], [0.3773477, 47.7948216], [0.3773611, 47.7947558], [0.377392, 47.7946887], [0.3774133, 47.7946085], [0.3773665, 47.7945094], [0.3775087, 47.7944125], [0.3775201, 47.7943954], [0.3775677, 47.7943008], [0.3776166, 47.7942188], [0.3776555, 47.7941193], [0.3776689, 47.7940188], [0.3776971, 47.7939429], [0.37774, 47.7938652], [0.3777977, 47.7937625], [0.377862, 47.7935895], [0.3779197, 47.7933652], [0.3780552, 47.7933923], [0.3781987, 47.7933958], [0.3782295, 47.7933471], [0.378149, 47.7932643], [0.3781316, 47.7931715], [0.3780586, 47.7930372], [0.3781142, 47.7928913], [0.3780981, 47.7928805], [0.3780176, 47.7928741], [0.377799, 47.7928904], [0.3776944, 47.792885], [0.3775348, 47.7928841], [0.3774476, 47.7928778], [0.3773645, 47.7928669], [0.3772049, 47.792839], [0.3769903, 47.7928066], [0.3767878, 47.7927772], [0.376596, 47.7927687], [0.376352, 47.7927525], [0.3761951, 47.7927255], [0.3759322, 47.7926849], [0.3757565, 47.7926471], [0.3753998, 47.7925372], [0.3752657, 47.7924876], [0.3751181, 47.7924439], [0.3747829, 47.7923588], [0.3745763, 47.7923056], [0.3745138, 47.7922957], [0.3744798, 47.7922903], [0.3744248, 47.7922894], [0.374347, 47.7923011], [0.3742049, 47.7923092], [0.3740439, 47.7923083], [0.3737288, 47.7923309], [0.3735249, 47.7923363], [0.3733117, 47.7923399], [0.3731695, 47.7923345], [0.3730381, 47.7923146], [0.3727766, 47.792257], [0.372503, 47.7921957], [0.3723689, 47.7921579], [0.3722777, 47.7921444], [0.3722857, 47.7921759], [0.3722898, 47.7922236], [0.372275, 47.7923579], [0.3722482, 47.7924318], [0.3722415, 47.792502], [0.3722066, 47.7925921], [0.3721557, 47.7927192], [0.3721449, 47.7927804], [0.3721369, 47.7928516], [0.3721261, 47.7929426], [0.3721476, 47.7930345], [0.3721758, 47.7930841], [0.372216, 47.7931507], [0.3722401, 47.7932048], [0.3722831, 47.7932652], [0.372326, 47.7933237], [0.3723984, 47.7933949], [0.3724681, 47.7934625], [0.372554, 47.7935156], [0.3726103, 47.7935643], [0.3726317, 47.7936256], [0.3726358, 47.7936715], [0.3726143, 47.7937454], [0.3726116, 47.7937769], [0.3726237, 47.7938634], [0.3726478, 47.793958], [0.3726658, 47.7940682], [0.3726322, 47.7942286], [0.3725858, 47.7943239]]]}, "properties": {"name": "Sentier de l'École de la Forêt", "network": "lwn", "route": "hiking", "source": "survey", "type": "route", "id": "relation/2218581", "distance": 1.97, "dureeEstim": 0.49, "denivelePo": null, "deniveleNe": null, "altiMax": null, "altiMin": null}}, {"type": "Feature", "geometry": {"type": "MultiLineString", "coordinates": [[[0.3725858, 47.7943239], [0.3725432, 47.794412], [0.3725419, 47.7945013], [0.3725446, 47.7945743], [0.3725794, 47.7946968], [0.3725888, 47.7947851], [0.372613, 47.7948698], [0.3726137, 47.7951583], [0.3725326, 47.7952987], [0.3724708, 47.7954953], [0.3724708, 47.7955459], [0.3724872, 47.7955894], [0.3725321, 47.7958393], [0.3725113, 47.7960476], [0.3724742, 47.7961907], [0.3723912, 47.7963118], [0.3723207, 47.7964846], [0.3723169, 47.7967331], [0.3722878, 47.7968473], [0.372279, 47.7969387], [0.3722805, 47.7970506], [0.3722951, 47.7971662], [0.3723179, 47.7972266], [0.3723287, 47.7972977], [0.3723367, 47.7973869], [0.372326, 47.7974948], [0.3723193, 47.7975244], [0.3723273, 47.7976518], [0.3722951, 47.7978536], [0.3723166, 47.7980085], [0.372338, 47.7982788], [0.3723756, 47.7984914], [0.3724936, 47.7986536], [0.3727457, 47.7988842], [0.3728856, 47.7991575], [0.3729099, 47.7993014], [0.3729193, 47.799357], [0.3733358, 47.7996661], [0.3737328, 47.8000048], [0.374339, 47.8003328], [0.3748164, 47.8006607], [0.3753494, 47.8010895], [0.3757405, 47.8012875], [0.3764155, 47.8018137], [0.3766081, 47.8020227], [0.3766242, 47.8021164], [0.3764311, 47.8025776], [0.3762031, 47.8032049], [0.3756815, 47.8044051]]]}, "properties": {"name": "J5", "network": "lwn", "ref": "J5", "route": "hiking", "type": "route", "id": "J5", "distance": 1.26, "dureeEstim": 0.32, "denivelePo": null, "deniveleNe": null, "altiMax": null, "altiMin": null}}, {"type": "Feature", "geometry": {"type": "MultiLineString", "coordinates": [[[0.6854682, 47.773961], [0.685434, 47.7739525], [0.6850853, 47.7738655], [0.6846383, 47.7737324], [0.6844471, 47.7736661], [0.6840544, 47.7735093], [0.6839164, 47.7734732], [0.6834973, 47.773398], [0.6833313, 47.7733723], [0.6825872, 47.7733011], [0.6824071, 47.7732861], [0.6818608, 47.7732407], [0.6816702, 47.7731947], [0.6810394, 47.7729186], [0.6808673, 47.7728416], [0.6804855, 47.7726705], [0.6800395, 47.7725701], [0.6790873, 47.7723788], [0.6781935, 47.7722202], [0.6775706, 47.772176], [0.6774472, 47.7721549], [0.6777083, 47.7722755], [0.6784806, 47.7724516], [0.6785608, 47.7724815], [0.6785934, 47.7725416], [0.6785671, 47.7725871], [0.6784684, 47.7730205], [0.6783348, 47.7735927], [0.6781791, 47.7738228], [0.6781107, 47.7739715], [0.6780027, 47.7741699], [0.6776556, 47.7745387], [0.6767756, 47.7753886], [0.6767161, 47.7754838], [0.6766826, 47.7756421], [0.6768224, 47.7764086], [0.6769368, 47.7765728], [0.6770388, 47.7766478], [0.6773749, 47.7769191], [0.6776331, 47.7772081], [0.6779146, 47.7774694], [0.6781052, 47.7775936], [0.6781898, 47.777625], [0.6782849, 47.7776166], [0.6781182, 47.778762], [0.6782295, 47.7789656], [0.6767838, 47.7830318], [0.6754572, 47.7835596], [0.6741966, 47.7841328], [0.6732812, 47.7844714], [0.6715308, 47.7849533], [0.6695437, 47.7854268], [0.6689405, 47.7855343], [0.6687894, 47.7855148], [0.6686583, 47.7854759], [0.668633, 47.7854164], [0.6683863, 47.7848364], [0.6673878, 47.783346], [0.6670183, 47.7824327], [0.6669493, 47.7823106], [0.6666528, 47.7817206], [0.6665684, 47.7814869], [0.6664946, 47.7811978], [0.666407, 47.7808545], [0.6664025, 47.7807356], [0.6665244, 47.7790191], [0.6664888, 47.7787039], [0.6661843, 47.7781334], [0.6661241, 47.7780517], [0.6659073, 47.7777575], [0.6656465, 47.7774768], [0.6654304, 47.7772794], [0.6646123, 47.776687], [0.6639786, 47.7761635], [0.6635521, 47.7756627], [0.663229, 47.774689], [0.6632039, 47.7741781], [0.6631419, 47.7725332], [0.6630503, 47.7723442], [0.6620995, 47.7712879], [0.6598196, 47.7696648], [0.6597131, 47.7695304], [0.6596686, 47.7694512], [0.6596625, 47.7694404], [0.6596939, 47.7692438], [0.659787, 47.7691047], [0.6602524, 47.768644], [0.6603361, 47.7685004], [0.6603849, 47.7683453], [0.6603623, 47.7681027], [0.6603155, 47.7679301], [0.6602662, 47.7678125], [0.6601461, 47.7676832], [0.6599638, 47.7675928], [0.6576783, 47.7668231], [0.6574073, 47.7666989], [0.6572282, 47.7665329], [0.657184, 47.7664193], [0.6571681, 47.7662793], [0.6571869, 47.7661385], [0.6573098, 47.7657979], [0.6575449, 47.7653234], [0.6576689, 47.7650367], [0.6577339, 47.7648945], [0.6577559, 47.7647343], [0.6577541, 47.7643512], [0.6577739, 47.7642599], [0.6580302, 47.7637811], [0.6580403, 47.7637127], [0.6575993, 47.7635354], [0.6570352, 47.7633146], [0.6567758, 47.7631478], [0.6566828, 47.7630353], [0.6566457, 47.7628958], [0.6565852, 47.7625617], [0.6565261, 47.7624456], [0.6563581, 47.7623053], [0.6563845, 47.7622562], [0.6564032, 47.7621717], [0.6564219, 47.7621288], [0.6566417, 47.7621054], [0.6566352, 47.7620345], [0.6566423, 47.7619927], [0.6566953, 47.7619813], [0.6568055, 47.7619681], [0.6568308, 47.7619487], [0.6568586, 47.7619073], [0.656882, 47.7617655], [0.6569769, 47.7616346], [0.6573305, 47.7613963], [0.6574027, 47.7613653], [0.6574361, 47.7612899], [0.657478, 47.7611851], [0.6574717, 47.761147], [0.6574321, 47.7611218], [0.6561943, 47.760912], [0.6555942, 47.7608022], [0.6551078, 47.7606765], [0.6543467, 47.7604223], [0.6539445, 47.7602404], [0.6538544, 47.7602026], [0.6537618, 47.7601604], [0.6519351, 47.7591615], [0.6518012, 47.7591105], [0.6511252, 47.7587824], [0.6506371, 47.7585479], [0.6494596, 47.7579637], [0.648848, 47.7576356], [0.6476893, 47.7570423], [0.647574, 47.756972], [0.6474533, 47.7568836], [0.647346, 47.7568331], [0.6460827, 47.7563643], [0.6456857, 47.7562146], [0.6453317, 47.7560938], [0.64516, 47.7560235], [0.6450259, 47.7559568], [0.6447979, 47.7558937], [0.6446638, 47.7558414], [0.6444224, 47.7557458], [0.6436633, 47.7555366], [0.6413835, 47.7549524], [0.641016, 47.7548875], [0.640721, 47.754864], [0.6405278, 47.754873], [0.6403964, 47.7548947], [0.6402596, 47.7549416], [0.640205, 47.7549752], [0.6401201, 47.7549307], [0.6397446, 47.7548658], [0.6380548, 47.7545647], [0.6364857, 47.7543158], [0.6358554, 47.7542004], [0.6352653, 47.7540868], [0.6346484, 47.753948], [0.6331384, 47.7536053], [0.6308182, 47.7530986], [0.6277605, 47.7524115], [0.6270122, 47.7522456], [0.6267279, 47.7521681], [0.6265482, 47.752114], [0.6264516, 47.7520851], [0.6263574, 47.7520979], [0.6262381, 47.7520267], [0.6256012, 47.7517244], [0.6253962, 47.7516151], [0.6249592, 47.7514037], [0.6247151, 47.7512875], [0.6238743, 47.7509141], [0.6234409, 47.7507412], [0.623286, 47.7506827], [0.623162, 47.7506433], [0.6230772, 47.7506248], [0.6229497, 47.7506017], [0.6228685, 47.750592], [0.6227953, 47.7505877], [0.6227026, 47.7505863], [0.622629, 47.7505906], [0.6224353, 47.7506137], [0.6222899, 47.750631], [0.6221448, 47.7506508], [0.6220066, 47.7506696], [0.6219423, 47.7506776], [0.6218803, 47.750683], [0.6218058, 47.7506817], [0.6214492, 47.7506519], [0.6213891, 47.7506442], [0.6212058, 47.750605], [0.6210554, 47.7508988], [0.6210152, 47.7509784], [0.6209993, 47.7510098], [0.6209743, 47.7510535], [0.6208837, 47.7511544], [0.6208547, 47.7511727], [0.6208141, 47.751186], [0.6204576, 47.7512899], [0.6203961, 47.7513173], [0.6203448, 47.7513633], [0.6201378, 47.7517283], [0.6200982, 47.7517982], [0.6199573, 47.7520149], [0.6197634, 47.7523118], [0.6197088, 47.7523954], [0.619484, 47.7527396], [0.6189023, 47.7534346], [0.6188476, 47.7534999], [0.6188048, 47.7535498], [0.6185752, 47.7540621], [0.6184166, 47.7543722], [0.6182594, 47.7547021], [0.6182313, 47.7547859], [0.617957, 47.755729], [0.6177966, 47.7561439], [0.6173775, 47.7570566], [0.6172549, 47.7572347], [0.6169009, 47.757516], [0.6167555, 47.7576573], [0.6167185, 47.7577255], [0.6166913, 47.7577755], [0.6166005, 47.7581291], [0.616584, 47.7585603], [0.6165361, 47.7587999], [0.6163955, 47.7592393], [0.6162956, 47.7595924], [0.6162571, 47.7599539], [0.6162452, 47.7600996], [0.616205, 47.7600942], [0.6161006, 47.7600398], [0.6155539, 47.7596278], [0.6149341, 47.7591938], [0.6146309, 47.7590159], [0.61437, 47.7589119], [0.6129158, 47.7583786], [0.6123481, 47.758176], [0.6121664, 47.7580826], [0.6118339, 47.7577992], [0.611414, 47.7573962], [0.6111881, 47.7572311], [0.6109011, 47.7576774], [0.6108423, 47.75784], [0.6108513, 47.7579746], [0.6113503, 47.7600034], [0.6114188, 47.7604132], [0.6113989, 47.7605151], [0.611337, 47.7606226], [0.6103902, 47.7619775], [0.6103048, 47.7620589], [0.610118, 47.7621587], [0.6098082, 47.7623769], [0.6097722, 47.7624159], [0.6096961, 47.762498], [0.6095698, 47.7626451], [0.6094626, 47.7627875], [0.6094256, 47.7628904], [0.6094255, 47.7632232], [0.6094601, 47.7634197], [0.6094871, 47.7635765], [0.609381, 47.7636145], [0.6085641, 47.7631313], [0.6081829, 47.7629144], [0.6078992, 47.7628059], [0.6075092, 47.7626605], [0.6073195, 47.7625496], [0.6071085, 47.7623137], [0.6069666, 47.7622243], [0.6068248, 47.7621861], [0.606628, 47.7621528], [0.6064879, 47.7621075], [0.605981, 47.7618386], [0.605798, 47.7617088], [0.6052619, 47.7615522], [0.6043124, 47.7613467], [0.603776, 47.7612818], [0.6032985, 47.7611664], [0.6026065, 47.7610979], [0.6023061, 47.7611159], [0.6020379, 47.7611664], [0.6015873, 47.7612349], [0.6011689, 47.76117], [0.600509, 47.7610149], [0.6003481, 47.7607427], [0.6001899, 47.7606868], [0.5998224, 47.7606345], [0.5997205, 47.7605696], [0.5995864, 47.7604109], [0.5993289, 47.7601404], [0.599176, 47.7600845], [0.5990124, 47.7600647], [0.5988219, 47.7600882], [0.5987012, 47.7600647], [0.5987576, 47.7599908], [0.5989453, 47.7596752], [0.5990177, 47.7593741], [0.5990743, 47.7591903], [0.5990799, 47.7591104], [0.5991731, 47.7590216], [0.5994987, 47.7589159], [0.5994254, 47.7588819], [0.5991787, 47.758835], [0.5990714, 47.7588314], [0.5988836, 47.7588116], [0.5986487, 47.7587632], [0.5984783, 47.758858], [0.5983208, 47.7588731], [0.5980471, 47.7588354], [0.5977717, 47.7587558], [0.596162, 47.7581172], [0.5958311, 47.758209], [0.5958029, 47.7581493], [0.5958092, 47.7580129], [0.5958582, 47.7573879], [0.5957992, 47.7572834], [0.5958502, 47.7571341], [0.5958655, 47.757079], [0.5958197, 47.7570266], [0.5956848, 47.7569406], [0.5951257, 47.7565713], [0.594132, 47.7561295], [0.5931362, 47.7557149], [0.5922652, 47.7555647], [0.5921946, 47.7555902], [0.5919952, 47.7558578], [0.5917364, 47.7556961], [0.591342, 47.755507], [0.590651, 47.7553449], [0.5899952, 47.7552486], [0.5896252, 47.7552039], [0.5895261, 47.755176], [0.5893214, 47.7550684], [0.5890936, 47.7550242], [0.5889681, 47.7550166], [0.5884819, 47.7550231], [0.5884266, 47.7551583], [0.5883406, 47.7552631], [0.5882863, 47.7552975], [0.5882204, 47.7553082], [0.5879901, 47.7552891], [0.5878585, 47.7550266], [0.5877599, 47.754881], [0.5876112, 47.7547424], [0.58746, 47.75469], [0.5872839, 47.7546621], [0.586731, 47.754563], [0.5864808, 47.7544934], [0.5861017, 47.7544713], [0.5851354, 47.7543805], [0.5849046, 47.7544058], [0.5847241, 47.754408], [0.5840196, 47.7543318], [0.5838615, 47.7543003], [0.583656, 47.7542005], [0.5832374, 47.7540649], [0.583112, 47.7540659], [0.5830187, 47.7540207], [0.5827124, 47.753973], [0.5824185, 47.7539499], [0.5824059, 47.75391], [0.5822252, 47.7535414], [0.5821621, 47.7533663], [0.5819983, 47.752608], [0.5817911, 47.7516484], [0.5816601, 47.7509619], [0.5816199, 47.7509615], [0.5743699, 47.7501436], [0.5739116, 47.750126], [0.5738837, 47.7501487], [0.573796, 47.7508304], [0.5738079, 47.7520951], [0.5738974, 47.7531032], [0.5741107, 47.7536407], [0.5742879, 47.7540188], [0.5742728, 47.7540902], [0.5742294, 47.7541351], [0.5740173, 47.7541863], [0.5739688, 47.7542132], [0.5739662, 47.7542689], [0.5741086, 47.754698], [0.5741346, 47.7549634], [0.5741984, 47.7550523], [0.5748216, 47.7556498], [0.5748569, 47.7556836], [0.5750147, 47.7560613], [0.5755602, 47.7563609], [0.5756035, 47.7563995], [0.5755934, 47.7564311], [0.575531, 47.7564819], [0.5749942, 47.7566956], [0.5737478, 47.7571257], [0.5731089, 47.7574208], [0.5725223, 47.7576167], [0.5722392, 47.7577019], [0.5720631, 47.757704], [0.5717096, 47.7576907], [0.5711525, 47.757715], [0.5708111, 47.7577613], [0.5706568, 47.7578029], [0.5701902, 47.7581867], [0.5700914, 47.7582338], [0.5691155, 47.7584461], [0.5682265, 47.758578], [0.5681308, 47.7586027], [0.5680809, 47.7586859], [0.5682487, 47.7590802], [0.568217, 47.7591606], [0.5681269, 47.7591781], [0.5669827, 47.7596816], [0.5668816, 47.7596568], [0.5667539, 47.7595964], [0.5666218, 47.7595373], [0.5664315, 47.7593684], [0.566241, 47.759096], [0.5659816, 47.758668], [0.5658969, 47.7585692], [0.5657423, 47.7585108], [0.5654727, 47.75845], [0.5652851, 47.7584184], [0.5650431, 47.7584143], [0.5646816, 47.7584433], [0.5641437, 47.7584911], [0.5635479, 47.7585477], [0.5631517, 47.7585424], [0.5630219, 47.7585345], [0.5629051, 47.7584759], [0.5627706, 47.7583751], [0.5626467, 47.7581775], [0.5624345, 47.7577985], [0.5622946, 47.7575221], [0.5619149, 47.7571116], [0.5617692, 47.7569531], [0.5615101, 47.7566436], [0.5611896, 47.7563128], [0.5610319, 47.7561964], [0.5609888, 47.7561825], [0.5606993, 47.7568735], [0.5606711, 47.7571456], [0.5606741, 47.7572047], [0.5607046, 47.7572816], [0.5607387, 47.7573451], [0.5609218, 47.7576668], [0.561799, 47.7590574], [0.5603236, 47.7593522], [0.5600101, 47.7594927], [0.5597631, 47.7596458], [0.5594162, 47.7595429], [0.5586337, 47.759415], [0.558393, 47.7594268], [0.5576896, 47.7596003], [0.5571423, 47.7596538], [0.556881, 47.7597231], [0.5558593, 47.7601003], [0.5556075, 47.7601191], [0.5531154, 47.7601101], [0.5519164, 47.7600748], [0.5503763, 47.7598517], [0.5503278, 47.7598642], [0.550283, 47.7598758], [0.5495657, 47.760397], [0.5494825, 47.7605207], [0.5494678, 47.7606384], [0.5493379, 47.7609837], [0.5499188, 47.7612692], [0.5504948, 47.7615267], [0.5511044, 47.761786], [0.5516185, 47.7620618], [0.5520593, 47.7623605], [0.5520709, 47.7623712], [0.552193, 47.762483], [0.552564, 47.7630194], [0.5529743, 47.7635973], [0.5530655, 47.7637085], [0.553122, 47.7637526], [0.5531601, 47.765394], [0.5531334, 47.7655973], [0.5527866, 47.7664244], [0.5527038, 47.7664568], [0.5525718, 47.7664695], [0.5524087, 47.7664619], [0.55183, 47.7663647], [0.550422, 47.7661295], [0.5499644, 47.7660587], [0.5497782, 47.7660855], [0.5472951, 47.7670336], [0.5456198, 47.7673001], [0.5453555, 47.7673679], [0.5451691, 47.767504], [0.5439356, 47.7682892], [0.5438255, 47.7683142], [0.5432399, 47.768285], [0.5416433, 47.7681672], [0.5415988, 47.7681642], [0.541346, 47.7694977], [0.5413138, 47.7696722], [0.5412973, 47.7698003], [0.5412943, 47.7699301], [0.5412455, 47.7699274], [0.5384218, 47.7698265], [0.5381539, 47.7698222], [0.5380693, 47.7698213], [0.5375593, 47.7698025], [0.5362474, 47.7697563], [0.5361702, 47.7697536], [0.5360837, 47.7697527], [0.5360179, 47.7697569], [0.5358756, 47.7697771], [0.5341045, 47.7700396], [0.5339581, 47.7700398], [0.5338307, 47.7699951], [0.5337636, 47.7699392], [0.5337111, 47.7698778], [0.533632, 47.7696863], [0.5335842, 47.7696747], [0.5314833, 47.7689866], [0.5312934, 47.7689249], [0.5306754, 47.7687728], [0.5302023, 47.7687615], [0.5297614, 47.7688432], [0.5286698, 47.768907], [0.5283332, 47.7689075], [0.5283667, 47.7685593], [0.5286603, 47.7685438], [0.5286614, 47.7680013], [0.5286195, 47.7679456], [0.5284863, 47.7679001], [0.5283982, 47.7678664], [0.5283542, 47.7678237], [0.5283573, 47.7676619], [0.5283818, 47.7675057], [0.5284013, 47.7674128], [0.5284535, 47.7673116], [0.5284771, 47.7672386], [0.5284986, 47.7671309], [0.5284602, 47.7670558], [0.5283783, 47.7670241], [0.5277763, 47.7669732], [0.5275264, 47.7669987], [0.5272519, 47.767042], [0.5270174, 47.7670303], [0.5267265, 47.7669937], [0.5263063, 47.766973], [0.5258032, 47.7670178], [0.5254354, 47.7669696], [0.5252362, 47.7663726], [0.525142, 47.7655555], [0.5251163, 47.7651815], [0.5250478, 47.7649743], [0.5248595, 47.7644334], [0.5246711, 47.7641284], [0.5243544, 47.7633803], [0.5243287, 47.7628969], [0.5234989, 47.7629364], [0.5217634, 47.7627479], [0.5221805, 47.7618525], [0.5222378, 47.7616768], [0.5218836, 47.7614547], [0.5216746, 47.7611952], [0.5215559, 47.7608387], [0.521591, 47.7601977], [0.5215255, 47.7601243], [0.5190424, 47.759554], [0.5184816, 47.7593797], [0.5177762, 47.7591301], [0.5173209, 47.7589882], [0.5169046, 47.7588306], [0.5173775, 47.758204], [0.5179247, 47.7574315], [0.5184826, 47.7566485], [0.5193952, 47.7549065], [0.5195142, 47.7546981], [0.5198082, 47.7544554], [0.5198946, 47.7543725], [0.5200019, 47.7541107], [0.52008, 47.7537561], [0.5205066, 47.7536423], [0.5214563, 47.7534797], [0.5217787, 47.7533974], [0.5228919, 47.7531025], [0.5235195, 47.752985], [0.5239386, 47.7529876], [0.5240958, 47.7529872], [0.5242478, 47.7529226], [0.5249198, 47.7527689], [0.5249452, 47.7527285], [0.524912, 47.7526431], [0.5247268, 47.7523908], [0.5238584, 47.7514424], [0.5233869, 47.7508258], [0.5232292, 47.7504731], [0.522917, 47.7500582], [0.5227391, 47.7499316], [0.5219753, 47.7492792], [0.5218629, 47.7492499], [0.5216672, 47.7492955], [0.5214024, 47.7492808], [0.5207601, 47.7490251], [0.5206458, 47.748997], [0.5203791, 47.748981], [0.5197166, 47.7485521], [0.5190117, 47.7480212], [0.5189206, 47.7478632], [0.5188045, 47.7476713], [0.5182662, 47.7474], [0.5175772, 47.7470511], [0.5174943, 47.7468266], [0.5174915, 47.7463532], [0.5174229, 47.7459361], [0.5175053, 47.7456405], [0.5173353, 47.7451826], [0.5174077, 47.7448631], [0.5177451, 47.7442892], [0.5177244, 47.7441818], [0.5175987, 47.7440708], [0.5172833, 47.7437917], [0.517185, 47.7436227], [0.517027, 47.7434219], [0.5170124, 47.7433661], [0.5171568, 47.7431666], [0.517293, 47.7431009], [0.5175792, 47.7430085], [0.5182728, 47.7428034], [0.5180256, 47.742663], [0.5173093, 47.7422674], [0.5170828, 47.7421072], [0.5167303, 47.7416702], [0.5166618, 47.7416075], [0.5165636, 47.7415794], [0.5164248, 47.741587], [0.5163626, 47.7415973], [0.5158114, 47.7416887], [0.5157049, 47.7417063], [0.5154143, 47.7417402], [0.5149573, 47.7417171], [0.5149089, 47.7417148], [0.5147137, 47.7417146], [0.5144903, 47.741745], [0.5141629, 47.741785], [0.5140314, 47.7417762], [0.5137813, 47.7417185], [0.5136202, 47.7416584], [0.5134507, 47.7415734], [0.5133359, 47.7415091], [0.5132512, 47.7414341], [0.5131986, 47.7413684], [0.513163, 47.7412917], [0.5131257, 47.7412105], [0.5130701, 47.7411134], [0.5130419, 47.7410641], [0.5129265, 47.7409731], [0.5127749, 47.7409122], [0.5126791, 47.7408888], [0.5125584, 47.7408825], [0.512459, 47.7408923], [0.51241, 47.7407596], [0.512364, 47.7405018], [0.5123319, 47.7403552], [0.5121901, 47.740003], [0.5119814, 47.7396368], [0.5117737, 47.7391298], [0.5117318, 47.7389053], [0.5117575, 47.7387757], [0.5118894, 47.7386908], [0.5116877, 47.7385624], [0.5108906, 47.7379032], [0.5097751, 47.7370151], [0.5080908, 47.7384574], [0.5076016, 47.7387943], [0.506967, 47.7393877], [0.5068172, 47.7395698], [0.5068696, 47.7397231], [0.5067486, 47.7398099], [0.5064094, 47.7400361], [0.5055994, 47.7406854], [0.5052362, 47.7409244], [0.5047042, 47.7411371], [0.5040926, 47.7413727], [0.5037697, 47.7415528], [0.503626, 47.7416161], [0.5035129, 47.7416525], [0.5032445, 47.7417395], [0.5030571, 47.741833], [0.5027206, 47.7420298], [0.5022445, 47.7423601], [0.5019347, 47.7425481], [0.501512, 47.7427364], [0.5011017, 47.7429005], [0.5008484, 47.7429683], [0.5001518, 47.7430687], [0.4993034, 47.7432267], [0.4991362, 47.7432759], [0.4990169, 47.7433467], [0.498867, 47.7434846], [0.4983491, 47.7431581], [0.4977061, 47.7426328], [0.4976553, 47.7425019], [0.4975321, 47.7420298], [0.497233, 47.7420536], [0.4967894, 47.7420911], [0.4965927, 47.7420792], [0.4963078, 47.7420231], [0.4961745, 47.7419385], [0.496135, 47.7418725], [0.4958883, 47.7416418], [0.4954851, 47.7413345], [0.4949159, 47.740973], [0.4932274, 47.7400609], [0.4933809, 47.7399341], [0.4938918, 47.7393782], [0.4932358, 47.7390102], [0.4928945, 47.7386815], [0.4914175, 47.737937], [0.4907524, 47.7379299], [0.4904093, 47.7377712], [0.4901505, 47.7377073], [0.4898086, 47.737669], [0.4895735, 47.7381494], [0.4891781, 47.7386302], [0.4891228, 47.7386745], [0.488601, 47.7385272], [0.4884396, 47.7384937], [0.48809, 47.7384212], [0.4878039, 47.7383592], [0.487481, 47.738203], [0.486879, 47.7377134], [0.4859138, 47.7371018], [0.4858072, 47.7370685], [0.4851483, 47.7374692], [0.4834954, 47.7383977], [0.4832182, 47.7384768], [0.4833041, 47.7382718], [0.4832585, 47.7380931], [0.4826774, 47.737433], [0.4825469, 47.7371892], [0.4823944, 47.736141], [0.4825118, 47.7358186], [0.4816414, 47.7354606], [0.4811271, 47.7351576], [0.4802944, 47.734403], [0.4809878, 47.7339682], [0.4811934, 47.7338251], [0.4813878, 47.7335839], [0.4818681, 47.7328448], [0.4821283, 47.7325248], [0.4825863, 47.7320155], [0.4826884, 47.7318936], [0.4827774, 47.7317734], [0.4827918, 47.731679], [0.4827613, 47.7315867], [0.4826363, 47.7314311], [0.4823798, 47.7310899], [0.4822626, 47.7310053], [0.4816823, 47.7308379], [0.4811829, 47.7306956], [0.4809638, 47.7305832], [0.4807169, 47.730427], [0.4804189, 47.7302624], [0.4803047, 47.730212], [0.4801628, 47.7301757], [0.4796007, 47.7301126], [0.4795213, 47.7300862], [0.479468, 47.7300603], [0.4794328, 47.7300276], [0.479406, 47.7299743], [0.4793958, 47.729921], [0.4793805, 47.729572], [0.4793832, 47.7293312], [0.4793985, 47.7292106], [0.4794194, 47.7291264], [0.4795066, 47.7289117], [0.4795401, 47.7287854], [0.479573, 47.7286327], [0.4796004, 47.7284616], [0.4796132, 47.7283262], [0.4796085, 47.7282171], [0.4795964, 47.7281467], [0.4795694, 47.7280821], [0.4795384, 47.7280227], [0.4793393, 47.7277127], [0.4792064, 47.7273604], [0.4790775, 47.7267508], [0.4790331, 47.7266059], [0.4789793, 47.7264995], [0.478887, 47.726375], [0.4787624, 47.726227], [0.4786013, 47.7260529], [0.4784095, 47.725859], [0.4781034, 47.7255752], [0.4781292, 47.7255617], [0.4781467, 47.7255459], [0.4781628, 47.7254999], [0.4781695, 47.7254404], [0.47814, 47.725361], [0.4781078, 47.7252591], [0.4780649, 47.725011], [0.4780287, 47.7248062], [0.4780219, 47.7246898], [0.4780327, 47.7245842], [0.4780562, 47.724519], [0.478026, 47.7244697], [0.4779457, 47.7243584], [0.4775146, 47.723962], [0.4773635, 47.7237885], [0.4773073, 47.7236926], [0.4772615, 47.7235305], [0.4772052, 47.723379], [0.4770926, 47.7231805], [0.4768379, 47.7227183], [0.4766165, 47.7222819], [0.4764703, 47.7220437], [0.4763439, 47.7218207], [0.4763161, 47.7217469], [0.4763067, 47.7217198], [0.4763098, 47.7216971], [0.4762208, 47.7216648], [0.476203, 47.7216558], [0.4761082, 47.721608], [0.4758494, 47.7214591], [0.4756375, 47.7213445], [0.4754537, 47.721257], [0.4752988, 47.7212023], [0.4753169, 47.7211749], [0.4753116, 47.721146], [0.4752459, 47.7210612], [0.4751895, 47.7209746], [0.47515, 47.7208884], [0.4751225, 47.7208077], [0.4751062, 47.7207198], [0.4750983, 47.720657], [0.4751046, 47.7205519], [0.4751171, 47.7204847], [0.475156, 47.7203728], [0.4751922, 47.7202862], [0.4752081, 47.7202251], [0.4752123, 47.7201698], [0.4752056, 47.7200895], [0.4751788, 47.7199289], [0.4750983, 47.7194814], [0.4750809, 47.7193686], [0.4750675, 47.7191476], [0.4750535, 47.7187465], [0.4750702, 47.718544], [0.4751252, 47.7183094], [0.4752928, 47.7178429], [0.4754336, 47.7174315], [0.475549, 47.7169939], [0.4755812, 47.7169206], [0.4757179, 47.7166528], [0.4758717, 47.7163824], [0.4760304, 47.7161268], [0.4761873, 47.7158669], [0.4762587, 47.7157186], [0.4762906, 47.7155655], [0.4763147, 47.7153598], [0.4762839, 47.7150765], [0.4762519, 47.714884], [0.4762329, 47.7147309], [0.4762034, 47.7146325], [0.4761699, 47.7145784], [0.476048, 47.7144756], [0.4759915, 47.7143989], [0.4759526, 47.7143104], [0.4759312, 47.7141859], [0.4759165, 47.7139584], [0.4759193, 47.7133365], [0.4758923, 47.7132411], [0.475836, 47.7131374], [0.4755262, 47.7127557], [0.4752593, 47.7124552], [0.4749181, 47.7120907], [0.4747228, 47.7118984], [0.4745498, 47.7117441], [0.4743795, 47.7116087], [0.4743218, 47.7115645], [0.4742828, 47.7115369], [0.4742387, 47.7115528], [0.4741596, 47.7115916], [0.4741084, 47.7116375], [0.4733563, 47.7127642], [0.4732217, 47.7130335], [0.4731496, 47.7131458], [0.4721951, 47.7128384], [0.471723, 47.71177], [0.4716317, 47.7104722], [0.4717441, 47.7096334], [0.4715375, 47.7096981], [0.471366, 47.7097355], [0.4712552, 47.7097921], [0.4711008, 47.7098267], [0.4709948, 47.7098311], [0.4709327, 47.7097984], [0.470872, 47.7097389], [0.4708091, 47.7097183], [0.4707431, 47.7096979], [0.4704457, 47.7095884], [0.4702925, 47.7095458], [0.4702194, 47.7095269], [0.4697916, 47.709424], [0.4692189, 47.7092833], [0.4681259, 47.7089828], [0.4671107, 47.7087057], [0.4670498, 47.7086803], [0.4671, 47.7086389], [0.4671858, 47.7085523], [0.46726, 47.7084414], [0.4673924, 47.7082022], [0.4675063, 47.7079729], [0.4677107, 47.7074886], [0.4677705, 47.7073665], [0.4678694, 47.7072038], [0.4679489, 47.707112], [0.4680441, 47.7070172], [0.4682721, 47.7068295], [0.4686666, 47.7065177], [0.4687375, 47.706446], [0.4687788, 47.7063818], [0.4687951, 47.706325], [0.4688072, 47.7061852], [0.4688256, 47.7060478], [0.4688863, 47.705844], [0.4689319, 47.7057357], [0.4689541, 47.7057101], [0.46953, 47.7059061], [0.4699467, 47.7060485], [0.4699686, 47.7060227], [0.4701295, 47.7059478], [0.4704072, 47.7058224], [0.4705359, 47.7057745], [0.470658, 47.7057345], [0.4708484, 47.7056861], [0.4711091, 47.7056406], [0.4712011, 47.7056274], [0.4712467, 47.7056067], [0.4712725, 47.7055819], [0.4712856, 47.7055562], [0.4712923, 47.7055191], [0.4712775, 47.7054677], [0.4710791, 47.7050905], [0.4708556, 47.7047176], [0.4705954, 47.7042377], [0.470383, 47.7038396], [0.4701914, 47.7034388], [0.4698787, 47.7028016], [0.469687, 47.702438], [0.4695944, 47.7022674], [0.4695107, 47.7021293], [0.4694161, 47.7019912], [0.4693168, 47.7018712], [0.4691738, 47.7017284], [0.4689869, 47.7015535], [0.4687822, 47.7013457], [0.4685886, 47.7011356], [0.4684103, 47.7009355], [0.4683134, 47.7009445], [0.4680212, 47.7009132], [0.4674801, 47.7007955], [0.4665196, 47.7004781], [0.4660846, 47.7003223], [0.4653206, 47.6998618], [0.4647282, 47.6996452], [0.4644287, 47.6995796], [0.4641188, 47.6995702], [0.4636034, 47.6996849], [0.4636581, 47.6993117], [0.4636415, 47.6991371], [0.4635051, 47.6988456], [0.4634545, 47.6987263], [0.4635126, 47.698567], [0.4634246, 47.6982699], [0.4634214, 47.6981223], [0.4631575, 47.6977196], [0.4629815, 47.6968482], [0.4628084, 47.6966073], [0.4630499, 47.696341], [0.4630458, 47.6963013], [0.4629318, 47.6961568], [0.4628554, 47.6961631], [0.4627737, 47.6961483], [0.4625867, 47.6960725], [0.4624132, 47.6960057], [0.462096, 47.6959343], [0.4618782, 47.6958349], [0.4613629, 47.6955522], [0.4608772, 47.6952199], [0.4603291, 47.6948286], [0.4602014, 47.6947766], [0.4600714, 47.6947699], [0.4596676, 47.69444], [0.4593259, 47.6939263], [0.4590226, 47.6933961], [0.4589316, 47.6931442], [0.4589505, 47.6929184], [0.4588249, 47.6926972], [0.4586057, 47.6925187], [0.4585874, 47.6924539], [0.4586289, 47.6923233], [0.4584759, 47.6921449], [0.4581576, 47.6919208], [0.4578459, 47.6917626], [0.4574445, 47.6915643], [0.4570854, 47.6913379], [0.4566515, 47.6911283], [0.4562834, 47.6910083], [0.4561011, 47.6909109], [0.4555262, 47.6906771], [0.4554322, 47.6906474], [0.4551431, 47.6907041], [0.4550282, 47.6907436], [0.4548821, 47.690743], [0.4544119, 47.6905576], [0.4539108, 47.6903281], [0.4538467, 47.6902056], [0.4538782, 47.6900801], [0.4538346, 47.690016], [0.4535419, 47.6899055], [0.4527093, 47.6896042], [0.4524724, 47.6895081], [0.4520055, 47.6892978], [0.45132, 47.6890549], [0.4508975, 47.6888508], [0.450453, 47.6886212], [0.4500125, 47.6884667], [0.4497883, 47.688392], [0.4491683, 47.6880848], [0.4486624, 47.6878749], [0.4481161, 47.6876549], [0.4478692, 47.6874863], [0.4477473, 47.6873452], [0.4478425, 47.6872598], [0.4473496, 47.6870514], [0.446754, 47.6868783], [0.4452484, 47.6864904], [0.4449024, 47.6864191], [0.4449002, 47.6863919], [0.4448694, 47.686357], [0.4447134, 47.6863197], [0.4446793, 47.6862728], [0.4446977, 47.6861805], [0.4446856, 47.6861021], [0.4446408, 47.6860233], [0.4445537, 47.6859321], [0.4444734, 47.6858711], [0.4443648, 47.6858223], [0.444118, 47.6857447], [0.4433725, 47.6856344], [0.4432666, 47.6856054], [0.4431661, 47.6855342], [0.4431009, 47.6854713], [0.4425126, 47.6844567], [0.4423754, 47.6842319], [0.4422763, 47.6841245], [0.4421879, 47.6840711], [0.442136, 47.6840456], [0.4420213, 47.6841566], [0.4419738, 47.6841357], [0.4412134, 47.6839447], [0.4409127, 47.6838111], [0.4407335, 47.6837244], [0.440655, 47.6837141], [0.440508, 47.6837697], [0.4400143, 47.6840434], [0.4397463, 47.6841915], [0.4395324, 47.6840395], [0.4390637, 47.6838355], [0.4383362, 47.6835636], [0.4380314, 47.6834745], [0.4371735, 47.6832588], [0.4367296, 47.6831427], [0.4366376, 47.6831186], [0.4361195, 47.6829647], [0.4355701, 47.6827511], [0.435152, 47.6826085], [0.4342574, 47.6823794], [0.4341715, 47.6823521], [0.4337138, 47.6821775], [0.4334567, 47.6820795], [0.4331235, 47.6820233], [0.4326579, 47.6819719], [0.4325724, 47.6819609], [0.4324716, 47.6819266], [0.4319538, 47.6816765], [0.4316641, 47.6815611], [0.4312152, 47.6814417], [0.4310484, 47.6814096], [0.430919, 47.6813892], [0.4307876, 47.6813793], [0.4306226, 47.6813805], [0.4303823, 47.6813872], [0.4302397, 47.6813883], [0.4300781, 47.6813811], [0.4299113, 47.6813751], [0.4297938, 47.681373], [0.4296885, 47.6813847], [0.4295943, 47.681404], [0.4294585, 47.6814448], [0.4293072, 47.6814924], [0.4292197, 47.6815274], [0.4291669, 47.6815545], [0.4291192, 47.681582], [0.4290777, 47.6816195], [0.4290515, 47.6816565], [0.4290253, 47.6817123], [0.4289441, 47.6819177], [0.4289255, 47.6819555], [0.4288961, 47.6820435], [0.4287323, 47.6825287], [0.4287225, 47.6825597], [0.4284336, 47.682525], [0.4282134, 47.6825054], [0.4279748, 47.6824993], [0.4277365, 47.6825056], [0.4273713, 47.6825252], [0.4270682, 47.6825414], [0.4267168, 47.6825634], [0.4265363, 47.6825838], [0.4263656, 47.6826089], [0.4262779, 47.6826228], [0.4261686, 47.6826462], [0.4260343, 47.6826766], [0.4260673, 47.6827471], [0.4260472, 47.6827874], [0.4259603, 47.6828771], [0.4259532, 47.6829046], [0.4259727, 47.6829488], [0.4259626, 47.6829928], [0.4259209, 47.6830347], [0.4257985, 47.6830931], [0.4256346, 47.6831287], [0.4254434, 47.6831471], [0.4253145, 47.683187], [0.4251951, 47.6832339], [0.4250468, 47.6832654], [0.42492, 47.683304], [0.4246449, 47.6833529], [0.4240305, 47.6834392], [0.4239526, 47.6834532], [0.4236065, 47.6835363], [0.4231995, 47.6836414], [0.4231232, 47.6836758], [0.4229767, 47.6837612], [0.4229334, 47.6837927], [0.4229056, 47.6838217], [0.4228881, 47.683875], [0.4228905, 47.6839087], [0.4229325, 47.6841097], [0.4229371, 47.6841465], [0.4228985, 47.6841286], [0.4228211, 47.6841083], [0.4222629, 47.6840221], [0.4218357, 47.6839662], [0.4216325, 47.6839381], [0.4214027, 47.6838987], [0.4212007, 47.6838835], [0.4206908, 47.6838771], [0.4206079, 47.6838776], [0.420506, 47.683892], [0.4204012, 47.68392], [0.4196992, 47.6841474], [0.4195954, 47.6841845], [0.4195002, 47.6842405], [0.419408, 47.6843068], [0.4193738, 47.6843519], [0.4188934, 47.6849419], [0.4188552, 47.6849596], [0.4188082, 47.6849709], [0.4187612, 47.68497], [0.4187082, 47.6849587], [0.418428, 47.6848159], [0.418257, 47.6847335], [0.4180518, 47.6846513], [0.4175622, 47.6844867], [0.4174216, 47.6844634], [0.4173621, 47.6844594], [0.4174125, 47.6858374], [0.4174128, 47.6859573], [0.4174188, 47.6861083], [0.4173513, 47.6860973], [0.4173039, 47.6860896], [0.4154656, 47.6858044], [0.4153341, 47.6857814], [0.4152211, 47.6857621], [0.415141, 47.685751], [0.4150934, 47.6857463], [0.4150455, 47.6857454], [0.4150874, 47.6867691], [0.4151199, 47.6874545], [0.4151323, 47.6877162], [0.4151607, 47.6882821], [0.4151709, 47.6884849], [0.4151839, 47.6887427], [0.4151983, 47.6890482], [0.4152047, 47.6891836]]]}, "properties": {"from": "La Vallée-de-la-Flotte", "name": "de La Vallée-de-la-Flotte à Château-du-Loir", "network": "nwn", "route": "hiking", "to": "Château-du-Loir", "type": "route", "id": "relation/12047629", "distance": 41.17, "dureeEstim": 10.29, "denivelePo": null, "deniveleNe": null, "altiMax": null, "altiMin": null}}, {"type": "Feature", "geometry": {"type": "MultiLineString", "coordinates": [[[0.2955619, 47.7332483], [0.2956756, 47.7332372], [0.2957956, 47.7332371], [0.2956756, 47.7332372], [0.2955619, 47.7332483]], [[0.2950956, 47.7333223], [0.2951237, 47.733326], [0.295201, 47.7333301], [0.2952606, 47.7333266], [0.2953204, 47.7333141], [0.29545, 47.7332727], [0.2955619, 47.7332483], [0.29545, 47.7332727], [0.2953204, 47.7333141], [0.2952606, 47.7333266], [0.295201, 47.7333301], [0.2951237, 47.733326], [0.2950956, 47.7333223]], [[0.2950505, 47.7337407], [0.2950585, 47.7335141], [0.2950956, 47.7333223], [0.2950585, 47.7335141], [0.2950505, 47.7337407]], [[0.2950505, 47.7337407], [0.2951462, 47.7337668], [0.2952873, 47.7338174], [0.2953967, 47.7338714], [0.2955019, 47.7339449], [0.2957871, 47.7341885], [0.2960715, 47.73447], [0.2961129, 47.7345165], [0.2960715, 47.73447], [0.2957871, 47.7341885], [0.2955019, 47.7339449], [0.2953967, 47.7338714], [0.2952873, 47.7338174], [0.2951462, 47.7337668], [0.2950505, 47.7337407]], [[0.29814, 47.7366347], [0.2981326, 47.7367411], [0.2980723, 47.7368418], [0.2979182, 47.7369424], [0.2975676, 47.7370295], [0.297447, 47.7371136], [0.2974314, 47.7371707], [0.2974515, 47.7372428], [0.2975341, 47.7373539], [0.2975832, 47.737429], [0.2975676, 47.7375281], [0.2975341, 47.7375837], [0.296594, 47.7380718], [0.2965404, 47.7381333], [0.2965381, 47.7382189], [0.2966185, 47.7383917], [0.2969312, 47.738716], [0.2978359, 47.739476], [0.2984115, 47.7401165], [0.298512, 47.7403705], [0.2984993, 47.7404533], [0.2984425, 47.7405191], [0.2973385, 47.7409991], [0.2969194, 47.7407658], [0.2967066, 47.7406974], [0.2959981, 47.740585], [0.295574, 47.7404898], [0.2949603, 47.7402924], [0.2947174, 47.7401684], [0.2932605, 47.7390588], [0.2930981, 47.7391756], [0.2917733, 47.7402671], [0.2920682, 47.7403911], [0.2930754, 47.7408523], [0.2931752, 47.7413304], [0.2933151, 47.741481], [0.2942854, 47.7420093], [0.2945199, 47.742085], [0.2947881, 47.7421733], [0.2952038, 47.742388], [0.2959871, 47.7428587], [0.2965262, 47.7431762], [0.2968884, 47.7433484], [0.2973577, 47.7435604], [0.2976688, 47.7437245], [0.2978107, 47.7438528], [0.2977502, 47.7438516], [0.2975644, 47.7439099], [0.2971216, 47.7440832], [0.2968244, 47.7441124], [0.2964466, 47.7441207], [0.2961206, 47.7441852], [0.2958234, 47.7442789], [0.2954425, 47.7443789], [0.2950214, 47.7444372], [0.2946839, 47.7444767], [0.2945988, 47.7445165], [0.2942826, 47.7452253], [0.2942249, 47.7455625], [0.2941448, 47.7457992], [0.2941552, 47.7461296], [0.2941302, 47.7466071], [0.2940723, 47.7466582], [0.2939474, 47.7466942], [0.2936532, 47.7467058], [0.2935511, 47.7467389], [0.293467, 47.7468114], [0.2933827, 47.7469838], [0.2933713, 47.7476369], [0.2934296, 47.7485896], [0.2936367, 47.7500113], [0.2937284, 47.7505146], [0.2937901, 47.750552], [0.2938185, 47.7505692], [0.293923, 47.7505517], [0.2947933, 47.7503235], [0.2949008, 47.7503311], [0.2949661, 47.7503784], [0.2950107, 47.7504387], [0.2953009, 47.7515645], [0.295409, 47.7524121], [0.2954682, 47.7527629], [0.2954762, 47.7529719], [0.2954348, 47.7531513], [0.29544, 47.75322], [0.2956374, 47.7535877], [0.2957462, 47.7538512], [0.2957574, 47.7540789], [0.2957053, 47.7541938], [0.2955253, 47.7546504], [0.2955085, 47.7548726], [0.2955326, 47.7550228], [0.2957559, 47.7554386], [0.2959063, 47.7556516], [0.2959516, 47.75577], [0.2958391, 47.7568502], [0.2958802, 47.7570827], [0.2959533, 47.7571874], [0.2959402, 47.7572705], [0.2961461, 47.7572658], [0.296463, 47.7572303], [0.2977205, 47.7569211], [0.2998056, 47.7564924], [0.3022138, 47.7559121], [0.3038698, 47.755444], [0.3042857, 47.7553461], [0.3047868, 47.7552608], [0.3057222, 47.7551037], [0.3066045, 47.7549833], [0.3070419, 47.7549495], [0.3073903, 47.7549535], [0.307469, 47.7549644], [0.3083521, 47.7530845], [0.3087383, 47.7524425], [0.3089529, 47.7519412], [0.3090978, 47.7514435], [0.3091139, 47.7510539], [0.3091943, 47.7507834], [0.3103437, 47.7490684], [0.3105061, 47.7487431], [0.3092509, 47.7483834], [0.3094572, 47.7482762], [0.3103861, 47.7477722], [0.3115149, 47.7471581], [0.3124516, 47.7467023], [0.3128587, 47.7464699], [0.3130657, 47.7463255], [0.3132541, 47.7461466], [0.3134362, 47.7459393], [0.3135717, 47.7457398], [0.3141831, 47.7454713], [0.314676, 47.7452548], [0.3152465, 47.7449478], [0.3159117, 47.7445654], [0.3161477, 47.7443851], [0.3169313, 47.7438964], [0.3170391, 47.7438292], [0.3172611, 47.7436908], [0.3180682, 47.7431875], [0.3187441, 47.7421269], [0.3187347, 47.7419198], [0.3184974, 47.7417589], [0.318036, 47.7416363], [0.3178751, 47.7414631], [0.3178751, 47.7413405], [0.3179376, 47.7412577], [0.3188363, 47.7416106], [0.3202003, 47.7420368], [0.3206886, 47.742199], [0.3211459, 47.7424117], [0.3210215, 47.742493], [0.3208874, 47.7425544], [0.3207372, 47.7425832], [0.3205924, 47.7425616], [0.3204207, 47.7425111], [0.3201643, 47.7424019], [0.3200613, 47.7423812], [0.3199594, 47.7423776], [0.3198843, 47.742392], [0.3198145, 47.7424209], [0.3197555, 47.7424714], [0.3195731, 47.7427564], [0.3194363, 47.742989], [0.3190126, 47.7436798], [0.3188428, 47.7439697], [0.3187685, 47.7440965], [0.3189401, 47.74428], [0.319182, 47.7445148], [0.3193153, 47.7446375], [0.3195215, 47.7446788], [0.3198481, 47.7446807], [0.3199531, 47.7447173], [0.3204216, 47.744705], [0.3205396, 47.7450952], [0.3206795, 47.7459032], [0.320702, 47.7461776], [0.3206474, 47.7463866], [0.3205669, 47.7465741], [0.3203416, 47.7468379], [0.3203782, 47.7472216], [0.3205242, 47.7474062], [0.3198522, 47.7487931], [0.3196324, 47.7488903], [0.3194179, 47.7488766], [0.3192247, 47.7488368], [0.3187928, 47.7486984], [0.3182494, 47.7486191], [0.3179158, 47.7486601], [0.3172721, 47.74879], [0.3168644, 47.7488333], [0.3163524, 47.748806], [0.3162216, 47.7493319], [0.3162354, 47.7494437], [0.3163687, 47.7495588], [0.3163775, 47.7496209], [0.3161094, 47.7506815], [0.3160232, 47.7510179], [0.3159669, 47.7511658], [0.3160069, 47.7512305], [0.3190834, 47.7528944], [0.3224634, 47.7547224], [0.3271706, 47.757268], [0.329491, 47.7585318], [0.3295071, 47.7585198], [0.3295357, 47.7585113], [0.3295595, 47.7585105], [0.3295749, 47.7585136], [0.3316253, 47.7550046], [0.3328715, 47.7527875], [0.3338524, 47.7511111], [0.3337242, 47.7508306], [0.3335799, 47.7506223], [0.3331481, 47.7501671], [0.3326787, 47.7497711], [0.3323088, 47.7495473], [0.332123, 47.7494744], [0.3319186, 47.749463], [0.3317319, 47.7494743], [0.3315414, 47.7494825], [0.3306918, 47.7496105], [0.3301257, 47.7497117], [0.3298149, 47.7497317], [0.3295585, 47.7497185], [0.3290523, 47.7495691], [0.3288301, 47.749492], [0.3285907, 47.7493291], [0.3279328, 47.74908], [0.3267328, 47.7486899], [0.3262049, 47.7484654], [0.3253616, 47.7481407], [0.3247582, 47.7479318], [0.3243476, 47.7478946], [0.3238406, 47.7478905], [0.3226365, 47.7479676], [0.3218036, 47.7480727], [0.321929, 47.7477273], [0.3229121, 47.7457036], [0.3232853, 47.7449352], [0.3239401, 47.7437111], [0.3239776, 47.7436411], [0.3223869, 47.7429882], [0.3214705, 47.7425545], [0.3211459, 47.7424117], [0.3206886, 47.742199], [0.3202003, 47.7420368], [0.3188363, 47.7416106], [0.3179376, 47.7412577], [0.3171758, 47.7409829], [0.316605, 47.7408105], [0.3139905, 47.740209], [0.3141083, 47.7397383], [0.3141857, 47.739555], [0.3141522, 47.739546], [0.3135438, 47.7392111], [0.3126781, 47.7386091], [0.3121429, 47.7383659], [0.3105915, 47.7376591], [0.3100462, 47.7374977], [0.3092274, 47.737159], [0.3081783, 47.7367298], [0.3071494, 47.7364445], [0.3065819, 47.7362586], [0.3056884, 47.7359601], [0.3051089, 47.7357739], [0.304702, 47.7355883], [0.3041565, 47.7352759], [0.3039188, 47.7351933], [0.3022602, 47.7349234], [0.3019585, 47.734844], [0.3017346, 47.7347303], [0.3015243, 47.7345878], [0.3013597, 47.7344953], [0.3011724, 47.7344368], [0.3007862, 47.7343941], [0.3005711, 47.7343732], [0.3000994, 47.7343523], [0.2999555, 47.7343366], [0.2997935, 47.7343078], [0.2996354, 47.7342669], [0.2994328, 47.7342004], [0.2991736, 47.7341287], [0.298996, 47.7340853], [0.2986647, 47.7340237], [0.298469, 47.7339775], [0.2983342, 47.7339356], [0.2981271, 47.7338585], [0.2980978, 47.7338942], [0.2980236, 47.7339651], [0.2979209, 47.7340323], [0.2977853, 47.7341143], [0.2975432, 47.734276], [0.29703, 47.7345932], [0.2969457, 47.7346569], [0.2968848, 47.7347118], [0.2968356, 47.7347728], [0.296801, 47.7348228], [0.2966206, 47.7346249], [0.2964929, 47.7345021], [0.2964441, 47.7344551], [0.2961129, 47.7345165], [0.2961606, 47.73457], [0.2962504, 47.7346945], [0.2963989, 47.7349361], [0.2965711, 47.7352024], [0.296639, 47.7352985], [0.296727, 47.7354008], [0.2972053, 47.7358985], [0.2975007, 47.7361984], [0.2976616, 47.7363487], [0.2978046, 47.7364523], [0.2980033, 47.7365711], [0.29814, 47.7366347]]]}, "properties": {"colour": "yellow", "distance": 15.32, "name": "Du village à la forêt", "network": "lwn", "osmc:symbol": "yellow::yellow_bar:Ve1:black", "ref": "Ve1", "roundtrip": "yes", "route": "hiking", "signed_direction": "yes", "type": "route", "id": "Ve1", "dureeEstim": 3.83, "denivelePo": null, "deniveleNe": null, "altiMax": null, "altiMin": null}}, {"type": "Feature", "geometry": {"type": "MultiLineString", "coordinates": [[[0.3266522, 47.6726337], [0.326467, 47.6724041], [0.326428, 47.672335], [0.3262209, 47.6718205], [0.3261945, 47.671644], [0.3261845, 47.6714883], [0.3261687, 47.6712412], [0.3261634, 47.670965], [0.3262172, 47.6705601], [0.3262778, 47.6699751], [0.3262931, 47.6696457], [0.3262994, 47.6696099], [0.3250427, 47.6694949], [0.3243096, 47.6694251], [0.3242602, 47.6694207], [0.3231814, 47.6693233], [0.3230636, 47.6693127], [0.3219122, 47.6692046], [0.3216998, 47.6691856], [0.3213159, 47.6691513], [0.320337, 47.6690579], [0.3202176, 47.6690466], [0.320123, 47.6690243], [0.320035, 47.6689953], [0.319416, 47.6687373], [0.3189808, 47.6685675], [0.3182639, 47.6683], [0.3181412, 47.6682603], [0.3180248, 47.6682309], [0.3176493, 47.6681742], [0.3173019, 47.6681266], [0.3171188, 47.6681015], [0.3170209, 47.6680752], [0.3169513, 47.6680329], [0.316897, 47.6680143], [0.3167682, 47.6680065], [0.3166775, 47.6680041], [0.3165978, 47.6679982], [0.3165944, 47.6680399], [0.3165278, 47.6680421], [0.3160252, 47.6680709], [0.3142462, 47.6681729], [0.3142319, 47.6681744], [0.3139872, 47.6681999], [0.3137832, 47.6682462], [0.3135573, 47.6683402], [0.313541, 47.6682944], [0.3134908, 47.6681531], [0.3133406, 47.6680393], [0.3132252, 47.6679959], [0.3130345, 47.6680416], [0.3128656, 47.6680615], [0.3127771, 47.6681247], [0.3126832, 47.6682168], [0.3125249, 47.6682475], [0.3122192, 47.6682782], [0.3118624, 47.6683378], [0.311739, 47.6683559], [0.3116773, 47.6683523], [0.3116344, 47.6683035], [0.3115942, 47.668206], [0.3115298, 47.6680145], [0.3114306, 47.6678501], [0.3113761, 47.6678557], [0.3112914, 47.6676598], [0.3111997, 47.6673612], [0.3112914, 47.6676598], [0.3113761, 47.6678557], [0.3114306, 47.6678501], [0.3115298, 47.6680145], [0.3115942, 47.668206], [0.3116344, 47.6683035], [0.3116773, 47.6683523], [0.311739, 47.6683559], [0.3118624, 47.6683378], [0.3122192, 47.6682782], [0.3125249, 47.6682475], [0.3126832, 47.6682168], [0.3127771, 47.6681247], [0.3128656, 47.6680615], [0.3130345, 47.6680416], [0.3132252, 47.6679959], [0.3133406, 47.6680393], [0.3134908, 47.6681531], [0.313541, 47.6682944], [0.3135573, 47.6683402], [0.3137832, 47.6682462], [0.3139872, 47.6681999], [0.3142319, 47.6681744], [0.3142462, 47.6681729], [0.3160252, 47.6680709], [0.3165278, 47.6680421], [0.3165944, 47.6680399], [0.3165978, 47.6679982], [0.3166775, 47.6680041], [0.3167682, 47.6680065], [0.316897, 47.6680143], [0.3169513, 47.6680329], [0.3170209, 47.6680752], [0.3171188, 47.6681015], [0.3173019, 47.6681266], [0.3176493, 47.6681742], [0.3180248, 47.6682309], [0.3181412, 47.6682603], [0.3182639, 47.6683], [0.3189808, 47.6685675], [0.319416, 47.6687373], [0.320035, 47.6689953], [0.320123, 47.6690243], [0.3202176, 47.6690466], [0.320337, 47.6690579], [0.3213159, 47.6691513], [0.3216998, 47.6691856], [0.3219122, 47.6692046], [0.3230636, 47.6693127], [0.3231814, 47.6693233], [0.3242602, 47.6694207], [0.3243096, 47.6694251], [0.3250427, 47.6694949], [0.3262994, 47.6696099], [0.3262931, 47.6696457], [0.3262778, 47.6699751], [0.3262172, 47.6705601], [0.3261634, 47.670965], [0.3261687, 47.6712412], [0.3261845, 47.6714883], [0.3261945, 47.671644], [0.3262209, 47.6718205], [0.326428, 47.672335], [0.326467, 47.6724041], [0.3266522, 47.6726337], [0.326646, 47.67269], [0.3266211, 47.672742], [0.3265525, 47.6727975], [0.3264507, 47.6728785], [0.3264115, 47.6729132], [0.3263972, 47.6729758], [0.3264199, 47.6730146], [0.3266699, 47.6732041], [0.3267159, 47.6732622], [0.3267117, 47.6732912], [0.3266996, 47.6733264], [0.3266449, 47.6733735], [0.3265007, 47.6734868], [0.3264497, 47.6735322], [0.3264259, 47.6735725], [0.3263972, 47.6736515], [0.3263635, 47.6737489], [0.3263164, 47.6738196], [0.32625, 47.6738721], [0.3261502, 47.6739247], [0.3259307, 47.6740376], [0.3258276, 47.6740891], [0.3257836, 47.6741584], [0.3257837, 47.674202], [0.3258074, 47.6742545], [0.3258711, 47.674298], [0.3259341, 47.6743292], [0.3260277, 47.6743331], [0.3261224, 47.6743207], [0.3262383, 47.6742438], [0.3263675, 47.6741591], [0.3265845, 47.6740395], [0.326778, 47.6739277], [0.3268532, 47.6738944], [0.3269074, 47.6738896], [0.3269497, 47.6738928], [0.3273032, 47.6740617], [0.3274099, 47.6740961], [0.3282669, 47.6742763], [0.3293535, 47.6744682], [0.3298231, 47.6745354], [0.330082, 47.6742733], [0.3307403, 47.6737255], [0.330082, 47.6742733], [0.3298231, 47.6745354], [0.3297341, 47.6746255], [0.3295914, 47.6748092], [0.3295627, 47.6749369], [0.3295739, 47.6750705], [0.3300194, 47.6761187], [0.3300345, 47.6762957], [0.3299118, 47.6765316], [0.3298117, 47.6766631], [0.3296579, 47.6767395], [0.329259, 47.6771937], [0.3286116, 47.6778342], [0.3275466, 47.6784187], [0.3277299, 47.6785399], [0.328349, 47.6788374], [0.3290917, 47.6792001], [0.328385, 47.680015], [0.328347, 47.6801225], [0.3283956, 47.6802178], [0.3285334, 47.6807345], [0.3284996, 47.6808357], [0.3284102, 47.6808645], [0.3270472, 47.68099], [0.3266898, 47.6810681], [0.3266358, 47.6811146], [0.3266481, 47.6811729], [0.3270583, 47.6825967], [0.3277697, 47.68411], [0.3278534, 47.6846023], [0.3278168, 47.6848685], [0.3276869, 47.6851279], [0.3277882, 47.6854449], [0.3276153, 47.685818], [0.3277822, 47.6862955], [0.3283842, 47.6860026], [0.3286822, 47.6859304], [0.3292999, 47.6858473], [0.3303034, 47.6859534], [0.331805, 47.6860102], [0.3325513, 47.6860111], [0.3341982, 47.6859364], [0.3349183, 47.6861298], [0.3359193, 47.686476], [0.3366913, 47.6866797], [0.3369607, 47.6867842], [0.3372873, 47.6869991], [0.3383335, 47.687512], [0.3391947, 47.6878989], [0.3399007, 47.6880678], [0.3401834, 47.6880567], [0.3410346, 47.6883042], [0.3413517, 47.6884817], [0.3416835, 47.6886509], [0.3419401, 47.6887809], [0.3422874, 47.6888863], [0.3427436, 47.6890925], [0.3426755, 47.6892163], [0.3426959, 47.6894134], [0.3427644, 47.6896533], [0.343518, 47.6900776], [0.3432531, 47.6903359], [0.3434632, 47.6905019], [0.3437464, 47.6906526], [0.3437272, 47.6907864], [0.3426958, 47.6917061], [0.3428506, 47.6917644], [0.3436969, 47.6921047], [0.3441972, 47.6923292], [0.3457667, 47.6928563], [0.3458726, 47.6929071], [0.346386, 47.6932756], [0.3476833, 47.6942468], [0.3480768, 47.694373], [0.3483682, 47.6951302], [0.3484011, 47.6953645], [0.3483803, 47.6955458], [0.3483376, 47.6957314], [0.3481192, 47.6961533], [0.3479076, 47.6964152], [0.3476701, 47.6964817], [0.347448, 47.696488], [0.3465379, 47.6978327], [0.3462143, 47.6980445], [0.346022, 47.6981088], [0.3452892, 47.6982636], [0.3442804, 47.6984889], [0.343232, 47.6991887], [0.3429897, 47.6992812], [0.3419595, 47.6998465], [0.3413994, 47.7001788], [0.3410361, 47.7003618], [0.3407973, 47.700479], [0.3394697, 47.7014547], [0.339058, 47.7018599], [0.33888, 47.7020686], [0.3386774, 47.7021899], [0.3378344, 47.7023633], [0.3374245, 47.7024618], [0.3367625, 47.7027449], [0.3366086, 47.7028197], [0.3373593, 47.7028039], [0.3382246, 47.7028796], [0.3393217, 47.7029515], [0.3397554, 47.7029523], [0.3401922, 47.7029278], [0.3408486, 47.7029315], [0.3416087, 47.7030557], [0.3420939, 47.7030878], [0.3429143, 47.703291], [0.3432888, 47.7034455], [0.3439051, 47.7036337], [0.3444996, 47.7037447], [0.3459664, 47.7039207], [0.3471515, 47.7040759], [0.347797, 47.7041242], [0.3465761, 47.7028021], [0.346188, 47.7023494], [0.3455713, 47.7018973], [0.344609, 47.7008727], [0.346288, 47.7007108], [0.3479173, 47.7005939], [0.34976, 47.7003852], [0.3498241, 47.7004129], [0.3499307, 47.7005716], [0.3499775, 47.7006169], [0.3500594, 47.7006174], [0.3519823, 47.7002131], [0.3519927, 47.7001705], [0.3520872, 47.7000829], [0.3524028, 47.6999147], [0.3527763, 47.699639], [0.3530869, 47.6994248], [0.353841, 47.6990056], [0.3540666, 47.6989168], [0.3543743, 47.6988245], [0.355038, 47.6987348], [0.3551465, 47.6986931], [0.3554243, 47.6984232], [0.3559669, 47.6978585], [0.356489, 47.6973368], [0.3570197, 47.6966905], [0.3571399, 47.6964543], [0.357133, 47.6963603], [0.3568583, 47.6957853], [0.3568886, 47.6956453], [0.3570526, 47.695266], [0.3572199, 47.6949357], [0.3573645, 47.6943684], [0.357671, 47.6936482], [0.358185, 47.6942634], [0.3582521, 47.6943306], [0.3585282, 47.6941675], [0.360619, 47.6922248], [0.3606613, 47.6921855], [0.3608102, 47.6919631], [0.3609247, 47.6917085], [0.360984, 47.6914997], [0.3609436, 47.6911285], [0.3608194, 47.6904881], [0.3607764, 47.6900826], [0.3607799, 47.6898307], [0.3608692, 47.6896907], [0.3610019, 47.6894957], [0.3611315, 47.689064], [0.3611293, 47.6889892], [0.3610729, 47.6889211], [0.3597573, 47.6885513], [0.3597298, 47.6885092], [0.359741, 47.6884123], [0.3598936, 47.6878669], [0.3599761, 47.6872013], [0.359976, 47.6869525], [0.360038, 47.6864394], [0.3602111, 47.6858731], [0.360543, 47.685527], [0.3612857, 47.6849334], [0.3609931, 47.6845469], [0.3608411, 47.6843352], [0.3606153, 47.6841699], [0.3591273, 47.6833833], [0.3586602, 47.6830215], [0.3582769, 47.6826945], [0.3581372, 47.6825316], [0.3584337, 47.6822194], [0.3589263, 47.681732], [0.3594448, 47.681276], [0.360378, 47.6804739], [0.3604808, 47.6804381], [0.36075, 47.6804107], [0.3605269, 47.6801838], [0.3603369, 47.6800206], [0.3601407, 47.6798845], [0.35967, 47.6796474], [0.3593342, 47.6794616], [0.3590723, 47.6793052], [0.3589724, 47.6792013], [0.3584096, 47.6784909], [0.3581945, 47.6783093], [0.3580036, 47.6781846], [0.3579084, 47.6781274], [0.3577226, 47.6779961], [0.3571245, 47.6775076], [0.3571083, 47.6774479], [0.3571194, 47.6774128], [0.3569906, 47.6773867], [0.3570017, 47.6773553], [0.3573623, 47.6766368], [0.3576807, 47.6759458], [0.3579129, 47.6759572], [0.3585543, 47.6761206], [0.3590516, 47.6763004], [0.3592838, 47.6763475], [0.3593419, 47.6763477], [0.3594566, 47.6762971], [0.359713, 47.6759088], [0.3600664, 47.6753166], [0.3603424, 47.6748674], [0.3604037, 47.6748448], [0.3603989, 47.6748171], [0.3604121, 47.6747615], [0.3605884, 47.6744768], [0.3606433, 47.674378], [0.3596789, 47.6741512], [0.3586382, 47.6738803], [0.3583486, 47.6738442], [0.3579108, 47.6738348], [0.3574602, 47.6738131], [0.3567057, 47.673753], [0.3563368, 47.6737366], [0.3560874, 47.6737294], [0.3559089, 47.6737274], [0.3557857, 47.6737349], [0.3557695, 47.6736887], [0.355732, 47.6736445], [0.3556623, 47.6735876], [0.3554035, 47.6734288], [0.3546814, 47.6730148], [0.3544379, 47.6728978], [0.3535657, 47.6725994], [0.3525196, 47.6723249], [0.3515915, 47.6721154], [0.3514919, 47.6720926], [0.3514682, 47.6720215], [0.3513501, 47.6719637], [0.350862, 47.6717903], [0.3504918, 47.6716855], [0.3502183, 47.6715663], [0.3500895, 47.671476], [0.3499554, 47.6712773], [0.3499929, 47.6710173], [0.3500198, 47.6709125], [0.3499929, 47.6708511], [0.3499178, 47.6707933], [0.3497301, 47.670721], [0.3493975, 47.6706425], [0.3492263, 47.6706147], [0.3490224, 47.670593], [0.348841, 47.6705693], [0.3486577, 47.6705379], [0.348507, 47.6704988], [0.3483729, 47.6704492], [0.3482902, 47.6704016], [0.348212, 47.6703381], [0.3480993, 47.6702514], [0.3479724, 47.6701966], [0.347819, 47.6701413], [0.3461359, 47.6696382], [0.3460385, 47.6696141], [0.3459674, 47.669605], [0.3459214, 47.6696103], [0.3458583, 47.6696265], [0.3458181, 47.6696681], [0.3456424, 47.6701467], [0.3455298, 47.6702442], [0.3451811, 47.6705585], [0.344827, 47.6711437], [0.3447251, 47.6713676], [0.34443, 47.6717108], [0.3441726, 47.6720034], [0.3440063, 47.6722924], [0.3438078, 47.6726536], [0.3436576, 47.6728559], [0.3434986, 47.6729687], [0.3434629, 47.672994], [0.3434247, 47.673023], [0.3425203, 47.6737084], [0.342354, 47.6736433], [0.3421394, 47.6736036], [0.3410826, 47.6734844], [0.3405516, 47.6734808], [0.3399186, 47.6735278], [0.339409, 47.6736361], [0.3389047, 47.6738203], [0.3385775, 47.6740154], [0.3380732, 47.6743477], [0.337967, 47.6744458], [0.3378747, 47.6744958], [0.3378068, 47.6745116], [0.337687, 47.6745103], [0.3371881, 47.6744561], [0.3368126, 47.6744416], [0.3359811, 47.6744886], [0.3358782, 47.6744553], [0.3357227, 47.6744689], [0.3355483, 47.6744806], [0.3351742, 47.6744905], [0.3347651, 47.6744707], [0.3344231, 47.67443], [0.3339698, 47.6743506], [0.3333744, 47.6742223], [0.3320735, 47.6739189], [0.3307403, 47.6737255]]]}, "properties": {"colour": "yellow", "distance": 17.65, "name": "Qu'elle est belle ma campagne", "network": "lwn", "osmc:symbol": "yellow::yellow_bar:Va3:black", "ref": "Va3", "roundtrip": "yes", "route": "hiking", "signed_direction": "yes", "type": "route", "id": "Va3", "dureeEstim": 4.41, "denivelePo": null, "deniveleNe": null, "altiMax": null, "altiMin": null}}]}